"STATION","DATE","REPORT_TYPE","SOURCE","AWND","BackupDirection","BackupDistance","BackupDistanceUnit","BackupElements","BackupElevation","BackupElevationUnit","BackupEquipment","BackupLatitude","BackupLongitude","BackupName","CDSD","CLDD","DSNW","DailyAverageDewPointTemperature","DailyAverageDryBulbTemperature","DailyAverageRelativeHumidity","DailyAverageSeaLevelPressure","DailyAverageStationPressure","DailyAverageWetBulbTemperature","DailyAverageWindSpeed","DailyCoolingDegreeDays","DailyDepartureFromNormalAverageTemperature","DailyHeatingDegreeDays","DailyMaximumDryBulbTemperature","DailyMinimumDryBulbTemperature","DailyPeakWindDirection","DailyPeakWindSpeed","DailyPrecipitation","DailySnowDepth","DailySnowfall","DailySustainedWindDirection","DailySustainedWindSpeed","DailyWeather","HDSD","HTDD","HeavyFog","HourlyAltimeterSetting","HourlyDewPointTemperature","HourlyDryBulbTemperature","HourlyPrecipitation","HourlyPresentWeatherType","HourlyPressureChange","HourlyPressureTendency","HourlyRelativeHumidity","HourlySeaLevelPressure","HourlySkyConditions","HourlyStationPressure","HourlyVisibility","HourlyWetBulbTemperature","HourlyWindDirection","HourlyWindGustSpeed","HourlyWindSpeed","MonthlyAverageRH","MonthlyDaysWithGT001Precip","MonthlyDaysWithGT010Precip","MonthlyDaysWithGT32Temp","MonthlyDaysWithGT90Temp","MonthlyDaysWithLT0Temp","MonthlyDaysWithLT32Temp","MonthlyDepartureFromNormalAverageTemperature","MonthlyDepartureFromNormalCoolingDegreeDays","MonthlyDepartureFromNormalHeatingDegreeDays","MonthlyDepartureFromNormalMaximumTemperature","MonthlyDepartureFromNormalMinimumTemperature","MonthlyDepartureFromNormalPrecipitation","MonthlyDewpointTemperature","MonthlyGreatestPrecip","MonthlyGreatestPrecipDate","MonthlyGreatestSnowDepth","MonthlyGreatestSnowDepthDate","MonthlyGreatestSnowfall","MonthlyGreatestSnowfallDate","MonthlyMaxSeaLevelPressureValue","MonthlyMaxSeaLevelPressureValueDate","MonthlyMaxSeaLevelPressureValueTime","MonthlyMaximumTemperature","MonthlyMeanTemperature","MonthlyMinSeaLevelPressureValue","MonthlyMinSeaLevelPressureValueDate","MonthlyMinSeaLevelPressureValueTime","MonthlyMinimumTemperature","MonthlySeaLevelPressure","MonthlyStationPressure","MonthlyTotalLiquidPrecipitation","MonthlyTotalSnowfall","MonthlyWetBulb","NormalsCoolingDegreeDay","NormalsHeatingDegreeDay","REM","REPORT_TYPE","SOURCE","ShortDurationEndDate005","ShortDurationEndDate010","ShortDurationEndDate015","ShortDurationEndDate020","ShortDurationEndDate030","ShortDurationEndDate045","ShortDurationEndDate060","ShortDurationEndDate080","ShortDurationEndDate100","ShortDurationEndDate120","ShortDurationEndDate150","ShortDurationEndDate180","ShortDurationPrecipitationValue005","ShortDurationPrecipitationValue010","ShortDurationPrecipitationValue015","ShortDurationPrecipitationValue020","ShortDurationPrecipitationValue030","ShortDurationPrecipitationValue045","ShortDurationPrecipitationValue060","ShortDurationPrecipitationValue080","ShortDurationPrecipitationValue100","ShortDurationPrecipitationValue120","ShortDurationPrecipitationValue150","ShortDurationPrecipitationValue180","Sunrise","Sunset","TStorms","WindEquipmentChangeDate"
"72292023191","2014-01-01T00:51:00","FM-15","7",,,,,,,,,,,,,,,,,,,,,,,,,,,,,,,,,,,,,,"30.12","38","53","0.00",,"+0.01","8","57","30.09","CLR:00","28.42","10.00","46","230",,"5",,,,,,,,,,,,,,,,,,,,,,,,,,,,,,,,,,,,,"MET10101/01/14 00:51:02 METAR KAVX 010851Z 23004KT 10SM CLR 12/03 A3012 RMK AO2 SLP189 T01170033 58005 TSNO","FM-15","7",,,,,,,,,,,,,,,,,,,,,,,,,,,,
"72292023191","2014-01-01T01:51:00","FM-15","7",,,,,,,,,,,,,,,,,,,,,,,,,,,,,,,,,,,,,,"30.12","19","58","0.00",,,,"22","30.08","CLR:00","28.42","10.00","42","000",,"0",,,,,,,,,,,,,,,,,,,,,,,,,,,,,,,,,,,,,"MET09601/01/14 01:51:02 METAR KAVX 010951Z 00000KT 10SM CLR 14/M07 A3012 RMK AO2 SLP186 T01441072 TSNO","FM-15","7",,,,,,,,,,,,,,,,,,,,,,,,,,,,
"72292023191","2014-01-01T02:51:00","FM-15","7",,,,,,,,,,,,,,,,,,,,,,,,,,,,,,,,,,,,,,"30.12","19","58","0.00",,,,"22","30.08","CLR:00","28.42","10.00","42","000",,"0",,,,,,,,,,,,,,,,,,,,,,,,,,,,,,,,,,,,,"MET09601/01/14 02:51:02 METAR KAVX 011051Z 00000KT 10SM CLR 14/M07 A3012 RMK AO2 SLP185 T01441072 TSNO","FM-15","7",,,,,,,,,,,,,,,,,,,,,,,,,,,,
"72292023191","2014-01-01T03:51:00","FM-15","7",,,,,,,,,,,,,,,,,,,,,,,,,,,,,,,,,,,,,,"30.10","23","56","0.00",,"+0.01","8","28","30.07","CLR:00","28.40","10.00","42","160",,"3",,,,,,,,,,,,,,,,,,,,,,,,,,,,,,,,,,,,,"MET11401/01/14 03:51:02 METAR KAVX 011151Z 16003KT 10SM CLR 13/M05 A3010 RMK AO2 SLP184 T01331050 10150 20106 58005 TSNO","FM-15","7",,,,,,,,,,,,,,,,,,,,,,,,,,,,
"72292023191","2014-01-01T04:51:00","FM-15","7",,,,,,,,,,,,,,,,,,,,,,,,,,,,,,,,,,,,,,"30.10","19","57","0.00",,,,"23","30.07","CLR:00","28.40","10.00","42","000",,"0",,,,,,,,,,,,,,,,,,,,,,,,,,,,,,,,,,,,,"MET09601/01/14 04:51:02 METAR KAVX 011251Z 00000KT 10SM CLR 14/M07 A3010 RMK AO2 SLP183 T01391072 TSNO","FM-15","7",,,,,,,,,,,,,,,,,,,,,,,,,,,,
"72292023191","2014-01-01T05:51:00","FM-15","7",,,,,,,,,,,,,,,,,,,,,,,,,,,,,,,,,,,,,,"30.10","23","56","0.00",,,,"28","30.08","CLR:00","28.40","10.00","42","110",,"3",,,,,,,,,,,,,,,,,,,,,,,,,,,,,,,,,,,,,"MET09601/01/14 05:51:02 METAR KAVX 011351Z 11003KT 10SM CLR 13/M05 A3010 RMK AO2 SLP185 T01331050 TSNO","FM-15","7",,,,,,,,,,,,,,,,,,,,,,,,,,,,
"72292023191","2014-01-01T06:51:00","FM-15","7",,,,,,,,,,,,,,,,,,,,,,,,,,,,,,,,,,,,,,"30.11","21","54","0.00",,"-0.00","3","28","30.09","CLR:00","28.41","10.00","41","000",,"0",,,,,,,,,,,,,,,,,,,,,,,,,,,,,,,,,,,,,"MET10201/01/14 06:51:02 METAR KAVX 011451Z 00000KT 10SM CLR 12/M06 A3011 RMK AO2 SLP189 T01221061 53001 TSNO","FM-15","7",,,,,,,,,,,,,,,,,,,,,,,,,,,,
"72292023191","2014-01-01T07:51:00","FM-15","7",,,,,,,,,,,,,,,,,,,,,,,,,,,,,,,,,,,,,,"30.12","22","59","0.00",,,,"24","30.09","CLR:00","28.42","10.00","43","040",,"3",,,,,,,,,,,,,,,,,,,,,,,,,,,,,,,,,,,,,"MET09601/01/14 07:51:02 METAR KAVX 011551Z 04003KT 10SM CLR 15/M06 A3012 RMK AO2 SLP191 T01501056 TSNO","FM-15","7",,,,,,,,,,,,,,,,,,,,,,,,,,,,
"72292023191","2014-01-01T08:51:00","FM-15","7",,,,,,,,,,,,,,,,,,,,,,,,,,,,,,,,,,,,,,"30.14","20","61","0.00",,,,"20","30.11","CLR:00","28.44","10.00","44","000",,"0",,,,,,,,,,,,,,,,,,,,,,,,,,,,,,,,,,,,,"MET09601/01/14 08:51:02 METAR KAVX 011651Z 00000KT 10SM CLR 16/M07 A3014 RMK AO2 SLP196 T01611067 TSNO","FM-15","7",,,,,,,,,,,,,,,,,,,,,,,,,,,,
"72292023191","2014-01-01T09:51:00","FM-15","7",,,,,,,,,,,,,,,,,,,,,,,,,,,,,,,,,,,,,,"30.15","24","64","0.00",,"-0.04","1","22","30.11","CLR:00","28.45","10.00","46","070",,"6",,,,,,,,,,,,,,,,,,,,,,,,,,,,,,,,,,,,,"MET11401/01/14 09:51:02 METAR KAVX 011751Z 07005KT 10SM CLR 18/M04 A3015 RMK AO2 SLP196 T01781044 10183 20117 51014 TSNO","FM-15","7",,,,,,,,,,,,,,,,,,,,,,,,,,,,
"72292023191","2014-01-01T10:51:00","FM-15","7",,,,,,,,,,,,,,,,,,,,,,,,,,,,,,,,,,,,,,"30.14","34","66","0.00",,,,"30","30.10","CLR:00","28.44","10.00","50","000",,"0",,,,,,,,,,,,,,,,,,,,,,,,,,,,,,,,,,,,,"MET09501/01/14 10:51:02 METAR KAVX 011851Z 00000KT 10SM CLR 19/01 A3014 RMK AO2 SLP192 T01890011 TSNO","FM-15","7",,,,,,,,,,,,,,,,,,,,,,,,,,,,
"72292023191","2014-01-01T11:51:00","FM-15","7",,,,,,,,,,,,,,,,,,,,,,,,,,,,,,,,,,,,,,"30.12","44","64","0.00",,,,"48","30.09","CLR:00","28.42","10.00","53","300",,"3",,,,,,,,,,,,,,,,,,,,,,,,,,,,,,,,,,,,,"MET09501/01/14 11:51:02 METAR KAVX 011951Z 30003KT 10SM CLR 18/07 A3012 RMK AO2 SLP188 T01780067 TSNO","FM-15","7",,,,,,,,,,,,,,,,,,,,,,,,,,,,
"72292023191","2014-01-01T12:51:00","FM-15","7",,,,,,,,,,,,,,,,,,,,,,,,,,,,,,,,,,,,,,"30.10",,"64","0.00",,"+0.05","8",,"30.07","CLR:00","28.40","10.00",,"300",,"3",,,,,,,,,,,,,,,,,,,,,,,,,,,,,,,,,,,,,"MET10101/01/14 12:51:02 METAR KAVX 012051Z 30003KT 10SM CLR 18/09 A3010 RMK AO2 SLP183 T01780089 58016 TSNO","FM-15","7",,,,,,,,,,,,,,,,,,,,,,,,,,,,
"72292023191","2014-01-01T13:51:00","FM-15","7",,,,,,,,,,,,,,,,,,,,,,,,,,,,,,,,,,,,,,"30.09","46","68","0.00",,,,"45","30.04","CLR:00","28.39","10.00","56","000",,"0",,,,,,,,,,,,,,,,,,,,,,,,,,,,,,,,,,,,,"MET09501/01/14 13:51:02 METAR KAVX 012151Z 00000KT 10SM CLR 20/08 A3009 RMK AO2 SLP174 T02000078 TSNO","FM-15","7",,,,,,,,,,,,,,,,,,,,,,,,,,,,
"72292023191","2014-01-01T14:51:00","FM-15","7",,,,,,,,,,,,,,,,,,,,,,,,,,,,,,,,,,,,,,"30.08","32","68","0.00",,,,"26","30.04","CLR:00","28.38","10.00","51","VRB",,"3",,,,,,,,,,,,,,,,,,,,,,,,,,,,,,,,,,,,,"MET09501/01/14 14:51:02 METAR KAVX 012251Z VRB03KT 10SM CLR 20/00 A3008 RMK AO2 SLP172 T02000000 TSNO","FM-15","7",,,,,,,,,,,,,,,,,,,,,,,,,,,,
"72292023191","2014-01-01T15:51:00","FM-15","7",,,,,,,,,,,,,,,,,,,,,,,,,,,,,,,,,,,,,,"30.08","24","67","0.00",,"+0.01","5","20","30.04","CLR:00","28.38","10.00","48","360",,"3",,,,,,,,,,,,,,,,,,,,,,,,,,,,,,,,,,,,,"MET11401/01/14 15:51:02 METAR KAVX 012351Z 36003KT 10SM CLR 19/M04 A3008 RMK AO2 SLP174 T01941044 10211 20167 55005 TSNO","FM-15","7",,,,,,,,,,,,,,,,,,,,,,,,,,,,
"72292023191","2014-01-01T16:51:00","FM-15","7",,,,,,,,,,,,,,,,,,,,,,,,,,,,,,,,,,,,,,"30.08","19","65","0.00",,,,"17","30.04","CLR:00","28.38","10.00","45","040",,"5",,,,,,,,,,,,,,,,,,,,,,,,,,,,,,,,,,,,,"MET09601/01/14 16:51:01 METAR KAVX 020051Z 04004KT 10SM CLR 18/M07 A3008 RMK AO2 SLP174 T01831072 TSNO","FM-15","7",,,,,,,,,,,,,,,,,,,,,,,,,,,,
"72292023191","2014-01-01T17:51:00","FM-15","7",,,,,,,,,,,,,,,,,,,,,,,,,,,,,,,,,,,,,,"30.09","9s","67","0.00",,,,"10","30.05","CLR:00","28.39","10.00","44","000",,"0",,,,,,,,,,,,,,,,,,,,,,,,,,,,,,,,,,,,,"MET09601/01/14 17:51:01 METAR KAVX 020151Z 00000KT 10SM CLR 19/M13 A3009 RMK AO2 SLP176 T01941128 TSNO","FM-15","7",,,,,,,,,,,,,,,,,,,,,,,,,,,,
"72292023191","2014-01-01T18:51:00","FM-15","7",,,,,,,,,,,,,,,,,,,,,,,,,,,,,,,,,,,,,,"30.10","13","65","0.00",,"-0.01","3","13","30.07","CLR:00","28.40","10.00","44","040",,"6",,,,,,,,,,,,,,,,,,,,,,,,,,,,,,,,,,,,,"MET10201/01/14 18:51:01 METAR KAVX 020251Z 04005KT 10SM CLR 18/M11 A3010 RMK AO2 SLP182 T01831106 53005 TSNO","FM-15","7",,,,,,,,,,,,,,,,,,,,,,,,,,,,
"72292023191","2014-01-01T19:51:00","FM-15","7",,,,,,,,,,,,,,,,,,,,,,,,,,,,,,,,,,,,,,"30.11",,"66","0.00",,,,,"30.06","CLR:00","28.41","10.00",,"040",,"6",,,,,,,,,,,,,,,,,,,,,,,,,,,,,,,,,,,,,"MET09601/01/14 19:51:02 METAR KAVX 020351Z 04005KT 10SM CLR 19/M12 A3011 RMK AO2 SLP181 T01891122 TSNO","FM-15","7",,,,,,,,,,,,,,,,,,,,,,,,,,,,
"72292023191","2014-01-01T20:51:00","FM-15","7",,,,,,,,,,,,,,,,,,,,,,,,,,,,,,,,,,,,,,"30.11","26","66","0.00",,,,"22","30.06","CLR:00","28.41","10.00","48","070",,"7",,,,,,,,,,,,,,,,,,,,,,,,,,,,,,,,,,,,,"MET09601/01/14 20:51:02 METAR KAVX 020451Z 07006KT 10SM CLR 19/M03 A3011 RMK AO2 SLP181 T01891033 TSNO","FM-15","7",,,,,,,,,,,,,,,,,,,,,,,,,,,,
"72292023191","2014-01-01T21:51:00","FM-15","7",,,,,,,,,,,,,,,,,,,,,,,,,,,,,,,,,,,,,,"30.12","21","65","0.00",,"-0.02","1","19","30.07","CLR:00","28.42","10.00","46","060",,"7",,,,,,,,,,,,,,,,,,,,,,,,,,,,,,,,,,,,,"MET11401/01/14 21:51:02 METAR KAVX 020551Z 06006KT 10SM CLR 18/M06 A3012 RMK AO2 SLP182 T01831061 10200 20178 51006 TSNO","FM-15","7",,,,,,,,,,,,,,,,,,,,,,,,,,,,
"72292023191","2014-01-01T22:51:00","FM-15","7",,,,,,,,,,,,,,,,,,,,,,,,,,,,,,,,,,,,,,"30.12","19","66","0.00",,,,"16","30.06","CLR:00","28.42","10.00","46","060",,"9",,,,,,,,,,,,,,,,,,,,,,,,,,,,,,,,,,,,,"MET09801/01/14 22:51:02 METAR KAVX 020651Z 06008KT 10SM CLR 19/M07 A3012 RMK AO2 SLP181 T01891072 TSNO $","FM-15","7",,,,,,,,,,,,,,,,,,,,,,,,,,,,
"72292023191","2014-01-01T23:51:00","FM-15","7",,,,,,,,,,,,,,,,,,,,,,,,,,,,,,,,,,,,,,"30.12","19","65","0.00",,,,"17","30.07","CLR:00","28.42","10.00","45","020",,"7",,,,,,,,,,,,,,,,,,,,,,,,,,,,,,,,,,,,,"MET10801/01/14 23:51:02 METAR KAVX 020751Z 02006KT 10SM CLR 18/M07 A3012 RMK AO2 SLP182 T01831072 402110106 TSNO $","FM-15","7",,,,,,,,,,,,,,,,,,,,,,,,,,,,
"72292023191","2014-01-01T23:59:00","SOD  ","6",,,,,,,,,,,,,,,,"61",,,"28.41",,"3.4","0","6.2","4","70","51","030","13","0.00",,,"070","12",,,,,,,,,,,,,,,,,,,,,,,,,,,,,,,,,,,,,,,,,,,,,,,,,,,,,,,,,"SOD73024 HR PRECIPITATION (IN):0.00  24 HR MAX TEMP (F):70 24 HR MAX TEMP TIME (LST):1514 24 HR MIN TEMP (F):51 24 HR MIN TEMP TIME (LST):0029 AVERAGE STATION PRESSURE:28.410 MINIMUM SEA LEVEL PRESSURE:30.03 TIME OF OCCURRENCE:1514 PEAK WIND SPEED (MPH):13  PEAK WIND DIR (DEG):30  PEAK WIND TIME (LST):2326  FASTEST 2MIN SPEED (MPH):12 FASTEST 2MIN DIR (DEG):70  FASTEST 2MIN TIME (LST):2115 AVERAGE WIND SPEED (MPH):3.4  24 HR AVG TEMP (F):61 HEATING DEGREE DAYS:4   COOLING DEGREE DAYS:0   LATEST DAY MAX TEMP (0700-1900 LST):70  LATEST NIGHT MIN TEMP(1900-0800 LST):51 HOURLY INCREMENTAL PRECIPITATION VALUES (IN):.00 0.00 0.00 0.00 0.00 0.00 0.00 0.00 0.00 0.00 0.00 0.00 0.00 0.00 0.00 0.00 0.00 0.00 0.00 0.00 0.00 0.00 0.00 0.00","SOD  ","6",,,,,,,,,,,,,,,,,,,,,,,,,"0658","1657",,
"72292023191","2014-01-02T00:51:00","FM-15","7",,,,,,,,,,,,,,,,,,,,,,,,,,,,,,,,,,,,,,"30.12","21","65","0.00",,"+0.00","8","19","30.06","CLR:00","28.42","10.00","46","360",,"7",,,,,,,,,,,,,,,,,,,,,,,,,,,,,,,,,,,,,"MET10401/02/14 00:51:02 METAR KAVX 020851Z 36006KT 10SM CLR 18/M06 A3012 RMK AO2 SLP181 T01831061 58000 TSNO $","FM-15","7",,,,,,,,,,,,,,,,,,,,,,,,,,,,
"72292023191","2014-01-02T01:51:00","FM-15","7",,,,,,,,,,,,,,,,,,,,,,,,,,,,,,,,,,,,,,"30.12","23","64","0.00",,,,"21","30.06","CLR:00","28.42","10.00","46","010",,"7",,,,,,,,,,,,,,,,,,,,,,,,,,,,,,,,,,,,,"MET09801/02/14 01:51:02 METAR KAVX 020951Z 01006KT 10SM CLR 18/M05 A3012 RMK AO2 SLP181 T01781050 TSNO $","FM-15","7",,,,,,,,,,,,,,,,,,,,,,,,,,,,
"72292023191","2014-01-02T02:51:00","FM-15","7",,,,,,,,,,,,,,,,,,,,,,,,,,,,,,,,,,,,,,"30.11","25","65","0.00",,,,"22","30.06","CLR:00","28.41","10.00","47","360",,"7",,,,,,,,,,,,,,,,,,,,,,,,,,,,,,,,,,,,,"MET09801/02/14 02:51:02 METAR KAVX 021051Z 36006KT 10SM CLR 18/M04 A3011 RMK AO2 SLP178 T01831039 TSNO $","FM-15","7",,,,,,,,,,,,,,,,,,,,,,,,,,,,
"72292023191","2014-01-02T03:51:00","FM-15","7",,,,,,,,,,,,,,,,,,,,,,,,,,,,,,,,,,,,,,"30.10","21","66","0.00",,"+0.02","8","18","30.04","CLR:00","28.40","10.00","46","030",,"7",,,,,,,,,,,,,,,,,,,,,,,,,,,,,,,,,,,,,"MET11601/02/14 03:51:02 METAR KAVX 021151Z 03006KT 10SM CLR 19/M06 A3010 RMK AO2 SLP173 T01891061 10194 20172 58006 TSNO $","FM-15","7",,,,,,,,,,,,,,,,,,,,,,,,,,,,
"72292023191","2014-01-02T04:51:00","FM-15","7",,,,,,,,,,,,,,,,,,,,,,,,,,,,,,,,,,,,,,"30.10","22","61","0.00",,,,"22","30.05","CLR:00","28.40","10.00","44","050",,"8",,,,,,,,,,,,,,,,,,,,,,,,,,,,,,,,,,,,,"MET09801/02/14 04:51:02 METAR KAVX 021251Z 05007KT 10SM CLR 16/M06 A3010 RMK AO2 SLP177 T01611056 TSNO $","FM-15","7",,,,,,,,,,,,,,,,,,,,,,,,,,,,
"72292023191","2014-01-02T05:51:00","FM-15","7",,,,,,,,,,,,,,,,,,,,,,,,,,,,,,,,,,,,,,"30.10","18","63","0.00",,,,"17","30.05","CLR:00","28.40","10.00","44","000",,"0",,,,,,,,,,,,,,,,,,,,,,,,,,,,,,,,,,,,,"MET09801/02/14 05:51:02 METAR KAVX 021351Z 00000KT 10SM CLR 17/M08 A3010 RMK AO2 SLP175 T01721078 TSNO $","FM-15","7",,,,,,,,,,,,,,,,,,,,,,,,,,,,
"72292023191","2014-01-02T06:51:00","FM-15","7",,,,,,,,,,,,,,,,,,,,,,,,,,,,,,,,,,,,,,"30.11","17","66","0.00",,"-0.01","3","15","30.05","CLR:00","28.41","10.00","45","150",,"5",,,,,,,,,,,,,,,,,,,,,,,,,,,,,,,,,,,,,"MET10401/02/14 06:51:02 METAR KAVX 021451Z 15004KT 10SM CLR 19/M08 A3011 RMK AO2 SLP176 T01891083 53002 TSNO $","FM-15","7",,,,,,,,,,,,,,,,,,,,,,,,,,,,
"72292023191","2014-01-02T07:51:00","FM-15","7",,,,,,,,,,,,,,,,,,,,,,,,,,,,,,,,,,,,,,"30.12","18","68","0.00",,,,"15","30.06","CLR:00","28.42","10.00","47","140",,"6",,,,,,,,,,,,,,,,,,,,,,,,,,,,,,,,,,,,,"MET09801/02/14 07:51:02 METAR KAVX 021551Z 14005KT 10SM CLR 20/M08 A3012 RMK AO2 SLP180 T02001078 TSNO $","FM-15","7",,,,,,,,,,,,,,,,,,,,,,,,,,,,
"72292023191","2014-01-02T08:51:00","FM-15","7",,,,,,,,,,,,,,,,,,,,,,,,,,,,,,,,,,,,,,"30.13","19","71","0.00",,,,"14","30.06","CLR:00","28.43","10.00","48","130",,"6",,,,,,,,,,,,,,,,,,,,,,,,,,,,,,,,,,,,,"MET09801/02/14 08:51:02 METAR KAVX 021651Z 13005KT 10SM CLR 22/M07 A3013 RMK AO2 SLP180 T02171072 TSNO $","FM-15","7",,,,,,,,,,,,,,,,,,,,,,,,,,,,
"72292023191","2014-01-02T09:51:00","FM-15","7",,,,,,,,,,,,,,,,,,,,,,,,,,,,,,,,,,,,,,"30.14","20","73","0.00",,"-0.03","1","13","30.07","CLR:00","28.44","10.00","49","140",,"9",,,,,,,,,,,,,,,,,,,,,,,,,,,,,,,,,,,,,"MET11601/02/14 09:51:02 METAR KAVX 021751Z 14008KT 10SM CLR 23/M07 A3014 RMK AO2 SLP183 T02281067 10228 20161 51010 TSNO $","FM-15","7",,,,,,,,,,,,,,,,,,,,,,,,,,,,
"72292023191","2014-01-02T10:23:00","FM-16","7",,,,,,,,,,,,,,,,,,,,,,,,,,,,,,,,,,,,,,"30.14","21","73",,"HZ:7 |FU |HZ",,,"14",,"CLR:00","28.44","2.00","50","130",,"8",,,,,,,,,,,,,,,,,,,,,,,,,,,,,,,,,,,,,"MET08301/02/14 10:23:02 SPECI KAVX 021823Z 13007KT 2SM HZ CLR 23/M06 A3014 RMK AO2 TSNO $","FM-16","7",,,,,,,,,,,,,,,,,,,,,,,,,,,,
"72292023191","2014-01-02T10:33:00","FM-16","7",,,,,,,,,,,,,,,,,,,,,,,,,,,,,,,,,,,,,,"30.13","21","75",,,,,"13",,"CLR:00","28.43","10.00","51","VRB",,"5",,,,,,,,,,,,,,,,,,,,,,,,,,,,,,,,,,,,,"MET08101/02/14 10:33:02 SPECI KAVX 021833Z VRB04KT 10SM CLR 24/M06 A3013 RMK AO2 TSNO $","FM-16","7",,,,,,,,,,,,,,,,,,,,,,,,,,,,
"72292023191","2014-01-02T10:51:00","FM-15","7",,,,,,,,,,,,,,,,,,,,,,,,,,,,,,,,,,,,,,"30.13","25","76","0.00",,,,"15","30.06","CLR:00","28.43","10.00","52","000",,"0",,,,,,,,,,,,,,,,,,,,,,,,,,,,,,,,,,,,,"MET09801/02/14 10:51:02 METAR KAVX 021851Z 00000KT 10SM CLR 24/M04 A3013 RMK AO2 SLP178 T02441039 TSNO $","FM-15","7",,,,,,,,,,,,,,,,,,,,,,,,,,,,
"72292023191","2014-01-02T11:51:00","FM-15","7",,,,,,,,,,,,,,,,,,,,,,,,,,,,,,,,,,,,,,"30.10","33","71","0.00",,,,"25","30.03","CLR:00","28.40","10.00","52","290",,"5",,,,,,,,,,,,,,,,,,,,,,,,,,,,,,,,,,,,,"MET09701/02/14 11:51:02 METAR KAVX 021951Z 29004KT 10SM CLR 22/01 A3010 RMK AO2 SLP171 T02170006 TSNO $","FM-15","7",,,,,,,,,,,,,,,,,,,,,,,,,,,,
"72292023191","2014-01-02T12:51:00","FM-15","7",,,,,,,,,,,,,,,,,,,,,,,,,,,,,,,,,,,,,,"30.07","30","72","0.00",,"+0.06","8","21","30.01","CLR:00","28.37","10.00","52","260",,"6",,,,,,,,,,,,,,,,,,,,,,,,,,,,,,,,,,,,,"MET10401/02/14 12:51:02 METAR KAVX 022051Z 26005KT 10SM CLR 22/M01 A3007 RMK AO2 SLP161 T02221011 58021 TSNO $","FM-15","7",,,,,,,,,,,,,,,,,,,,,,,,,,,,
"72292023191","2014-01-02T13:51:00","FM-15","7",,,,,,,,,,,,,,,,,,,,,,,,,,,,,,,,,,,,,,"30.05","27","71","0.00",,,,"19","29.99","CLR:00","28.35","10.00","50","240",,"6",,,,,,,,,,,,,,,,,,,,,,,,,,,,,,,,,,,,,"MET09801/02/14 13:51:02 METAR KAVX 022151Z 24005KT 10SM CLR 22/M03 A3005 RMK AO2 SLP155 T02171028 TSNO $","FM-15","7",,,,,,,,,,,,,,,,,,,,,,,,,,,,
"72292023191","2014-01-02T14:51:00","FM-15","7",,,,,,,,,,,,,,,,,,,,,,,,,,,,,,,,,,,,,,"30.05","21","71","0.00",,,,"15","29.99","CLR:00","28.35","10.00","49","250",,"7",,,,,,,,,,,,,,,,,,,,,,,,,,,,,,,,,,,,,"MET09801/02/14 14:51:02 METAR KAVX 022251Z 25006KT 10SM CLR 22/M06 A3005 RMK AO2 SLP156 T02171061 TSNO $","FM-15","7",,,,,,,,,,,,,,,,,,,,,,,,,,,,
"72292023191","2014-01-02T15:51:00","FM-15","7",,,,,,,,,,,,,,,,,,,,,,,,,,,,,,,,,,,,,,"30.05","20","70","0.00",,"+0.02","6","15","29.98","CLR:00","28.35","10.00","48","260",,"5",,,,,,,,,,,,,,,,,,,,,,,,,,,,,,,,,,,,,"MET11601/02/14 15:51:02 METAR KAVX 022351Z 26004KT 10SM CLR 21/M07 A3005 RMK AO2 SLP154 T02111067 10244 20211 56007 TSNO $","FM-15","7",,,,,,,,,,,,,,,,,,,,,,,,,,,,
"72292023191","2014-01-02T16:51:00","FM-15","7",,,,,,,,,,,,,,,,,,,,,,,,,,,,,,,,,,,,,,"30.05","20","68","0.00",,,,"16","29.99","CLR:00","28.35","10.00","47","240",,"3",,,,,,,,,,,,,,,,,,,,,,,,,,,,,,,,,,,,,"MET09801/02/14 16:51:01 METAR KAVX 030051Z 24003KT 10SM CLR 20/M07 A3005 RMK AO2 SLP157 T02001067 TSNO $","FM-15","7",,,,,,,,,,,,,,,,,,,,,,,,,,,,
"72292023191","2014-01-02T17:51:00","FM-15","7",,,,,,,,,,,,,,,,,,,,,,,,,,,,,,,,,,,,,,"30.05","17","69","0.00",,,,"14","29.99","CLR:00","28.35","10.00","47","290",,"3",,,,,,,,,,,,,,,,,,,,,,,,,,,,,,,,,,,,,"MET09801/02/14 17:51:01 METAR KAVX 030151Z 29003KT 10SM CLR 21/M08 A3005 RMK AO2 SLP156 T02061083 TSNO $","FM-15","7",,,,,,,,,,,,,,,,,,,,,,,,,,,,
"72292023191","2014-01-02T18:51:00","FM-15","7",,,,,,,,,,,,,,,,,,,,,,,,,,,,,,,,,,,,,,"30.05","18","66","0.00",,"-0.01","3","16","30.00","CLR:00","28.35","10.00","46","250",,"8",,,,,,,,,,,,,,,,,,,,,,,,,,,,,,,,,,,,,"MET10401/02/14 18:51:01 METAR KAVX 030251Z 25007KT 10SM CLR 19/M08 A3005 RMK AO2 SLP158 T01891078 53002 TSNO $","FM-15","7",,,,,,,,,,,,,,,,,,,,,,,,,,,,
"72292023191","2014-01-02T19:51:00","FM-15","7",,,,,,,,,,,,,,,,,,,,,,,,,,,,,,,,,,,,,,"30.06","18","66","0.00",,,,"16","30.00","CLR:00","28.36","10.00","46","260",,"6",,,,,,,,,,,,,,,,,,,,,,,,,,,,,,,,,,,,,"MET09801/02/14 19:51:02 METAR KAVX 030351Z 26005KT 10SM CLR 19/M08 A3006 RMK AO2 SLP159 T01891078 TSNO $","FM-15","7",,,,,,,,,,,,,,,,,,,,,,,,,,,,
"72292023191","2014-01-02T20:51:00","FM-15","7",,,,,,,,,,,,,,,,,,,,,,,,,,,,,,,,,,,,,,"30.06","18","66","0.00",,,,"16","30.00","CLR:00","28.36","10.00","46","270",,"6",,,,,,,,,,,,,,,,,,,,,,,,,,,,,,,,,,,,,"MET09801/02/14 20:51:02 METAR KAVX 030451Z 27005KT 10SM CLR 19/M08 A3006 RMK AO2 SLP158 T01891078 TSNO $","FM-15","7",,,,,,,,,,,,,,,,,,,,,,,,,,,,
"72292023191","2014-01-02T21:51:00","FM-15","7",,,,,,,,,,,,,,,,,,,,,,,,,,,,,,,,,,,,,,"30.07","17","67","0.00",,"-0.01","1","15","30.00","CLR:00","28.37","10.00","46","320",,"3",,,,,,,,,,,,,,,,,,,,,,,,,,,,,,,,,,,,,"MET11601/02/14 21:51:02 METAR KAVX 030551Z 32003KT 10SM CLR 19/M08 A3007 RMK AO2 SLP158 T01941083 10206 20178 51004 TSNO $","FM-15","7",,,,,,,,,,,,,,,,,,,,,,,,,,,,
"72292023191","2014-01-02T22:51:00","FM-15","7",,,,,,,,,,,,,,,,,,,,,,,,,,,,,,,,,,,,,,"30.06","17","66","0.00",,,,"15","29.99","CLR:00","28.36","10.00","45","300",,"5",,,,,,,,,,,,,,,,,,,,,,,,,,,,,,,,,,,,,"MET09801/02/14 22:51:02 METAR KAVX 030651Z 30004KT 10SM CLR 19/M08 A3006 RMK AO2 SLP156 T01891083 TSNO $","FM-15","7",,,,,,,,,,,,,,,,,,,,,,,,,,,,
"72292023191","2014-01-02T23:51:00","FM-15","7",,,,,,,,,,,,,,,,,,,,,,,,,,,,,,,,,,,,,,"30.05","17","66","0.00",,,,"15","29.99","CLR:00","28.35","10.00","45","310",,"5",,,,,,,,,,,,,,,,,,,,,,,,,,,,,,,,,,,,,"MET10801/02/14 23:51:02 METAR KAVX 030751Z 31004KT 10SM CLR 19/M08 A3005 RMK AO2 SLP155 T01891083 402440161 TSNO $","FM-15","7",,,,,,,,,,,,,,,,,,,,,,,,,,,,
"72292023191","2014-01-02T23:59:00","SOD  ","6",,,,,,,,,,,,,,,,"69",,,"28.38",,"5.3","4","14.2","0","76","61","140","14","0.00",,,"140","10","HZ",,,,,,,,,,,,,,,,,,,,,,,,,,,,,,,,,,,,,,,,,,,,,,,,,,,,,,,,"SOD74724 HR PRECIPITATION (IN):0.00  WEATHER(CODE):8  24 HR MAX TEMP (F):76 24 HR MAX TEMP TIME (LST):1051 24 HR MIN TEMP (F):61 24 HR MIN TEMP TIME (LST):0453 AVERAGE STATION PRESSURE:28.385 MINIMUM SEA LEVEL PRESSURE:29.98 TIME OF OCCURRENCE:1805 PEAK WIND SPEED (MPH):14  PEAK WIND DIR (DEG):140 PEAK WIND TIME (LST):1018  FASTEST 2MIN SPEED (MPH):10 FASTEST 2MIN DIR (DEG):140 FASTEST 2MIN TIME (LST):1008 AVERAGE WIND SPEED (MPH):5.3  24 HR AVG TEMP (F):69 HEATING DEGREE DAYS:0   COOLING DEGREE DAYS:4   LATEST DAY MAX TEMP (0700-1900 LST):76  LATEST NIGHT MIN TEMP(1900-0800 LST):61 HOURLY INCREMENTAL PRECIPITATION VALUES (IN):.00 0.00 0.00 0.00 0.00 0.00 0.00 0.00 0.00 0.00 0.00 0.00 0.00 0.00 0.00 0.00 0.00 0.00 0.00 0.00 0.00 0.00 0.00 0.00","SOD  ","6",,,,,,,,,,,,,,,,,,,,,,,,,"0658","1658",,
"72292023191","2014-01-03T00:51:00","FM-15","7",,,,,,,,,,,,,,,,,,,,,,,,,,,,,,,,,,,,,,"30.05","16","66","0.00",,"+0.01","6","14","29.98","CLR:00","28.35","10.00","45","290",,"3",,,,,,,,,,,,,,,,,,,,,,,,,,,,,,,,,,,,,"MET10401/03/14 00:51:02 METAR KAVX 030851Z 29003KT 10SM CLR 19/M09 A3005 RMK AO2 SLP154 T01891089 56005 TSNO $","FM-15","7",,,,,,,,,,,,,,,,,,,,,,,,,,,,
"72292023191","2014-01-03T01:51:00","FM-15","7",,,,,,,,,,,,,,,,,,,,,,,,,,,,,,,,,,,,,,"30.05","16","66","0.00",,,,"14","29.98","CLR:00","28.35","10.00","45","300",,"3",,,,,,,,,,,,,,,,,,,,,,,,,,,,,,,,,,,,,"MET09801/03/14 01:51:02 METAR KAVX 030951Z 30003KT 10SM CLR 19/M09 A3005 RMK AO2 SLP152 T01891089 TSNO $","FM-15","7",,,,,,,,,,,,,,,,,,,,,,,,,,,,
"72292023191","2014-01-03T02:51:00","FM-15","7",,,,,,,,,,,,,,,,,,,,,,,,,,,,,,,,,,,,,,"30.04","15","66","0.00",,,,"14","29.97","CLR:00","28.34","10.00","45","000",,"0",,,,,,,,,,,,,,,,,,,,,,,,,,,,,,,,,,,,,"MET09801/03/14 02:51:02 METAR KAVX 031051Z 00000KT 10SM CLR 19/M09 A3004 RMK AO2 SLP149 T01891094 TSNO $","FM-15","7",,,,,,,,,,,,,,,,,,,,,,,,,,,,
"72292023191","2014-01-03T03:51:00","FM-15","7",,,,,,,,,,,,,,,,,,,,,,,,,,,,,,,,,,,,,,"30.03","16","65","0.00",,"+0.02","8","15","29.96","CLR:00","28.33","10.00","45","000",,"0",,,,,,,,,,,,,,,,,,,,,,,,,,,,,,,,,,,,,"MET11601/03/14 03:51:02 METAR KAVX 031151Z 00000KT 10SM CLR 18/M09 A3003 RMK AO2 SLP146 T01831089 10194 20172 58008 TSNO $","FM-15","7",,,,,,,,,,,,,,,,,,,,,,,,,,,,
"72292023191","2014-01-03T04:51:00","FM-15","7",,,,,,,,,,,,,,,,,,,,,,,,,,,,,,,,,,,,,,"30.02","19","66","0.00",,,,"16","29.96","CLR:00","28.32","10.00","46","000",,"0",,,,,,,,,,,,,,,,,,,,,,,,,,,,,,,,,,,,,"MET09801/03/14 04:51:02 METAR KAVX 031251Z 00000KT 10SM CLR 19/M07 A3002 RMK AO2 SLP146 T01891072 TSNO $","FM-15","7",,,,,,,,,,,,,,,,,,,,,,,,,,,,
"72292023191","2014-01-03T05:51:00","FM-15","7",,,,,,,,,,,,,,,,,,,,,,,,,,,,,,,,,,,,,,"30.03","15","65","0.00",,,,"14","29.97","CLR:00","28.33","10.00","45","000",,"0",,,,,,,,,,,,,,,,,,,,,,,,,,,,,,,,,,,,,"MET09801/03/14 05:51:02 METAR KAVX 031351Z 00000KT 10SM CLR 18/M09 A3003 RMK AO2 SLP149 T01831094 TSNO $","FM-15","7",,,,,,,,,,,,,,,,,,,,,,,,,,,,
"72292023191","2014-01-03T06:51:00","FM-15","7",,,,,,,,,,,,,,,,,,,,,,,,,,,,,,,,,,,,,,"30.04","17","64","0.00",,"-0.01","3","16","29.99","CLR:00","28.34","10.00","45","240",,"3",,,,,,,,,,,,,,,,,,,,,,,,,,,,,,,,,,,,,"MET10401/03/14 06:51:02 METAR KAVX 031451Z 24003KT 10SM CLR 18/M08 A3004 RMK AO2 SLP156 T01781083 53005 TSNO $","FM-15","7",,,,,,,,,,,,,,,,,,,,,,,,,,,,
"72292023191","2014-01-03T07:51:00","FM-15","7",,,,,,,,,,,,,,,,,,,,,,,,,,,,,,,,,,,,,,"30.05","18","64","0.00",,,,"17","30.00","CLR:00","28.35","10.00","45","000",,"0",,,,,,,,,,,,,,,,,,,,,,,,,,,,,,,,,,,,,"MET09601/03/14 07:51:02 METAR KAVX 031551Z 00000KT 10SM CLR 18/M08 A3005 RMK AO2 SLP159 T01781078 TSNO","FM-15","7",,,,,,,,,,,,,,,,,,,,,,,,,,,,
"72292023191","2014-01-03T08:51:00","FM-15","7",,,,,,,,,,,,,,,,,,,,,,,,,,,,,,,,,,,,,,"30.06","18","66","0.00",,,,"16","30.01","CLR:00","28.36","10.00","46","240",,"5",,,,,,,,,,,,,,,,,,,,,,,,,,,,,,,,,,,,,"MET09601/03/14 08:51:02 METAR KAVX 031651Z 24004KT 10SM CLR 19/M08 A3006 RMK AO2 SLP161 T01891078 TSNO","FM-15","7",,,,,,,,,,,,,,,,,,,,,,,,,,,,
"72292023191","2014-01-03T09:51:00","FM-15","7",,,,,,,,,,,,,,,,,,,,,,,,,,,,,,,,,,,,,,"30.06","19","67","0.00",,"-0.02","1","16","30.01","CLR:00","28.36","10.00","46","000",,"0",,,,,,,,,,,,,,,,,,,,,,,,,,,,,,,,,,,,,"MET11401/03/14 09:51:02 METAR KAVX 031751Z 00000KT 10SM CLR 19/M07 A3006 RMK AO2 SLP161 T01941072 10194 20172 51006 TSNO","FM-15","7",,,,,,,,,,,,,,,,,,,,,,,,,,,,
"72292023191","2014-01-03T10:51:00","FM-15","7",,,,,,,,,,,,,,,,,,,,,,,,,,,,,,,,,,,,,,"30.03","31","68","0.00",,,,"25","29.97","CLR:00","28.33","10.00","50","000",,"0",,,,,,,,,,,,,,,,,,,,,,,,,,,,,,,,,,,,,"MET09601/03/14 10:51:02 METAR KAVX 031851Z 00000KT 10SM CLR 20/M01 A3003 RMK AO2 SLP150 T02001006 TSNO","FM-15","7",,,,,,,,,,,,,,,,,,,,,,,,,,,,
"72292023191","2014-01-03T11:51:00","FM-15","7",,,,,,,,,,,,,,,,,,,,,,,,,,,,,,,,,,,,,,"30.00","21","69","0.00",,,,"16","29.93","CLR:00","28.30","10.00","48","250",,"6",,,,,,,,,,,,,,,,,,,,,,,,,,,,,,,,,,,,,"MET09601/03/14 11:51:02 METAR KAVX 031951Z 25005KT 10SM CLR 21/M06 A3000 RMK AO2 SLP137 T02061061 TSNO","FM-15","7",,,,,,,,,,,,,,,,,,,,,,,,,,,,
"72292023191","2014-01-03T12:51:00","FM-15","7",,,,,,,,,,,,,,,,,,,,,,,,,,,,,,,,,,,,,,"29.98","23","69","0.00",,"+0.08","6","17","29.91","CLR:00","28.28","10.00","48","250",,"6",,,,,,,,,,,,,,,,,,,,,,,,,,,,,,,,,,,,,"MET10201/03/14 12:51:02 METAR KAVX 032051Z 25005KT 10SM CLR 21/M05 A2998 RMK AO2 SLP130 T02061050 56027 TSNO","FM-15","7",,,,,,,,,,,,,,,,,,,,,,,,,,,,
"72292023191","2014-01-03T13:51:00","FM-15","7",,,,,,,,,,,,,,,,,,,,,,,,,,,,,,,,,,,,,,"29.96","25","68","0.00",,,,"20","29.91","CLR:00","28.27","10.00","48","260",,"6",,,,,,,,,,,,,,,,,,,,,,,,,,,,,,,,,,,,,"MET09601/03/14 13:51:02 METAR KAVX 032151Z 26005KT 10SM CLR 20/M04 A2996 RMK AO2 SLP127 T02001039 TSNO","FM-15","7",,,,,,,,,,,,,,,,,,,,,,,,,,,,
"72292023191","2014-01-03T14:51:00","FM-15","7",,,,,,,,,,,,,,,,,,,,,,,,,,,,,,,,,,,,,,"29.96","27","65","0.00",,,,"24","29.90","CLR:00","28.27","10.00","48","230",,"5",,,,,,,,,,,,,,,,,,,,,,,,,,,,,,,,,,,,,"MET09601/03/14 14:51:02 METAR KAVX 032251Z 23004KT 10SM CLR 18/M03 A2996 RMK AO2 SLP126 T01831028 TSNO","FM-15","7",,,,,,,,,,,,,,,,,,,,,,,,,,,,
"72292023191","2014-01-03T15:51:00","FM-15","7",,,,,,,,,,,,,,,,,,,,,,,,,,,,,,,,,,,,,,"29.96","23","64","0.00",,"+0.02","6","21","29.91","CLR:00","28.27","10.00","46","250",,"5",,,,,,,,,,,,,,,,,,,,,,,,,,,,,,,,,,,,,"MET11401/03/14 15:51:02 METAR KAVX 032351Z 25004KT 10SM CLR 18/M05 A2996 RMK AO2 SLP127 T01781050 10211 20178 56006 TSNO","FM-15","7",,,,,,,,,,,,,,,,,,,,,,,,,,,,
"72292023191","2014-01-03T16:51:00","FM-15","7",,,,,,,,,,,,,,,,,,,,,,,,,,,,,,,,,,,,,,"29.96","20","61","0.00",,,,"20","29.91","CLR:00","28.27","10.00","44","240",,"7",,,,,,,,,,,,,,,,,,,,,,,,,,,,,,,,,,,,,"MET09601/03/14 16:51:01 METAR KAVX 040051Z 24006KT 10SM CLR 16/M07 A2996 RMK AO2 SLP129 T01611067 TSNO","FM-15","7",,,,,,,,,,,,,,,,,,,,,,,,,,,,
"72292023191","2014-01-03T17:51:00","FM-15","7",,,,,,,,,,,,,,,,,,,,,,,,,,,,,,,,,,,,,,"29.96","18","62","0.00",,,,"18","29.91","CLR:00","28.27","10.00","44","250",,"8",,,,,,,,,,,,,,,,,,,,,,,,,,,,,,,,,,,,,"MET09801/03/14 17:51:01 METAR KAVX 040151Z 25007KT 10SM CLR 17/M08 A2996 RMK AO2 SLP129 T01671078 TSNO $","FM-15","7",,,,,,,,,,,,,,,,,,,,,,,,,,,,
"72292023191","2014-01-03T18:51:00","FM-15","7",,,,,,,,,,,,,,,,,,,,,,,,,,,,,,,,,,,,,,"29.97","17","62","0.00",,"-0.01","3","17","29.93","CLR:00","28.27","10.00","44","240",,"9",,,,,,,,,,,,,,,,,,,,,,,,,,,,,,,,,,,,,"MET10201/03/14 18:51:01 METAR KAVX 040251Z 24008KT 10SM CLR 17/M08 A2997 RMK AO2 SLP135 T01671083 53004 TSNO","FM-15","7",,,,,,,,,,,,,,,,,,,,,,,,,,,,
"72292023191","2014-01-03T19:51:00","FM-15","7",,,,,,,,,,,,,,,,,,,,,,,,,,,,,,,,,,,,,,"29.98","19","63","0.00",,,,"18","29.93","CLR:00","28.28","10.00","44","250",,"6",,,,,,,,,,,,,,,,,,,,,,,,,,,,,,,,,,,,,"MET09801/03/14 19:51:02 METAR KAVX 040351Z 25005KT 10SM CLR 17/M07 A2998 RMK AO2 SLP135 T01721072 TSNO $","FM-15","7",,,,,,,,,,,,,,,,,,,,,,,,,,,,
"72292023191","2014-01-03T20:51:00","FM-15","7",,,,,,,,,,,,,,,,,,,,,,,,,,,,,,,,,,,,,,"29.99","21","64","T",,,,"19","29.94","CLR:00","28.30","10.00","45","280",,"6",,,,,,,,,,,,,,,,,,,,,,,,,,,,,,,,,,,,,"MET09801/03/14 20:51:02 METAR KAVX 040451Z 28005KT 10SM CLR 18/M06 A2999 RMK AO2 SLP138 T01781061 TSNO $","FM-15","7",,,,,,,,,,,,,,,,,,,,,,,,,,,,
"72292023191","2014-01-03T20:59:00","FM-16","7",,,,,,,,,,,,,,,,,,,,,,,,,,,,,,,,,,,,,,"30.00","21","54","T","-RA:02 |RA |",,,"28",,"FEW:02 1","28.30","1.50","41","260",,"18",,,,,,,,,,,,,,,,,,,,,,,,,,,,,,,,,,,,,"MET10301/03/14 20:59:02 SPECI KAVX 040459Z 26016KT 1 1/2SM -RA FEW001 12/M06 A3000 RMK AO2 RAB59 P0000 TSNO $","FM-16","7",,,,,,,,,,,,,,,,,,,,,,,,,,,,
"72292023191","2014-01-03T21:06:00","FM-16","7",,,,,,,,,,,,,,,,,,,,,,,,,,,,,,,,,,,,,,"30.00",,"50","T","-RA:02 |RA |",,,,,"VV:09 1","28.30","0.75",,"230",,"9",,,,,,,,,,,,,,,,,,,,,,,,,,,,,,,,,,,,,"MET10101/03/14 21:06:02 SPECI KAVX 040506Z 23008KT 3/4SM -RA VV001 10/07 A3000 RMK AO2 RAB0459 P0000 TSNO $","FM-16","7",,,,,,,,,,,,,,,,,,,,,,,,,,,,
"72292023191","2014-01-03T21:09:00","FM-16","7",,,,,,,,,,,,,,,,,,,,,,,,,,,,,,,,,,,,,,"29.99",,"50","T","HZ:7 |FU |HZ",,,,,"SCT:04 1","28.30","1.25V",,"VRB",,"5",,,,,,,,,,,,,,,,,,,,,,,,,,,,,,,,,,,,,"MET11601/03/14 21:09:02 SPECI KAVX 040509Z VRB04KT 1 1/4SM HZ SCT001 10/07 A2999 RMK AO2 VIS 3/4V5 RAB0459E08 P0000 TSNO $","FM-16","7",,,,,,,,,,,,,,,,,,,,,,,,,,,,
"72292023191","2014-01-03T21:15:00","FM-16","7",,,,,,,,,,,,,,,,,,,,,,,,,,,,,,,,,,,,,,"30.00",,"52","T","HZ:7 |FU |HZ",,,,,"SCT:04 1","28.30","3.00",,"280",,"3",,,,,,,,,,,,,,,,,,,,,,,,,,,,,,,,,,,,,"MET10201/03/14 21:15:02 SPECI KAVX 040515Z 28003KT 3SM HZ SCT001 11/07 A3000 RMK AO2 RAB0459E08 P0000 TSNO $","FM-16","7",,,,,,,,,,,,,,,,,,,,,,,,,,,,
"72292023191","2014-01-03T21:51:00","FM-15","7",,,,,,,,,,,,,,,,,,,,,,,,,,,,,,,,,,,,,,"30.00","23","63","T",,"-0.02","1","22","29.94","CLR:00","28.30","10.00","46","000",,"0",,,,,,,,,,,,,,,,,,,,,,,,,,,,,,,,,,,,,"MET13901/03/14 21:51:02 METAR KAVX 040551Z 00000KT 10SM CLR 17/M05 A3000 RMK AO2 RAB0459E08 SLP140 P0000 60000 T01721050 10183 20100 51008 TSNO $","FM-15","7",,,,,,,,,,,,,,,,,,,,,,,,,,,,
"72292023191","2014-01-03T22:51:00","FM-15","7",,,,,,,,,,,,,,,,,,,,,,,,,,,,,,,,,,,,,,"30.00","20","63","0.00",,,,"19","29.94","CLR:00","28.30","10.00","45","000",,"0",,,,,,,,,,,,,,,,,,,,,,,,,,,,,,,,,,,,,"MET09801/03/14 22:51:02 METAR KAVX 040651Z 00000KT 10SM CLR 17/M07 A3000 RMK AO2 SLP138 T01721067 TSNO $","FM-15","7",,,,,,,,,,,,,,,,,,,,,,,,,,,,
"72292023191","2014-01-03T23:51:00","FM-15","7",,,,,,,,,,,,,,,,,,,,,,,,,,,,,,,,,,,,,,"29.99","27","56","0.00",,,,"33","29.94","CLR:00","28.30","10.00","43","230",,"6",,,,,,,,,,,,,,,,,,,,,,,,,,,,,,,,,,,,,"MET10801/03/14 23:51:02 METAR KAVX 040751Z 23005KT 10SM CLR 13/M03 A2999 RMK AO2 SLP139 T01331028 402110100 TSNO $","FM-15","7",,,,,,,,,,,,,,,,,,,,,,,,,,,,
"72292023191","2014-01-03T23:59:00","SOD  ","6",,,,,,,,,,,,,,,,"60s",,,"28.31",,"3.5","0s","5.1s","5s","70","50s","260","21","T",,,"260","20","RA HZ",,,,,,,,,,,,,,,,,,,,,,,,,,,,,,,,,,,,,,,,,,,,,,,,,,,,,,,,"SOD74724 HR PRECIPITATION (IN):T     WEATHER(CODE):8  24 HR MAX TEMP (F):70 24 HR MAX TEMP TIME (LST):1253 24 HR MIN TEMP (F):50 24 HR MIN TEMP TIME (LST):2113 AVERAGE STATION PRESSURE:28.310 MINIMUM SEA LEVEL PRESSURE:29.90 TIME OF OCCURRENCE:1719 PEAK WIND SPEED (MPH):21  PEAK WIND DIR (DEG):260 PEAK WIND TIME (LST):2058  FASTEST 2MIN SPEED (MPH):20 FASTEST 2MIN DIR (DEG):260 FASTEST 2MIN TIME (LST):2058 AVERAGE WIND SPEED (MPH):3.5  24 HR AVG TEMP (F):60 HEATING DEGREE DAYS:5   COOLING DEGREE DAYS:0   LATEST DAY MAX TEMP (0700-1900 LST):70  LATEST NIGHT MIN TEMP(1900-0800 LST):63 HOURLY INCREMENTAL PRECIPITATION VALUES (IN):.00 0.00 0.00 0.00 0.00 0.00 0.00 0.00 0.00 0.00 0.00 0.00 0.00 0.00 0.00 0.00 0.00 0.00 0.00 0.00 T    T    0.00 0.00","SOD  ","6",,,,,,,,,,,,,,,,,,,,,,,,,"0658","1659",,
"72292023191","2014-01-04T00:51:00","FM-15","7",,,,,,,,,,,,,,,,,,,,,,,,,,,,,,,,,,,,,,"29.98","29","59","0.00",,"+0.02","8","32","29.93","CLR:00","28.28","10.00","45","000",,"0",,,,,,,,,,,,,,,,,,,,,,,,,,,,,,,,,,,,,"MET10401/04/14 00:51:02 METAR KAVX 040851Z 00000KT 10SM CLR 15/M02 A2998 RMK AO2 SLP134 T01501017 58006 TSNO $","FM-15","7",,,,,,,,,,,,,,,,,,,,,,,,,,,,
"72292023191","2014-01-04T01:51:00","FM-15","7",,,,,,,,,,,,,,,,,,,,,,,,,,,,,,,,,,,,,,"29.98","22","62","0.00",,,,"21","29.92","CLR:00","28.28","10.00","45","000",,"0",,,,,,,,,,,,,,,,,,,,,,,,,,,,,,,,,,,,,"MET09801/04/14 01:51:02 METAR KAVX 040951Z 00000KT 10SM CLR 17/M06 A2998 RMK AO2 SLP133 T01671056 TSNO $","FM-15","7",,,,,,,,,,,,,,,,,,,,,,,,,,,,
"72292023191","2014-01-04T02:51:00","FM-15","7",,,,,,,,,,,,,,,,,,,,,,,,,,,,,,,,,,,,,,"29.97","24","60","0.00",,,,"25","29.93","CLR:00","28.27","10.00","44","000",,"0",,,,,,,,,,,,,,,,,,,,,,,,,,,,,,,,,,,,,"MET09801/04/14 02:51:02 METAR KAVX 041051Z 00000KT 10SM CLR 16/M04 A2997 RMK AO2 SLP134 T01561044 TSNO $","FM-15","7",,,,,,,,,,,,,,,,,,,,,,,,,,,,
"72292023191","2014-01-04T03:51:00","FM-15","7",,,,,,,,,,,,,,,,,,,,,,,,,,,,,,,,,,,,,,"29.97","22","61","0.00",,"+0.01","8","22","29.92","CLR:00","28.27","10.00","44","000",,"0",,,,,,,,,,,,,,,,,,,,,,,,,,,,,,,,,,,,,"MET11601/04/14 03:51:02 METAR KAVX 041151Z 00000KT 10SM CLR 16/M06 A2997 RMK AO2 SLP133 T01611056 10178 20106 58003 TSNO $","FM-15","7",,,,,,,,,,,,,,,,,,,,,,,,,,,,
"72292023191","2014-01-04T04:51:00","FM-15","7",,,,,,,,,,,,,,,,,,,,,,,,,,,,,,,,,,,,,,"29.96","23","59","0.00",,,,"25","29.92","CLR:00","28.27","10.00","44","000",,"0",,,,,,,,,,,,,,,,,,,,,,,,,,,,,,,,,,,,,"MET09801/04/14 04:51:02 METAR KAVX 041251Z 00000KT 10SM CLR 15/M05 A2996 RMK AO2 SLP133 T01501050 TSNO $","FM-15","7",,,,,,,,,,,,,,,,,,,,,,,,,,,,
"72292023191","2014-01-04T05:51:00","FM-15","7",,,,,,,,,,,,,,,,,,,,,,,,,,,,,,,,,,,,,,"29.96","22","58","0.00",,,,"25","29.93","CLR:00","28.27","10.00","43","000",,"0",,,,,,,,,,,,,,,,,,,,,,,,,,,,,,,,,,,,,"MET09801/04/14 05:51:02 METAR KAVX 041351Z 00000KT 10SM CLR 14/M06 A2996 RMK AO2 SLP135 T01441056 TSNO $","FM-15","7",,,,,,,,,,,,,,,,,,,,,,,,,,,,
"72292023191","2014-01-04T06:51:00","FM-15","7",,,,,,,,,,,,,,,,,,,,,,,,,,,,,,,,,,,,,,"29.98","24","55","0.00",,"-0.01","3","30","29.94","CLR:00","28.28","10.00","42","000",,"0",,,,,,,,,,,,,,,,,,,,,,,,,,,,,,,,,,,,,"MET10401/04/14 06:51:02 METAR KAVX 041451Z 00000KT 10SM CLR 13/M04 A2998 RMK AO2 SLP140 T01281044 53002 TSNO $","FM-15","7",,,,,,,,,,,,,,,,,,,,,,,,,,,,
"72292023191","2014-01-04T07:51:00","FM-15","7",,,,,,,,,,,,,,,,,,,,,,,,,,,,,,,,,,,,,,"29.99","33","55","0.00",,,,"44","29.96","CLR:00","28.30","10.00","45","000",,"0",,,,,,,,,,,,,,,,,,,,,,,,,,,,,,,,,,,,,"MET09701/04/14 07:51:02 METAR KAVX 041551Z 00000KT 10SM CLR 13/01 A2999 RMK AO2 SLP144 T01280006 TSNO $","FM-15","7",,,,,,,,,,,,,,,,,,,,,,,,,,,,
"72292023191","2014-01-04T08:51:00","FM-15","7",,,,,,,,,,,,,,,,,,,,,,,,,,,,,,,,,,,,,,"30.01","43","57","0.00",,,,"60","29.97","CLR:00","28.31","10.00","50","000",,"0",,,,,,,,,,,,,,,,,,,,,,,,,,,,,,,,,,,,,"MET09701/04/14 08:51:02 METAR KAVX 041651Z 00000KT 10SM CLR 14/06 A3001 RMK AO2 SLP148 T01390061 TSNO $","FM-15","7",,,,,,,,,,,,,,,,,,,,,,,,,,,,
"72292023191","2014-01-04T09:51:00","FM-15","7",,,,,,,,,,,,,,,,,,,,,,,,,,,,,,,,,,,,,,"30.02","47","56","0.00",,"-0.04","3","72","29.98","CLR:00","28.32","10.00","51","210",,"3",,,,,,,,,,,,,,,,,,,,,,,,,,,,,,,,,,,,,"MET11501/04/14 09:51:02 METAR KAVX 041751Z 21003KT 10SM CLR 13/08 A3002 RMK AO2 SLP153 T01330083 10161 20111 53014 TSNO $","FM-15","7",,,,,,,,,,,,,,,,,,,,,,,,,,,,
"72292023191","2014-01-04T10:51:00","FM-15","7",,,,,,,,,,,,,,,,,,,,,,,,,,,,,,,,,,,,,,"30.01","51","60","0.00",,,,"72","29.97","CLR:00","28.31","10.00","55","000",,"0",,,,,,,,,,,,,,,,,,,,,,,,,,,,,,,,,,,,,"MET09701/04/14 10:51:02 METAR KAVX 041851Z 00000KT 10SM CLR 16/11 A3001 RMK AO2 SLP148 T01560106 TSNO $","FM-15","7",,,,,,,,,,,,,,,,,,,,,,,,,,,,
"72292023191","2014-01-04T11:51:00","FM-15","7",,,,,,,,,,,,,,,,,,,,,,,,,,,,,,,,,,,,,,"29.98","52","60","0.00",,,,"75","29.96","CLR:00","28.28","10.00","56","300",,"3",,,,,,,,,,,,,,,,,,,,,,,,,,,,,,,,,,,,,"MET09701/04/14 11:51:02 METAR KAVX 041951Z 30003KT 10SM CLR 16/11 A2998 RMK AO2 SLP144 T01560111 TSNO $","FM-15","7",,,,,,,,,,,,,,,,,,,,,,,,,,,,
"72292023191","2014-01-04T12:51:00","FM-15","7",,,,,,,,,,,,,,,,,,,,,,,,,,,,,,,,,,,,,,"29.96","50","59","0.00",,"+0.05","8","72","29.93","CLR:00","28.27","10.00","54","260",,"6",,,,,,,,,,,,,,,,,,,,,,,,,,,,,,,,,,,,,"MET10301/04/14 12:51:02 METAR KAVX 042051Z 26005KT 10SM CLR 15/10 A2996 RMK AO2 SLP136 T01500100 58018 TSNO $","FM-15","7",,,,,,,,,,,,,,,,,,,,,,,,,,,,
"72292023191","2014-01-04T13:51:00","FM-15","7",,,,,,,,,,,,,,,,,,,,,,,,,,,,,,,,,,,,,,"29.97","50","57","0.00",,,,"78","29.93","CLR:00","28.27","10.00","53","230",,"5",,,,,,,,,,,,,,,,,,,,,,,,,,,,,,,,,,,,,"MET09701/04/14 13:51:02 METAR KAVX 042151Z 23004KT 10SM CLR 14/10 A2997 RMK AO2 SLP136 T01390100 TSNO $","FM-15","7",,,,,,,,,,,,,,,,,,,,,,,,,,,,
"72292023191","2014-01-04T14:51:00","FM-15","7",,,,,,,,,,,,,,,,,,,,,,,,,,,,,,,,,,,,,,"29.96","50","59","0.00",,,,"72","29.93","CLR:00","28.27","10.00","54","000",,"0",,,,,,,,,,,,,,,,,,,,,,,,,,,,,,,,,,,,,"MET09701/04/14 14:51:02 METAR KAVX 042251Z 00000KT 10SM CLR 15/10 A2996 RMK AO2 SLP134 T01500100 TSNO $","FM-15","7",,,,,,,,,,,,,,,,,,,,,,,,,,,,
"72292023191","2014-01-04T15:51:00","FM-15","7",,,,,,,,,,,,,,,,,,,,,,,,,,,,,,,,,,,,,,"29.96","48","55","0.00",,"-0.00","3","77","29.93","CLR:00","28.27","10.00","51","050",,"3",,,,,,,,,,,,,,,,,,,,,,,,,,,,,,,,,,,,,"MET11501/04/14 15:51:02 METAR KAVX 042351Z 05003KT 10SM CLR 13/09 A2996 RMK AO2 SLP137 T01280089 10172 20128 53001 TSNO $","FM-15","7",,,,,,,,,,,,,,,,,,,,,,,,,,,,
"72292023191","2014-01-04T16:51:00","FM-15","7",,,,,,,,,,,,,,,,,,,,,,,,,,,,,,,,,,,,,,"29.97","30","59","0.00",,,,"33","29.94","CLR:00","28.27","10.00","46","070",,"7",,,,,,,,,,,,,,,,,,,,,,,,,,,,,,,,,,,,,"MET09801/04/14 16:51:01 METAR KAVX 050051Z 07006KT 10SM CLR 15/M01 A2997 RMK AO2 SLP138 T01501011 TSNO $","FM-15","7",,,,,,,,,,,,,,,,,,,,,,,,,,,,
"72292023191","2014-01-04T17:51:00","FM-15","7",,,,,,,,,,,,,,,,,,,,,,,,,,,,,,,,,,,,,,"29.99","43","55","0.00",,,,"64","29.96","CLR:00","28.30","10.00","49","000",,"0",,,,,,,,,,,,,,,,,,,,,,,,,,,,,,,,,,,,,"MET09701/04/14 17:51:01 METAR KAVX 050151Z 00000KT 10SM CLR 13/06 A2999 RMK AO2 SLP146 T01280061 TSNO $","FM-15","7",,,,,,,,,,,,,,,,,,,,,,,,,,,,
"72292023191","2014-01-04T18:51:00","FM-15","7",,,,,,,,,,,,,,,,,,,,,,,,,,,,,,,,,,,,,,"30.01","35","56","0.00",,"-0.04","3","46","29.99","CLR:00","28.31","10.00","46","120",,"5",,,,,,,,,,,,,,,,,,,,,,,,,,,,,,,,,,,,,"MET10301/04/14 18:51:01 METAR KAVX 050251Z 12004KT 10SM CLR 13/02 A3001 RMK AO2 SLP155 T01330017 53014 TSNO $","FM-15","7",,,,,,,,,,,,,,,,,,,,,,,,,,,,
"72292023191","2014-01-04T19:51:00","FM-15","7",,,,,,,,,,,,,,,,,,,,,,,,,,,,,,,,,,,,,,"30.02",,"58","0.00",,,,,"29.99","CLR:00","28.32","10.00",,"140",,"7",,,,,,,,,,,,,,,,,,,,,,,,,,,,,,,,,,,,,"MET09801/04/14 19:51:02 METAR KAVX 050351Z 14006KT 10SM CLR 14/M06 A3002 RMK AO2 SLP156 T01441056 TSNO $","FM-15","7",,,,,,,,,,,,,,,,,,,,,,,,,,,,
"72292023191","2014-01-04T20:51:00","FM-15","7",,,,,,,,,,,,,,,,,,,,,,,,,,,,,,,,,,,,,,"30.03","29","56","0.00",,,,"36","30.00","CLR:00","28.33","10.00","44","000",,"0",,,,,,,,,,,,,,,,,,,,,,,,,,,,,,,,,,,,,"MET09801/04/14 20:51:02 METAR KAVX 050451Z 00000KT 10SM CLR 13/M02 A3003 RMK AO2 SLP160 T01331017 TSNO $","FM-15","7",,,,,,,,,,,,,,,,,,,,,,,,,,,,
"72292023191","2014-01-04T21:51:00","FM-15","7",,,,,,,,,,,,,,,,,,,,,,,,,,,,,,,,,,,,,,"30.04",,"50","0.00",,"-0.03","2",,"30.03","CLR:00","28.34","7.00",,"050",,"6",,,,,,,,,,,,,,,,,,,,,,,,,,,,,,,,,,,,,"MET11401/04/14 21:51:02 METAR KAVX 050551Z 05005KT 7SM CLR 10/08 A3004 RMK AO2 SLP168 T01000078 10150 20100 52009 TSNO $","FM-15","7",,,,,,,,,,,,,,,,,,,,,,,,,,,,
"72292023191","2014-01-04T22:51:00","FM-15","7",,,,,,,,,,,,,,,,,,,,,,,,,,,,,,,,,,,,,,"30.04","30","56","0.00",,,,"37","30.01","CLR:00","28.34","10.00","44","100",,"7",,,,,,,,,,,,,,,,,,,,,,,,,,,,,,,,,,,,,"MET09801/04/14 22:51:02 METAR KAVX 050651Z 10006KT 10SM CLR 13/M01 A3004 RMK AO2 SLP162 T01331011 TSNO $","FM-15","7",,,,,,,,,,,,,,,,,,,,,,,,,,,,
"72292023191","2014-01-04T23:51:00","FM-15","7",,,,,,,,,,,,,,,,,,,,,,,,,,,,,,,,,,,,,,"30.04","23","56","0.00",,,,"28","30.01","CLR:00","28.34","10.00","42","100",,"7",,,,,,,,,,,,,,,,,,,,,,,,,,,,,,,,,,,,,"MET10801/04/14 23:51:02 METAR KAVX 050751Z 10006KT 10SM CLR 13/M05 A3004 RMK AO2 SLP163 T01331050 401720100 TSNO $","FM-15","7",,,,,,,,,,,,,,,,,,,,,,,,,,,,
"72292023191","2014-01-04T23:59:00","SOD  ","6",,,,,,,,,,,,,,,,"57",,,"28.30",,"2.4","0","2.0","8","63","50","100","12","0.00",,,"100","9",,,,,,,,,,,,,,,,,,,,,,,,,,,,,,,,,,,,,,,,,,,,,,,,,,,,,,,,,"SOD73024 HR PRECIPITATION (IN):0.00  24 HR MAX TEMP (F):63 24 HR MAX TEMP TIME (LST):1215 24 HR MIN TEMP (F):50 24 HR MIN TEMP TIME (LST):2158 AVERAGE STATION PRESSURE:28.295 MINIMUM SEA LEVEL PRESSURE:29.92 TIME OF OCCURRENCE:1543 PEAK WIND SPEED (MPH):12  PEAK WIND DIR (DEG):100 PEAK WIND TIME (LST):2332  FASTEST 2MIN SPEED (MPH):9  FASTEST 2MIN DIR (DEG):100 FASTEST 2MIN TIME (LST):2332 AVERAGE WIND SPEED (MPH):2.4  24 HR AVG TEMP (F):57 HEATING DEGREE DAYS:8   COOLING DEGREE DAYS:0   LATEST DAY MAX TEMP (0700-1900 LST):63  LATEST NIGHT MIN TEMP(1900-0800 LST):50 HOURLY INCREMENTAL PRECIPITATION VALUES (IN):.00 0.00 0.00 0.00 0.00 0.00 0.00 0.00 0.00 0.00 0.00 0.00 0.00 0.00 0.00 0.00 0.00 0.00 0.00 0.00 0.00 0.00 0.00 0.00","SOD  ","6",,,,,,,,,,,,,,,,,,,,,,,,,"0658","1659",,
"72292023191","2014-01-05T00:51:00","FM-15","7",,,,,,,,,,,,,,,,,,,,,,,,,,,,,,,,,,,,,,"30.04","23","56","0.00",,"-0.00","0","28","30.01","CLR:00","28.34","10.00","42","130",,"6",,,,,,,,,,,,,,,,,,,,,,,,,,,,,,,,,,,,,"MET10401/05/14 00:51:02 METAR KAVX 050851Z 13005KT 10SM CLR 13/M05 A3004 RMK AO2 SLP162 T01331050 50000 TSNO $","FM-15","7",,,,,,,,,,,,,,,,,,,,,,,,,,,,
"72292023191","2014-01-05T01:51:00","FM-15","7",,,,,,,,,,,,,,,,,,,,,,,,,,,,,,,,,,,,,,"30.05","23","56","0.00",,,,"28","30.03","CLR:00","28.35","10.00","42","VRB",,"3",,,,,,,,,,,,,,,,,,,,,,,,,,,,,,,,,,,,,"MET09801/05/14 01:51:02 METAR KAVX 050951Z VRB03KT 10SM CLR 13/M05 A3005 RMK AO2 SLP168 T01331050 TSNO $","FM-15","7",,,,,,,,,,,,,,,,,,,,,,,,,,,,
"72292023191","2014-01-05T02:51:00","FM-15","7",,,,,,,,,,,,,,,,,,,,,,,,,,,,,,,,,,,,,,"30.06","15","56","0.00",,,,"20","30.03","CLR:00","28.36","10.00","40","100",,"8",,,,,,,,,,,,,,,,,,,,,,,,,,,,,,,,,,,,,"MET09801/05/14 02:51:02 METAR KAVX 051051Z 10007KT 10SM CLR 13/M09 A3006 RMK AO2 SLP170 T01331094 TSNO $","FM-15","7",,,,,,,,,,,,,,,,,,,,,,,,,,,,
"72292023191","2014-01-05T03:51:00","FM-15","7",,,,,,,,,,,,,,,,,,,,,,,,,,,,,,,,,,,,,,"30.06","20","57","0.00",,"-0.02","1","24","30.04","CLR:00","28.36","10.00","42","110",,"8",,,,,,,,,,,,,,,,,,,,,,,,,,,,,,,,,,,,,"MET11601/05/14 03:51:02 METAR KAVX 051151Z 11007KT 10SM CLR 14/M07 A3006 RMK AO2 SLP173 T01391067 10144 20100 51007 TSNO $","FM-15","7",,,,,,,,,,,,,,,,,,,,,,,,,,,,
"72292023191","2014-01-05T04:51:00","FM-15","7",,,,,,,,,,,,,,,,,,,,,,,,,,,,,,,,,,,,,,"30.07","22","57","0.00",,,,"26","30.04","CLR:00","28.37","10.00","42","100",,"9",,,,,,,,,,,,,,,,,,,,,,,,,,,,,,,,,,,,,"MET09801/05/14 04:51:02 METAR KAVX 051251Z 10008KT 10SM CLR 14/M06 A3007 RMK AO2 SLP172 T01391056 TSNO $","FM-15","7",,,,,,,,,,,,,,,,,,,,,,,,,,,,
"72292023191","2014-01-05T05:51:00","FM-15","7",,,,,,,,,,,,,,,,,,,,,,,,,,,,,,,,,,,,,,"30.07","28","57","0.00",,,,"33","30.05","CLR:00","28.37","10.00","44","100",,"10",,,,,,,,,,,,,,,,,,,,,,,,,,,,,,,,,,,,,"MET09801/05/14 05:51:02 METAR KAVX 051351Z 10009KT 10SM CLR 14/M02 A3007 RMK AO2 SLP177 T01391022 TSNO $","FM-15","7",,,,,,,,,,,,,,,,,,,,,,,,,,,,
"72292023191","2014-01-05T07:51:00","FM-15","7",,,,,,,,,,,,,,,,,,,,,,,,,,,,,,,,,,,,,,"30.11","28","63","0.00",,,,"27","30.08","CLR:00","28.41","10.00","47","130",,"9",,,,,,,,,,,,,,,,,,,,,,,,,,,,,,,,,,,,,"MET09801/05/14 07:51:02 METAR KAVX 051551Z 13008KT 10SM CLR 17/M02 A3011 RMK AO2 SLP185 T01721022 TSNO $","FM-15","7",,,,,,,,,,,,,,,,,,,,,,,,,,,,
"72292023191","2014-01-05T09:51:00","FM-15","7",,,,,,,,,,,,,,,,,,,,,,,,,,,,,,,,,,,,,,"30.16","24","68","0.00",,,,"19","30.13","CLR:00","28.46","10.00","48","100",,"9",,,,,,,,,,,,,,,,,,,,,,,,,,,,,,,,,,,,,"MET11001/05/14 09:51:02 METAR KAVX 051751Z 10008KT 10SM CLR 20/M04 A3016 RMK AO2 SLP203 T02001044 10200 20128 TSNO $","FM-15","7",,,,,,,,,,,,,,,,,,,,,,,,,,,,
"72292023191","2014-01-05T10:51:00","FM-15","7",,,,,,,,,,,,,,,,,,,,,,,,,,,,,,,,,,,,,,"30.16","28","68","0.00",,,,"22","30.12","CLR:00","28.46","10.00","49","080",,"6",,,,,,,,,,,,,,,,,,,,,,,,,,,,,,,,,,,,,"MET09801/05/14 10:51:02 METAR KAVX 051851Z 08005KT 10SM CLR 20/M02 A3016 RMK AO2 SLP200 T02001022 TSNO $","FM-15","7",,,,,,,,,,,,,,,,,,,,,,,,,,,,
"72292023191","2014-01-05T11:51:00","FM-15","7",,,,,,,,,,,,,,,,,,,,,,,,,,,,,,,,,,,,,,"30.14","18","70","0.00",,,,"14","30.09","CLR:00","28.44","10.00","48","130",,"7",,,,,,,,,,,,,,,,,,,,,,,,,,,,,,,,,,,,,"MET09801/05/14 11:51:02 METAR KAVX 051951Z 13006KT 10SM CLR 21/M08 A3014 RMK AO2 SLP188 T02111078 TSNO $","FM-15","7",,,,,,,,,,,,,,,,,,,,,,,,,,,,
"72292023191","2014-01-05T12:51:00","FM-15","7",,,,,,,,,,,,,,,,,,,,,,,,,,,,,,,,,,,,,,"30.12","12","70","0.00",,"+0.04","8","10","30.07","CLR:00","28.42","10.00","46","070",,"7",,,,,,,,,,,,,,,,,,,,,,,,,,,,,,,,,,,,,"MET10401/05/14 12:51:02 METAR KAVX 052051Z 07006KT 10SM CLR 21/M11 A3012 RMK AO2 SLP184 T02111111 58014 TSNO $","FM-15","7",,,,,,,,,,,,,,,,,,,,,,,,,,,,
"72292023191","2014-01-05T13:51:00","FM-15","7",,,,,,,,,,,,,,,,,,,,,,,,,,,,,,,,,,,,,,"30.12","15","69","0.00",,,,"12","30.07","CLR:00","28.42","10.00","46","010",,"6",,,,,,,,,,,,,,,,,,,,,,,,,,,,,,,,,,,,,"MET09801/05/14 13:51:02 METAR KAVX 052151Z 01005KT 10SM CLR 21/M09 A3012 RMK AO2 SLP183 T02061094 TSNO $","FM-15","7",,,,,,,,,,,,,,,,,,,,,,,,,,,,
"72292023191","2014-01-05T14:51:00","FM-15","7",,,,,,,,,,,,,,,,,,,,,,,,,,,,,,,,,,,,,,"30.12","8","69","0.00",,,,"9","30.08","CLR:00","28.42","10.00","45","020",,"3",,,,,,,,,,,,,,,,,,,,,,,,,,,,,,,,,,,,,"MET09801/05/14 14:51:02 METAR KAVX 052251Z 02003KT 10SM CLR 21/M13 A3012 RMK AO2 SLP185 T02061133 TSNO $","FM-15","7",,,,,,,,,,,,,,,,,,,,,,,,,,,,
"72292023191","2014-01-05T15:51:00","FM-15","7",,,,,,,,,,,,,,,,,,,,,,,,,,,,,,,,,,,,,,"30.13","11","68","0.00",,,,"11","30.09","CLR:00","28.43","10.00","45","350",,"5",,,,,,,,,,,,,,,,,,,,,,,,,,,,,,,,,,,,,"MET11001/05/14 15:51:02 METAR KAVX 052351Z 35004KT 10SM CLR 20/M12 A3013 RMK AO2 SLP188 T02001117 10217 20200 TSNO $","FM-15","7",,,,,,,,,,,,,,,,,,,,,,,,,,,,
"72292023191","2014-01-05T16:51:00","FM-15","7",,,,,,,,,,,,,,,,,,,,,,,,,,,,,,,,,,,,,,"30.13","21","67","0.00",,,,"17","30.09","CLR:00","28.43","10.00","47","000",,"0",,,,,,,,,,,,,,,,,,,,,,,,,,,,,,,,,,,,,"MET09801/05/14 16:51:01 METAR KAVX 060051Z 00000KT 10SM CLR 19/M06 A3013 RMK AO2 SLP190 T01941061 TSNO $","FM-15","7",,,,,,,,,,,,,,,,,,,,,,,,,,,,
"72292023191","2014-01-05T17:51:00","FM-15","7",,,,,,,,,,,,,,,,,,,,,,,,,,,,,,,,,,,,,,"30.14","11","64","0.00",,,,"12","30.11","CLR:00","28.44","10.00","43","010",,"3",,,,,,,,,,,,,,,,,,,,,,,,,,,,,,,,,,,,,"MET09801/05/14 17:51:01 METAR KAVX 060151Z 01003KT 10SM CLR 18/M12 A3014 RMK AO2 SLP196 T01781117 TSNO $","FM-15","7",,,,,,,,,,,,,,,,,,,,,,,,,,,,
"72292023191","2014-01-05T18:51:00","FM-15","7",,,,,,,,,,,,,,,,,,,,,,,,,,,,,,,,,,,,,,"30.16","9","65","0.00",,"-0.03","3","11","30.11","CLR:00","28.46","10.00","44","050",,"6",,,,,,,,,,,,,,,,,,,,,,,,,,,,,,,,,,,,,"MET10401/05/14 18:51:02 METAR KAVX 060251Z 05005KT 10SM CLR 18/M13 A3016 RMK AO2 SLP198 T01831128 53009 TSNO $","FM-15","7",,,,,,,,,,,,,,,,,,,,,,,,,,,,
"72292023191","2014-01-05T19:51:00","FM-15","7",,,,,,,,,,,,,,,,,,,,,,,,,,,,,,,,,,,,,,"30.17","8","66","0.00",,,,"10","30.11","CLR:00","28.47","10.00","44","030",,"5",,,,,,,,,,,,,,,,,,,,,,,,,,,,,,,,,,,,,"MET09801/05/14 19:51:02 METAR KAVX 060351Z 03004KT 10SM CLR 19/M13 A3017 RMK AO2 SLP197 T01891133 TSNO $","FM-15","7",,,,,,,,,,,,,,,,,,,,,,,,,,,,
"72292023191","2014-01-05T20:51:00","FM-15","7",,,,,,,,,,,,,,,,,,,,,,,,,,,,,,,,,,,,,,"30.17","10","66","0.00",,,,"11","30.12","CLR:00","28.47","10.00","44","020",,"7",,,,,,,,,,,,,,,,,,,,,,,,,,,,,,,,,,,,,"MET09801/05/14 20:51:02 METAR KAVX 060451Z 02006KT 10SM CLR 19/M12 A3017 RMK AO2 SLP200 T01891122 TSNO $","FM-15","7",,,,,,,,,,,,,,,,,,,,,,,,,,,,
"72292023191","2014-01-05T21:51:00","FM-15","7",,,,,,,,,,,,,,,,,,,,,,,,,,,,,,,,,,,,,,"30.19","8","64","0.00",,"-0.03","3","11","30.13","CLR:00","28.48","10.00","43","050",,"7",,,,,,,,,,,,,,,,,,,,,,,,,,,,,,,,,,,,,"MET11601/05/14 21:51:02 METAR KAVX 060551Z 05006KT 10SM CLR 18/M13 A3019 RMK AO2 SLP204 T01781133 10200 20172 53010 TSNO $","FM-15","7",,,,,,,,,,,,,,,,,,,,,,,,,,,,
"72292023191","2014-01-05T22:51:00","FM-15","7",,,,,,,,,,,,,,,,,,,,,,,,,,,,,,,,,,,,,,"30.19","8","61","0.00",,,,"12","30.14","CLR:00","28.48","10.00","41","060",,"8",,,,,,,,,,,,,,,,,,,,,,,,,,,,,,,,,,,,,"MET09801/05/14 22:51:02 METAR KAVX 060651Z 06007KT 10SM CLR 16/M13 A3019 RMK AO2 SLP205 T01611133 TSNO $","FM-15","7",,,,,,,,,,,,,,,,,,,,,,,,,,,,
"72292023191","2014-01-05T23:51:00","FM-15","7",,,,,,,,,,,,,,,,,,,,,,,,,,,,,,,,,,,,,,"30.18","-2","64","0.00",,,,"7","30.12","CLR:00","28.48","10.00","42","030",,"6",,,,,,,,,,,,,,,,,,,,,,,,,,,,,,,,,,,,,"MET10801/05/14 23:51:02 METAR KAVX 060751Z 03005KT 10SM CLR 18/M19 A3018 RMK AO2 SLP200 T01781189 402170128 TSNO $","FM-15","7",,,,,,,,,,,,,,,,,,,,,,,,,,,,
"72292023191","2014-01-05T23:59:00","SOD  ","6",,,,,,,,,,,,,,,,"63",,,"28.43",,"5.8","0","8.0","2","71","55","050","10","0.00",,,"050","10",,,,,,,,,,,,,,,,,,,,,,,,,,,,,,,,,,,,,,,,,,,,,,,,,,,,,,,,,"SOD73024 HR PRECIPITATION (IN):0.00  24 HR MAX TEMP (F):71 24 HR MAX TEMP TIME (LST):1221 24 HR MIN TEMP (F):55 24 HR MIN TEMP TIME (LST):0223 AVERAGE STATION PRESSURE:28.430 MINIMUM SEA LEVEL PRESSURE:30.01 TIME OF OCCURRENCE:0102 PEAK WIND SPEED (MPH):10  PEAK WIND DIR (DEG):50  PEAK WIND TIME (LST):2242  FASTEST 2MIN SPEED (MPH):10 FASTEST 2MIN DIR (DEG):50  FASTEST 2MIN TIME (LST):2241 AVERAGE WIND SPEED (MPH):5.8  24 HR AVG TEMP (F):63 HEATING DEGREE DAYS:2   COOLING DEGREE DAYS:0   LATEST DAY MAX TEMP (0700-1900 LST):71  LATEST NIGHT MIN TEMP(1900-0800 LST):50 HOURLY INCREMENTAL PRECIPITATION VALUES (IN):.00 0.00 0.00 0.00 0.00 0.00 0.00 0.00 0.00 0.00 0.00 0.00 0.00 0.00 0.00 0.00 0.00 0.00 0.00 0.00 0.00 0.00 0.00 0.00","SOD  ","6",,,,,,,,,,,,,,,,,,,,,,,,,"0658","1700",,
"72292023191","2014-01-06T00:51:00","FM-15","7",,,,,,,,,,,,,,,,,,,,,,,,,,,,,,,,,,,,,,"30.17","7","62","0.00",,"+0.01","8","11","30.12","CLR:00","28.47","10.00","42","050",,"8",,,,,,,,,,,,,,,,,,,,,,,,,,,,,,,,,,,,,"MET10401/06/14 00:51:02 METAR KAVX 060851Z 05007KT 10SM CLR 17/M14 A3017 RMK AO2 SLP199 T01671139 58004 TSNO $","FM-15","7",,,,,,,,,,,,,,,,,,,,,,,,,,,,
"72292023191","2014-01-06T01:51:00","FM-15","7",,,,,,,,,,,,,,,,,,,,,,,,,,,,,,,,,,,,,,"30.18","5","63","0.00",,,,"10","30.12","CLR:00","28.48","10.00","42","050",,"7",,,,,,,,,,,,,,,,,,,,,,,,,,,,,,,,,,,,,"MET09801/06/14 01:51:02 METAR KAVX 060951Z 05006KT 10SM CLR 17/M15 A3018 RMK AO2 SLP200 T01721150 TSNO $","FM-15","7",,,,,,,,,,,,,,,,,,,,,,,,,,,,
"72292023191","2014-01-06T02:51:00","FM-15","7",,,,,,,,,,,,,,,,,,,,,,,,,,,,,,,,,,,,,,"30.17","8","61","0.00",,,,"12","30.12","CLR:00","28.47","10.00","41","060",,"7",,,,,,,,,,,,,,,,,,,,,,,,,,,,,,,,,,,,,"MET09801/06/14 02:51:02 METAR KAVX 061051Z 06006KT 10SM CLR 16/M13 A3017 RMK AO2 SLP200 T01611133 TSNO $","FM-15","7",,,,,,,,,,,,,,,,,,,,,,,,,,,,
"72292023191","2014-01-06T03:51:00","FM-15","7",,,,,,,,,,,,,,,,,,,,,,,,,,,,,,,,,,,,,,"30.16","4","61","0.00",,"+0.01","8","10","30.11","CLR:00","28.46","10.00","41","070",,"9",,,,,,,,,,,,,,,,,,,,,,,,,,,,,,,,,,,,,"MET11601/06/14 03:51:02 METAR KAVX 061151Z 07008KT 10SM CLR 16/M16 A3016 RMK AO2 SLP196 T01611156 10183 20156 58004 TSNO $","FM-15","7",,,,,,,,,,,,,,,,,,,,,,,,,,,,
"72292023191","2014-01-06T04:51:00","FM-15","7",,,,,,,,,,,,,,,,,,,,,,,,,,,,,,,,,,,,,,"30.16","-2","62","0.00",,,,"7","30.11","CLR:00","28.46","10.00","41","080",,"13",,,,,,,,,,,,,,,,,,,,,,,,,,,,,,,,,,,,,"MET09801/06/14 04:51:02 METAR KAVX 061251Z 08011KT 10SM CLR 17/M19 A3016 RMK AO2 SLP195 T01671189 TSNO $","FM-15","7",,,,,,,,,,,,,,,,,,,,,,,,,,,,
"72292023191","2014-01-06T05:51:00","FM-15","7",,,,,,,,,,,,,,,,,,,,,,,,,,,,,,,,,,,,,,"30.17","-1","59","0.00",,,,"8","30.13","CLR:00","28.47","10.00","39","050",,"8",,,,,,,,,,,,,,,,,,,,,,,,,,,,,,,,,,,,,"MET09801/06/14 05:51:02 METAR KAVX 061351Z 05007KT 10SM CLR 15/M18 A3017 RMK AO2 SLP204 T01501183 TSNO $","FM-15","7",,,,,,,,,,,,,,,,,,,,,,,,,,,,
"72292023191","2014-01-06T06:51:00","FM-15","7",,,,,,,,,,,,,,,,,,,,,,,,,,,,,,,,,,,,,,"30.19","2","62","0.00",,"-0.03","3","9","30.14","CLR:00","28.48","10.00","41","140",,"6",,,,,,,,,,,,,,,,,,,,,,,,,,,,,,,,,,,,,"MET10401/06/14 06:51:02 METAR KAVX 061451Z 14005KT 10SM CLR 17/M17 A3019 RMK AO2 SLP208 T01671167 53010 TSNO $","FM-15","7",,,,,,,,,,,,,,,,,,,,,,,,,,,,
"72292023191","2014-01-06T07:51:00","FM-15","7",,,,,,,,,,,,,,,,,,,,,,,,,,,,,,,,,,,,,,"30.22","6","65","0.00",,,,"10","30.16","CLR:00","28.51","10.00","43","150",,"3",,,,,,,,,,,,,,,,,,,,,,,,,,,,,,,,,,,,,"MET09801/06/14 07:51:02 METAR KAVX 061551Z 15003KT 10SM CLR 18/M14 A3022 RMK AO2 SLP215 T01831144 TSNO $","FM-15","7",,,,,,,,,,,,,,,,,,,,,,,,,,,,
"72292023191","2014-01-06T08:51:00","FM-15","7",,,,,,,,,,,,,,,,,,,,,,,,,,,,,,,,,,,,,,"30.23","4","67","0.00",,,,"8","30.17","CLR:00","28.52","10.00","44","000",,"0",,,,,,,,,,,,,,,,,,,,,,,,,,,,,,,,,,,,,"MET09801/06/14 08:51:02 METAR KAVX 061651Z 00000KT 10SM CLR 19/M16 A3023 RMK AO2 SLP218 T01941156 TSNO $","FM-15","7",,,,,,,,,,,,,,,,,,,,,,,,,,,,
"72292023191","2014-01-06T09:51:00","FM-15","7",,,,,,,,,,,,,,,,,,,,,,,,,,,,,,,,,,,,,,"30.24","4","69","0.00",,"-0.05","1","7","30.19","CLR:00","28.53","10.00","45","000",,"0",,,,,,,,,,,,,,,,,,,,,,,,,,,,,,,,,,,,,"MET11601/06/14 09:51:02 METAR KAVX 061751Z 00000KT 10SM CLR 21/M16 A3024 RMK AO2 SLP222 T02061156 10211 20144 51016 TSNO $","FM-15","7",,,,,,,,,,,,,,,,,,,,,,,,,,,,
"72292023191","2014-01-06T10:51:00","FM-15","7",,,,,,,,,,,,,,,,,,,,,,,,,,,,,,,,,,,,,,"30.22","7","68","0.00",,,,"9","30.17","CLR:00","28.51","10.00","45","240",,"8",,,,,,,,,,,,,,,,,,,,,,,,,,,,,,,,,,,,,"MET09801/06/14 10:51:02 METAR KAVX 061851Z 24007KT 10SM CLR 20/M14 A3022 RMK AO2 SLP217 T02001139 TSNO $","FM-15","7",,,,,,,,,,,,,,,,,,,,,,,,,,,,
"72292023191","2014-01-06T11:51:00","FM-15","7",,,,,,,,,,,,,,,,,,,,,,,,,,,,,,,,,,,,,,"30.20","8","67","0.00",,,,"10","30.15","CLR:00","28.50","10.00","44","250",,"8",,,,,,,,,,,,,,,,,,,,,,,,,,,,,,,,,,,,,"MET09801/06/14 11:51:02 METAR KAVX 061951Z 25007KT 10SM CLR 19/M13 A3020 RMK AO2 SLP210 T01941133 TSNO $","FM-15","7",,,,,,,,,,,,,,,,,,,,,,,,,,,,
"72292023191","2014-01-06T12:51:00","FM-15","7",,,,,,,,,,,,,,,,,,,,,,,,,,,,,,,,,,,,,,"30.17","8","69","0.00",,"+0.06","8","9","30.12","CLR:00","28.47","10.00","45","270",,"10",,,,,,,,,,,,,,,,,,,,,,,,,,,,,,,,,,,,,"MET10401/06/14 12:51:02 METAR KAVX 062051Z 27009KT 10SM CLR 21/M13 A3017 RMK AO2 SLP200 T02061133 58022 TSNO $","FM-15","7",,,,,,,,,,,,,,,,,,,,,,,,,,,,
"72292023191","2014-01-06T13:51:00","FM-15","7",,,,,,,,,,,,,,,,,,,,,,,,,,,,,,,,,,,,,,"30.17","7","69","0.00",,,,"9","30.11","CLR:00","28.47","10.00","45","310",,"9",,,,,,,,,,,,,,,,,,,,,,,,,,,,,,,,,,,,,"MET09801/06/14 13:51:02 METAR KAVX 062151Z 31008KT 10SM CLR 21/M14 A3017 RMK AO2 SLP198 T02061139 TSNO $","FM-15","7",,,,,,,,,,,,,,,,,,,,,,,,,,,,
"72292023191","2014-01-06T14:51:00","FM-15","7",,,,,,,,,,,,,,,,,,,,,,,,,,,,,,,,,,,,,,"30.17","3","68","0.00",,,,"7","30.12","CLR:00","28.47","10.00","44","320",,"6",,,,,,,,,,,,,,,,,,,,,,,,,,,,,,,,,,,,,"MET09801/06/14 14:51:02 METAR KAVX 062251Z 32005KT 10SM CLR 20/M16 A3017 RMK AO2 SLP199 T02001161 TSNO $","FM-15","7",,,,,,,,,,,,,,,,,,,,,,,,,,,,
"72292023191","2014-01-06T15:51:00","FM-15","7",,,,,,,,,,,,,,,,,,,,,,,,,,,,,,,,,,,,,,"30.16","3","68","0.00",,"+0.01","8","7","30.11","CLR:00","28.46","10.00","44","320",,"8",,,,,,,,,,,,,,,,,,,,,,,,,,,,,,,,,,,,,"MET11601/06/14 15:51:02 METAR KAVX 062351Z 32007KT 10SM CLR 20/M16 A3016 RMK AO2 SLP197 T02001161 10206 20183 58003 TSNO $","FM-15","7",,,,,,,,,,,,,,,,,,,,,,,,,,,,
"72292023191","2014-01-06T16:51:00","FM-15","7",,,,,,,,,,,,,,,,,,,,,,,,,,,,,,,,,,,,,,"30.16","2","65","0.00",,,,"8","30.11","CLR:00","28.46","10.00","43","310",,"6",,,,,,,,,,,,,,,,,,,,,,,,,,,,,,,,,,,,,"MET09801/06/14 16:51:01 METAR KAVX 070051Z 31005KT 10SM CLR 18/M17 A3016 RMK AO2 SLP195 T01831167 TSNO $","FM-15","7",,,,,,,,,,,,,,,,,,,,,,,,,,,,
"72292023191","2014-01-06T17:51:00","FM-15","7",,,,,,,,,,,,,,,,,,,,,,,,,,,,,,,,,,,,,,"30.17","1","65","0.00",,,,"8","30.13","CLR:00","28.47","10.00","42","300",,"7",,,,,,,,,,,,,,,,,,,,,,,,,,,,,,,,,,,,,"MET09801/06/14 17:51:01 METAR KAVX 070151Z 30006KT 10SM CLR 18/M17 A3017 RMK AO2 SLP202 T01831172 TSNO $","FM-15","7",,,,,,,,,,,,,,,,,,,,,,,,,,,,
"72292023191","2014-01-06T18:51:00","FM-15","7",,,,,,,,,,,,,,,,,,,,,,,,,,,,,,,,,,,,,,"30.16","2","66","0.00",,"+0.00","6","8","30.11","CLR:00","28.46","10.00","43","320",,"5",,,,,,,,,,,,,,,,,,,,,,,,,,,,,,,,,,,,,"MET10401/06/14 18:51:02 METAR KAVX 070251Z 32004KT 10SM CLR 19/M17 A3016 RMK AO2 SLP198 T01891167 56000 TSNO $","FM-15","7",,,,,,,,,,,,,,,,,,,,,,,,,,,,
"72292023191","2014-01-06T19:51:00","FM-15","7",,,,,,,,,,,,,,,,,,,,,,,,,,,,,,,,,,,,,,"30.16","2","64","0.00",,,,"8","30.11","CLR:00","28.46","10.00","42","250",,"3",,,,,,,,,,,,,,,,,,,,,,,,,,,,,,,,,,,,,"MET09801/06/14 19:51:02 METAR KAVX 070351Z 25003KT 10SM CLR 18/M17 A3016 RMK AO2 SLP195 T01781167 TSNO $","FM-15","7",,,,,,,,,,,,,,,,,,,,,,,,,,,,
"72292023191","2014-01-06T20:51:00","FM-15","7",,,,,,,,,,,,,,,,,,,,,,,,,,,,,,,,,,,,,,"30.16","2","64","0.00",,,,"8","30.11","CLR:00","28.46","10.00","42","250",,"6",,,,,,,,,,,,,,,,,,,,,,,,,,,,,,,,,,,,,"MET09801/06/14 20:51:02 METAR KAVX 070451Z 25005KT 10SM CLR 18/M17 A3016 RMK AO2 SLP195 T01781167 TSNO $","FM-15","7",,,,,,,,,,,,,,,,,,,,,,,,,,,,
"72292023191","2014-01-06T21:51:00","FM-15","7",,,,,,,,,,,,,,,,,,,,,,,,,,,,,,,,,,,,,,"30.17","5","64","0.00",,"-0.00","3","9","30.11","CLR:00","28.47","10.00","42","260",,"7",,,,,,,,,,,,,,,,,,,,,,,,,,,,,,,,,,,,,"MET11601/06/14 21:51:02 METAR KAVX 070551Z 26006KT 10SM CLR 18/M15 A3017 RMK AO2 SLP196 T01781150 10200 20172 53001 TSNO $","FM-15","7",,,,,,,,,,,,,,,,,,,,,,,,,,,,
"72292023191","2014-01-06T22:51:00","FM-15","7",,,,,,,,,,,,,,,,,,,,,,,,,,,,,,,,,,,,,,"30.16","5","63","0.00",,,,"10","30.11","CLR:00","28.46","10.00","42","270",,"9",,,,,,,,,,,,,,,,,,,,,,,,,,,,,,,,,,,,,"MET09801/06/14 22:51:02 METAR KAVX 070651Z 27008KT 10SM CLR 17/M15 A3016 RMK AO2 SLP195 T01721150 TSNO $","FM-15","7",,,,,,,,,,,,,,,,,,,,,,,,,,,,
"72292023191","2014-01-06T23:51:00","FM-15","7",,,,,,,,,,,,,,,,,,,,,,,,,,,,,,,,,,,,,,"30.15","8","63","0.00",,,,"11","30.09","CLR:00","28.45","10.00","42","310",,"6",,,,,,,,,,,,,,,,,,,,,,,,,,,,,,,,,,,,,"MET10801/06/14 23:51:02 METAR KAVX 070751Z 31005KT 10SM CLR 17/M13 A3015 RMK AO2 SLP191 T01721133 402110144 TSNO $","FM-15","7",,,,,,,,,,,,,,,,,,,,,,,,,,,,
"72292023191","2014-01-06T23:59:00","SOD  ","6",,,,,,,,,,,,,,,,"64",,,"28.48",,"6.6","0","8.9","1","70","58","080","15","0.00",,,"080","13",,,,,,,,,,,,,,,,,,,,,,,,,,,,,,,,,,,,,,,,,,,,,,,,,,,,,,,,,"SOD73024 HR PRECIPITATION (IN):0.00  24 HR MAX TEMP (F):70 24 HR MAX TEMP TIME (LST):0944 24 HR MIN TEMP (F):58 24 HR MIN TEMP TIME (LST):0607 AVERAGE STATION PRESSURE:28.475 MINIMUM SEA LEVEL PRESSURE:30.09 TIME OF OCCURRENCE:2359 PEAK WIND SPEED (MPH):15  PEAK WIND DIR (DEG):80  PEAK WIND TIME (LST):0444  FASTEST 2MIN SPEED (MPH):13 FASTEST 2MIN DIR (DEG):80  FASTEST 2MIN TIME (LST):0446 AVERAGE WIND SPEED (MPH):6.6  24 HR AVG TEMP (F):64 HEATING DEGREE DAYS:1   COOLING DEGREE DAYS:0   LATEST DAY MAX TEMP (0700-1900 LST):70  LATEST NIGHT MIN TEMP(1900-0800 LST):58 HOURLY INCREMENTAL PRECIPITATION VALUES (IN):.00 0.00 0.00 0.00 0.00 0.00 0.00 0.00 0.00 0.00 0.00 0.00 0.00 0.00 0.00 0.00 0.00 0.00 0.00 0.00 0.00 0.00 0.00 0.00","SOD  ","6",,,,,,,,,,,,,,,,,,,,,,,,,"0658","1701",,
"72292023191","2014-01-07T00:51:00","FM-15","7",,,,,,,,,,,,,,,,,,,,,,,,,,,,,,,,,,,,,,"30.14","7","62","0.00",,"+0.03","8","11","30.08","CLR:00","28.44","10.00","42","300",,"6",,,,,,,,,,,,,,,,,,,,,,,,,,,,,,,,,,,,,"MET10401/07/14 00:51:02 METAR KAVX 070851Z 30005KT 10SM CLR 17/M14 A3014 RMK AO2 SLP187 T01671139 58009 TSNO $","FM-15","7",,,,,,,,,,,,,,,,,,,,,,,,,,,,
"72292023191","2014-01-07T01:51:00","FM-15","7",,,,,,,,,,,,,,,,,,,,,,,,,,,,,,,,,,,,,,"30.14","8","63","0.00",,,,"11","30.08","CLR:00","28.44","10.00","42","290",,"7",,,,,,,,,,,,,,,,,,,,,,,,,,,,,,,,,,,,,"MET09801/07/14 01:51:02 METAR KAVX 070951Z 29006KT 10SM CLR 17/M13 A3014 RMK AO2 SLP187 T01721133 TSNO $","FM-15","7",,,,,,,,,,,,,,,,,,,,,,,,,,,,
"72292023191","2014-01-07T02:51:00","FM-15","7",,,,,,,,,,,,,,,,,,,,,,,,,,,,,,,,,,,,,,"30.13","6","62","0.00",,,,"11","30.08","CLR:00","28.43","10.00","42","280",,"7",,,,,,,,,,,,,,,,,,,,,,,,,,,,,,,,,,,,,"MET09801/07/14 02:51:02 METAR KAVX 071051Z 28006KT 10SM CLR 17/M14 A3013 RMK AO2 SLP187 T01671144 TSNO $","FM-15","7",,,,,,,,,,,,,,,,,,,,,,,,,,,,
"72292023191","2014-01-07T03:51:00","FM-15","7",,,,,,,,,,,,,,,,,,,,,,,,,,,,,,,,,,,,,,"30.13","9","60","0.00",,"+0.01","8","13","30.08","CLR:00","28.43","10.00","41","300",,"7",,,,,,,,,,,,,,,,,,,,,,,,,,,,,,,,,,,,,"MET11601/07/14 03:51:02 METAR KAVX 071151Z 30006KT 10SM CLR 16/M13 A3013 RMK AO2 SLP186 T01561128 10183 20156 58003 TSNO $","FM-15","7",,,,,,,,,,,,,,,,,,,,,,,,,,,,
"72292023191","2014-01-07T04:51:00","FM-15","7",,,,,,,,,,,,,,,,,,,,,,,,,,,,,,,,,,,,,,"30.12","8","62","0.00",,,,"12","30.07","CLR:00","28.42","10.00","42","320",,"5",,,,,,,,,,,,,,,,,,,,,,,,,,,,,,,,,,,,,"MET09801/07/14 04:51:02 METAR KAVX 071251Z 32004KT 10SM CLR 17/M13 A3012 RMK AO2 SLP182 T01671133 TSNO $","FM-15","7",,,,,,,,,,,,,,,,,,,,,,,,,,,,
"72292023191","2014-01-07T05:51:00","FM-15","7",,,,,,,,,,,,,,,,,,,,,,,,,,,,,,,,,,,,,,"30.11","7","65","0.00",,,,"10","30.06","CLR:00","28.41","10.00","43","290",,"7",,,,,,,,,,,,,,,,,,,,,,,,,,,,,,,,,,,,,"MET09801/07/14 05:51:02 METAR KAVX 071351Z 29006KT 10SM CLR 18/M14 A3011 RMK AO2 SLP178 T01831139 TSNO $","FM-15","7",,,,,,,,,,,,,,,,,,,,,,,,,,,,
"72292023191","2014-01-07T06:51:00","FM-15","7",,,,,,,,,,,,,,,,,,,,,,,,,,,,,,,,,,,,,,"30.13","10","60","0.00",,"+0.00","5","14","30.09","CLR:00","28.43","10.00","41","280",,"5",,,,,,,,,,,,,,,,,,,,,,,,,,,,,,,,,,,,,"MET10401/07/14 06:51:02 METAR KAVX 071451Z 28004KT 10SM CLR 16/M12 A3013 RMK AO2 SLP188 T01561122 55000 TSNO $","FM-15","7",,,,,,,,,,,,,,,,,,,,,,,,,,,,
"72292023191","2014-01-07T07:51:00","FM-15","7",,,,,,,,,,,,,,,,,,,,,,,,,,,,,,,,,,,,,,"30.12","7","63","0.00",,,,"11","30.07","CLR:00","28.42","10.00","42","000",,"0",,,,,,,,,,,,,,,,,,,,,,,,,,,,,,,,,,,,,"MET09601/07/14 07:51:02 METAR KAVX 071551Z 00000KT 10SM CLR 17/M14 A3012 RMK AO2 SLP183 T01721139 TSNO","FM-15","7",,,,,,,,,,,,,,,,,,,,,,,,,,,,
"72292023191","2014-01-07T08:51:00","FM-15","7",,,,,,,,,,,,,,,,,,,,,,,,,,,,,,,,,,,,,,"30.14","7","64","0.00",,,,"10","30.09","CLR:00","28.44","10.00","43","000",,"0",,,,,,,,,,,,,,,,,,,,,,,,,,,,,,,,,,,,,"MET09601/07/14 08:51:02 METAR KAVX 071651Z 00000KT 10SM CLR 18/M14 A3014 RMK AO2 SLP189 T01781139 TSNO","FM-15","7",,,,,,,,,,,,,,,,,,,,,,,,,,,,
"72292023191","2014-01-07T09:51:00","FM-15","7",,,,,,,,,,,,,,,,,,,,,,,,,,,,,,,,,,,,,,"30.17","13","64","0.00",,"-0.04","3","13","30.12","CLR:00","28.47","10.00","44","250",,"5",,,,,,,,,,,,,,,,,,,,,,,,,,,,,,,,,,,,,"MET11401/07/14 09:51:02 METAR KAVX 071751Z 25004KT 10SM CLR 18/M11 A3017 RMK AO2 SLP201 T01781106 10189 20139 53014 TSNO","FM-15","7",,,,,,,,,,,,,,,,,,,,,,,,,,,,
"72292023191","2014-01-07T10:51:00","FM-15","7",,,,,,,,,,,,,,,,,,,,,,,,,,,,,,,,,,,,,,"30.14","10","68","0.00",,,,"10","30.09","CLR:00","28.44","10.00","45","050",,"5",,,,,,,,,,,,,,,,,,,,,,,,,,,,,,,,,,,,,"MET09601/07/14 10:51:02 METAR KAVX 071851Z 05004KT 10SM CLR 20/M12 A3014 RMK AO2 SLP190 T02001122 TSNO","FM-15","7",,,,,,,,,,,,,,,,,,,,,,,,,,,,
"72292023191","2014-01-07T11:51:00","FM-15","7",,,,,,,,,,,,,,,,,,,,,,,,,,,,,,,,,,,,,,"30.12","10","67","0.00",,,,"11","30.07","CLR:00","28.42","10.00","45","000",,"0",,,,,,,,,,,,,,,,,,,,,,,,,,,,,,,,,,,,,"MET09601/07/14 11:51:02 METAR KAVX 071951Z 00000KT 10SM CLR 19/M12 A3012 RMK AO2 SLP182 T01941122 TSNO","FM-15","7",,,,,,,,,,,,,,,,,,,,,,,,,,,,
"72292023191","2014-01-07T12:51:00","FM-15","7",,,,,,,,,,,,,,,,,,,,,,,,,,,,,,,,,,,,,,"30.09","17","68","0.00",,"+0.08","8","14","30.04","CLR:00","28.39","10.00","46","330",,"5",,,,,,,,,,,,,,,,,,,,,,,,,,,,,,,,,,,,,"MET10201/07/14 12:51:02 METAR KAVX 072051Z 33004KT 10SM CLR 20/M08 A3009 RMK AO2 SLP173 T02001083 58026 TSNO","FM-15","7",,,,,,,,,,,,,,,,,,,,,,,,,,,,
"72292023191","2014-01-07T13:51:00","FM-15","7",,,,,,,,,,,,,,,,,,,,,,,,,,,,,,,,,,,,,,"30.07","36","66","0.00",,,,"33","30.02","CLR:00","28.37","10.00","51","000",,"0",,,,,,,,,,,,,,,,,,,,,,,,,,,,,,,,,,,,,"MET09501/07/14 13:51:02 METAR KAVX 072151Z 00000KT 10SM CLR 19/02 A3007 RMK AO2 SLP165 T01890022 TSNO","FM-15","7",,,,,,,,,,,,,,,,,,,,,,,,,,,,
"72292023191","2014-01-07T14:51:00","FM-15","7",,,,,,,,,,,,,,,,,,,,,,,,,,,,,,,,,,,,,,"30.10",,"63","0.00",,,,,"30.05","CLR:00","28.40","10.00",,"290",,"3",,,,,,,,,,,,,,,,,,,,,,,,,,,,,,,,,,,,,"MET09501/07/14 14:51:02 METAR KAVX 072251Z 29003KT 10SM CLR 17/04 A3010 RMK AO2 SLP176 T01720044 TSNO","FM-15","7",,,,,,,,,,,,,,,,,,,,,,,,,,,,
"72292023191","2014-01-07T15:51:00","FM-15","7",,,,,,,,,,,,,,,,,,,,,,,,,,,,,,,,,,,,,,"30.09","16","64","0.00",,"+0.00","6","15","30.05","CLR:00","28.39","10.00","44","360",,"5",,,,,,,,,,,,,,,,,,,,,,,,,,,,,,,,,,,,,"MET11401/07/14 15:51:02 METAR KAVX 072351Z 36004KT 10SM CLR 18/M09 A3009 RMK AO2 SLP175 T01781089 10206 20167 56001 TSNO","FM-15","7",,,,,,,,,,,,,,,,,,,,,,,,,,,,
"72292023191","2014-01-07T16:51:00","FM-15","7",,,,,,,,,,,,,,,,,,,,,,,,,,,,,,,,,,,,,,"30.09","8s","62","0.00",,,,"12","30.05","CLR:00","28.39","10.00","42","320",,"3",,,,,,,,,,,,,,,,,,,,,,,,,,,,,,,,,,,,,"MET09601/07/14 16:51:01 METAR KAVX 080051Z 32003KT 10SM CLR 17/M13 A3009 RMK AO2 SLP176 T01671133 TSNO","FM-15","7",,,,,,,,,,,,,,,,,,,,,,,,,,,,
"72292023191","2014-01-07T17:51:00","FM-15","7",,,,,,,,,,,,,,,,,,,,,,,,,,,,,,,,,,,,,,"30.09","8","61","0.00",,,,"12","30.05","CLR:00","28.39","10.00","41","280",,"5",,,,,,,,,,,,,,,,,,,,,,,,,,,,,,,,,,,,,"MET09601/07/14 17:51:01 METAR KAVX 080151Z 28004KT 10SM CLR 16/M13 A3009 RMK AO2 SLP175 T01611133 TSNO","FM-15","7",,,,,,,,,,,,,,,,,,,,,,,,,,,,
"72292023191","2014-01-07T18:51:00","FM-15","7",,,,,,,,,,,,,,,,,,,,,,,,,,,,,,,,,,,,,,"30.09",,"59","0.00",,"-0.00","3",,"30.06","CLR:00","28.39","10.00",,"260",,"6",,,,,,,,,,,,,,,,,,,,,,,,,,,,,,,,,,,,,"MET10201/07/14 18:51:01 METAR KAVX 080251Z 26005KT 10SM CLR 15/M05 A3009 RMK AO2 SLP179 T01501050 53001 TSNO","FM-15","7",,,,,,,,,,,,,,,,,,,,,,,,,,,,
"72292023191","2014-01-07T19:51:00","FM-15","7",,,,,,,,,,,,,,,,,,,,,,,,,,,,,,,,,,,,,,"30.10","8","61","0.00",,,,"12","30.06","BKN:07 120","28.40","10.00","41","310",,"5",,,,,,,,,,,,,,,,,,,,,,,,,,,,,,,,,,,,,"MET09901/07/14 19:51:02 METAR KAVX 080351Z 31004KT 10SM BKN120 16/M13 A3010 RMK AO2 SLP178 T01611133 TSNO","FM-15","7",,,,,,,,,,,,,,,,,,,,,,,,,,,,
"72292023191","2014-01-07T20:51:00","FM-15","7",,,,,,,,,,,,,,,,,,,,,,,,,,,,,,,,,,,,,,"30.10","9","60","0.00",,,,"13","30.06","CLR:00","28.40","10.00","41","270",,"8",,,,,,,,,,,,,,,,,,,,,,,,,,,,,,,,,,,,,"MET09601/07/14 20:51:02 METAR KAVX 080451Z 27007KT 10SM CLR 16/M13 A3010 RMK AO2 SLP178 T01561128 TSNO","FM-15","7",,,,,,,,,,,,,,,,,,,,,,,,,,,,
"72292023191","2014-01-07T21:51:00","FM-15","7",,,,,,,,,,,,,,,,,,,,,,,,,,,,,,,,,,,,,,"30.11","9","60","0.00",,"-0.02","3","13","30.07","CLR:00","28.41","10.00","41","330",,"5",,,,,,,,,,,,,,,,,,,,,,,,,,,,,,,,,,,,,"MET11401/07/14 21:51:02 METAR KAVX 080551Z 33004KT 10SM CLR 16/M13 A3011 RMK AO2 SLP183 T01561128 10178 20150 53006 TSNO","FM-15","7",,,,,,,,,,,,,,,,,,,,,,,,,,,,
"72292023191","2014-01-07T22:51:00","FM-15","7",,,,,,,,,,,,,,,,,,,,,,,,,,,,,,,,,,,,,,"30.11","23","59","0.00",,,,"25","30.06","CLR:00","28.41","10.00","44","300",,"7",,,,,,,,,,,,,,,,,,,,,,,,,,,,,,,,,,,,,"MET09601/07/14 22:51:02 METAR KAVX 080651Z 30006KT 10SM CLR 15/M05 A3011 RMK AO2 SLP179 T01501050 TSNO","FM-15","7",,,,,,,,,,,,,,,,,,,,,,,,,,,,
"72292023191","2014-01-07T23:51:00","FM-15","7",,,,,,,,,,,,,,,,,,,,,,,,,,,,,,,,,,,,,,"30.10","21","57","0.00",,,,"25","30.05","CLR:00","28.40","10.00","42","290",,"3",,,,,,,,,,,,,,,,,,,,,,,,,,,,,,,,,,,,,"MET10601/07/14 23:51:02 METAR KAVX 080751Z 29003KT 10SM CLR 14/M06 A3010 RMK AO2 SLP177 T01391061 402060139 TSNO","FM-15","7",,,,,,,,,,,,,,,,,,,,,,,,,,,,
"72292023191","2014-01-07T23:59:00","SOD  ","6",,,,,,,,,,,,,,,,"63",,,"28.42",,"4.4","0","7.9","2","69","57","290","13","0.00",,,"280","10",,,,,,,,,,,,,,,,,,,,,,,,,,,,,,,,,,,,,,,,,,,,,,,,,,,,,,,,,"SOD73024 HR PRECIPITATION (IN):0.00  24 HR MAX TEMP (F):69 24 HR MAX TEMP TIME (LST):1324 24 HR MIN TEMP (F):57 24 HR MIN TEMP TIME (LST):2359 AVERAGE STATION PRESSURE:28.420 MINIMUM SEA LEVEL PRESSURE:30.02 TIME OF OCCURRENCE:1355 PEAK WIND SPEED (MPH):13  PEAK WIND DIR (DEG):290 PEAK WIND TIME (LST):0207  FASTEST 2MIN SPEED (MPH):10 FASTEST 2MIN DIR (DEG):280 FASTEST 2MIN TIME (LST):0209 AVERAGE WIND SPEED (MPH):4.4  24 HR AVG TEMP (F):63 HEATING DEGREE DAYS:2   COOLING DEGREE DAYS:0   LATEST DAY MAX TEMP (0700-1900 LST):69  LATEST NIGHT MIN TEMP(1900-0800 LST):57 HOURLY INCREMENTAL PRECIPITATION VALUES (IN):.00 0.00 0.00 0.00 0.00 0.00 0.00 0.00 0.00 0.00 0.00 0.00 0.00 0.00 0.00 0.00 0.00 0.00 0.00 0.00 0.00 0.00 0.00 0.00","SOD  ","6",,,,,,,,,,,,,,,,,,,,,,,,,"0659","1702",,
"72292023191","2014-01-08T00:51:00","FM-15","7",,,,,,,,,,,,,,,,,,,,,,,,,,,,,,,,,,,,,,"30.09","28","56","0.00",,"+0.02","8","34","30.05","CLR:00","28.39","10.00","44","000",,"0",,,,,,,,,,,,,,,,,,,,,,,,,,,,,,,,,,,,,"MET10201/08/14 00:51:02 METAR KAVX 080851Z 00000KT 10SM CLR 13/M02 A3009 RMK AO2 SLP175 T01331022 58008 TSNO","FM-15","7",,,,,,,,,,,,,,,,,,,,,,,,,,,,
"72292023191","2014-01-08T01:51:00","FM-15","7",,,,,,,,,,,,,,,,,,,,,,,,,,,,,,,,,,,,,,"30.10","30","56","0.00",,,,"37","30.06","CLR:00","28.40","10.00","44","340",,"7",,,,,,,,,,,,,,,,,,,,,,,,,,,,,,,,,,,,,"MET09601/08/14 01:51:02 METAR KAVX 080951Z 34006KT 10SM CLR 13/M01 A3010 RMK AO2 SLP179 T01331011 TSNO","FM-15","7",,,,,,,,,,,,,,,,,,,,,,,,,,,,
"72292023191","2014-01-08T02:51:00","FM-15","7",,,,,,,,,,,,,,,,,,,,,,,,,,,,,,,,,,,,,,"30.09","38","52","0.00",,,,"59","30.06","CLR:00","28.39","10.00","45","020",,"7",,,,,,,,,,,,,,,,,,,,,,,,,,,,,,,,,,,,,"MET09501/08/14 02:51:02 METAR KAVX 081051Z 02006KT 10SM CLR 11/03 A3009 RMK AO2 SLP180 T01110033 TSNO","FM-15","7",,,,,,,,,,,,,,,,,,,,,,,,,,,,
"72292023191","2014-01-08T03:51:00","FM-15","7",,,,,,,,,,,,,,,,,,,,,,,,,,,,,,,,,,,,,,"30.06","39","55","0.00",,"+0.02","8","55","30.03","CLR:00","28.36","10.00","47","340",,"5",,,,,,,,,,,,,,,,,,,,,,,,,,,,,,,,,,,,,"MET11301/08/14 03:51:02 METAR KAVX 081151Z 34004KT 10SM CLR 13/04 A3006 RMK AO2 SLP169 T01280039 10156 20106 58008 TSNO","FM-15","7",,,,,,,,,,,,,,,,,,,,,,,,,,,,
"72292023191","2014-01-08T04:51:00","FM-15","7",,,,,,,,,,,,,,,,,,,,,,,,,,,,,,,,,,,,,,"30.06","39","53","0.00",,,,"59","30.03","CLR:00","28.36","10.00","46","300",,"5",,,,,,,,,,,,,,,,,,,,,,,,,,,,,,,,,,,,,"MET09501/08/14 04:51:02 METAR KAVX 081251Z 30004KT 10SM CLR 12/04 A3006 RMK AO2 SLP170 T01170039 TSNO","FM-15","7",,,,,,,,,,,,,,,,,,,,,,,,,,,,
"72292023191","2014-01-08T05:51:00","FM-15","7",,,,,,,,,,,,,,,,,,,,,,,,,,,,,,,,,,,,,,"30.07","42","54","0.00",,,,"64","30.04","CLR:00","28.37","10.00","48","310",,"3",,,,,,,,,,,,,,,,,,,,,,,,,,,,,,,,,,,,,"MET09501/08/14 05:51:02 METAR KAVX 081351Z 31003KT 10SM CLR 12/06 A3007 RMK AO2 SLP172 T01220056 TSNO","FM-15","7",,,,,,,,,,,,,,,,,,,,,,,,,,,,
"72292023191","2014-01-08T06:51:00","FM-15","7",,,,,,,,,,,,,,,,,,,,,,,,,,,,,,,,,,,,,,"30.07","41","53","0.00",,"-0.01","3","64","30.05","CLR:00","28.37","10.00","47","310",,"5",,,,,,,,,,,,,,,,,,,,,,,,,,,,,,,,,,,,,"MET10101/08/14 06:51:02 METAR KAVX 081451Z 31004KT 10SM CLR 12/05 A3007 RMK AO2 SLP176 T01170050 53003 TSNO","FM-15","7",,,,,,,,,,,,,,,,,,,,,,,,,,,,
"72292023191","2014-01-08T07:51:00","FM-15","7",,,,,,,,,,,,,,,,,,,,,,,,,,,,,,,,,,,,,,"30.09","39","55","0.00",,,,"55","30.06","CLR:00","28.39","10.00","47","310",,"3",,,,,,,,,,,,,,,,,,,,,,,,,,,,,,,,,,,,,"MET09501/08/14 07:51:02 METAR KAVX 081551Z 31003KT 10SM CLR 13/04 A3009 RMK AO2 SLP179 T01280039 TSNO","FM-15","7",,,,,,,,,,,,,,,,,,,,,,,,,,,,
"72292023191","2014-01-08T08:51:00","FM-15","7",,,,,,,,,,,,,,,,,,,,,,,,,,,,,,,,,,,,,,"30.12","41","55","0.00",,,,"59","30.09","CLR:00","28.42","10.00","48","240",,"6",,,,,,,,,,,,,,,,,,,,,,,,,,,,,,,,,,,,,"MET09501/08/14 08:51:02 METAR KAVX 081651Z 24005KT 10SM CLR 13/05 A3012 RMK AO2 SLP190 T01280050 TSNO","FM-15","7",,,,,,,,,,,,,,,,,,,,,,,,,,,,
"72292023191","2014-01-08T09:51:00","FM-15","7",,,,,,,,,,,,,,,,,,,,,,,,,,,,,,,,,,,,,,"30.15","48","57","0.00",,"-0.07","3","72","30.11","CLR:00","28.45","10.00","52","270",,"5",,,,,,,,,,,,,,,,,,,,,,,,,,,,,,,,,,,,,"MET11301/08/14 09:51:02 METAR KAVX 081751Z 27004KT 10SM CLR 14/09 A3015 RMK AO2 SLP198 T01390089 10144 20117 53024 TSNO","FM-15","7",,,,,,,,,,,,,,,,,,,,,,,,,,,,
"72292023191","2014-01-08T10:51:00","FM-15","7",,,,,,,,,,,,,,,,,,,,,,,,,,,,,,,,,,,,,,"30.13","40","61","0.00",,,,"46","30.10","CLR:00","28.43","10.00","50","VRB",,"3",,,,,,,,,,,,,,,,,,,,,,,,,,,,,,,,,,,,,"MET09501/08/14 10:51:02 METAR KAVX 081851Z VRB03KT 10SM CLR 16/04 A3013 RMK AO2 SLP192 T01610044 TSNO","FM-15","7",,,,,,,,,,,,,,,,,,,,,,,,,,,,
"72292023191","2014-01-08T11:51:00","FM-15","7",,,,,,,,,,,,,,,,,,,,,,,,,,,,,,,,,,,,,,"30.09","44","62","0.00",,,,"52","30.05","CLR:00","28.39","10.00","53","280",,"5",,,,,,,,,,,,,,,,,,,,,,,,,,,,,,,,,,,,,"MET09501/08/14 11:51:02 METAR KAVX 081951Z 28004KT 10SM CLR 17/07 A3009 RMK AO2 SLP177 T01670067 TSNO","FM-15","7",,,,,,,,,,,,,,,,,,,,,,,,,,,,
"72292023191","2014-01-08T12:51:00","FM-15","7",,,,,,,,,,,,,,,,,,,,,,,,,,,,,,,,,,,,,,"30.06","50","59","0.00",,"+0.08","8","72","30.03","CLR:00","28.36","10.00","54","270",,"5",,,,,,,,,,,,,,,,,,,,,,,,,,,,,,,,,,,,,"MET10101/08/14 12:51:02 METAR KAVX 082051Z 27004KT 10SM CLR 15/10 A3006 RMK AO2 SLP169 T01500100 58028 TSNO","FM-15","7",,,,,,,,,,,,,,,,,,,,,,,,,,,,
"72292023191","2014-01-08T13:51:00","FM-15","6",,,,,,,,,,,,,,,,,,,,,,,,,,,,,,,,,,,,,,"30.04","50","58","0.00",,,,"75","30.02","CLR:00","28.34","10.00","54","240",,"7",,,,,,,,,,,,,,,,,,,,,,,,,,,,,,,,,,,,,"MET09501/08/14 13:51:02 METAR KAVX 082151Z 24006KT 10SM CLR 14/10 A3004 RMK AO2 SLP165 T01440100 TSNO","FM-15","6",,,,,,,,,,,,,,,,,,,,,,,,,,,,
"72292023191","2014-01-08T14:51:00","FM-15","7",,,,,,,,,,,,,,,,,,,,,,,,,,,,,,,,,,,,,,"30.04","50","58","0.00",,,,"75","30.03","CLR:00","28.34","10.00","54","250",,"5",,,,,,,,,,,,,,,,,,,,,,,,,,,,,,,,,,,,,"MET09501/08/14 14:51:02 METAR KAVX 082251Z 25004KT 10SM CLR 14/10 A3004 RMK AO2 SLP168 T01440100 TSNO","FM-15","7",,,,,,,,,,,,,,,,,,,,,,,,,,,,
"72292023191","2014-01-08T15:51:00","FM-15","7",,,,,,,,,,,,,,,,,,,,,,,,,,,,,,,,,,,,,,"30.05","46","60","0.00",,"+0.01","5","60","30.02","CLR:00","28.35","10.00","53","000",,"0",,,,,,,,,,,,,,,,,,,,,,,,,,,,,,,,,,,,,"MET11301/08/14 15:51:02 METAR KAVX 082351Z 00000KT 10SM CLR 16/08 A3005 RMK AO2 SLP167 T01560078 10183 20133 55002 TSNO","FM-15","7",,,,,,,,,,,,,,,,,,,,,,,,,,,,
"72292023191","2014-01-08T16:51:00","FM-15","7",,,,,,,,,,,,,,,,,,,,,,,,,,,,,,,,,,,,,,"30.05","46","57","0.00",,,,"67","30.03","CLR:00","28.35","10.00","51","000",,"0",,,,,,,,,,,,,,,,,,,,,,,,,,,,,,,,,,,,,"MET09501/08/14 16:51:01 METAR KAVX 090051Z 00000KT 10SM CLR 14/08 A3005 RMK AO2 SLP171 T01390078 TSNO","FM-15","7",,,,,,,,,,,,,,,,,,,,,,,,,,,,
"72292023191","2014-01-08T17:51:00","FM-15","7",,,,,,,,,,,,,,,,,,,,,,,,,,,,,,,,,,,,,,"30.07","38","56","0.00",,,,"51","30.05","CLR:00","28.37","10.00","47","000",,"0",,,,,,,,,,,,,,,,,,,,,,,,,,,,,,,,,,,,,"MET09501/08/14 17:51:01 METAR KAVX 090151Z 00000KT 10SM CLR 13/03 A3007 RMK AO2 SLP176 T01330033 TSNO","FM-15","7",,,,,,,,,,,,,,,,,,,,,,,,,,,,
"72292023191","2014-01-08T18:51:00","FM-15","7",,,,,,,,,,,,,,,,,,,,,,,,,,,,,,,,,,,,,,"30.07","33","57","0.00",,"-0.02","3","41","30.06","CLR:00","28.37","10.00","46","000",,"0",,,,,,,,,,,,,,,,,,,,,,,,,,,,,,,,,,,,,"MET10101/08/14 18:51:01 METAR KAVX 090251Z 00000KT 10SM CLR 14/01 A3007 RMK AO2 SLP178 T01390006 53007 TSNO","FM-15","7",,,,,,,,,,,,,,,,,,,,,,,,,,,,
"72292023191","2014-01-08T19:51:00","FM-15","7",,,,,,,,,,,,,,,,,,,,,,,,,,,,,,,,,,,,,,"30.07","35","57","0.00",,,,"44","30.06","CLR:00","28.37","10.00","47","340",,"5",,,,,,,,,,,,,,,,,,,,,,,,,,,,,,,,,,,,,"MET09501/08/14 19:51:02 METAR KAVX 090351Z 34004KT 10SM CLR 14/02 A3007 RMK AO2 SLP178 T01390017 TSNO","FM-15","7",,,,,,,,,,,,,,,,,,,,,,,,,,,,
"72292023191","2014-01-08T20:51:00","FM-15","7",,,,,,,,,,,,,,,,,,,,,,,,,,,,,,,,,,,,,,"30.08","31","56","0.00",,,,"39","30.06","CLR:00","28.38","10.00","45","130",,"3",,,,,,,,,,,,,,,,,,,,,,,,,,,,,,,,,,,,,"MET09601/08/14 20:51:02 METAR KAVX 090451Z 13003KT 10SM CLR 13/M01 A3008 RMK AO2 SLP181 T01331006 TSNO","FM-15","7",,,,,,,,,,,,,,,,,,,,,,,,,,,,
"72292023191","2014-01-08T21:51:00","FM-15","7",,,,,,,,,,,,,,,,,,,,,,,,,,,,,,,,,,,,,,"30.09","39","52","0.00",,"-0.01","2","61","30.07","CLR:00","28.39","10.00","46","050",,"6",,,,,,,,,,,,,,,,,,,,,,,,,,,,,,,,,,,,,"MET11301/08/14 21:51:02 METAR KAVX 090551Z 05005KT 10SM CLR 11/04 A3009 RMK AO2 SLP183 T01110039 10150 20111 52004 TSNO","FM-15","7",,,,,,,,,,,,,,,,,,,,,,,,,,,,
"72292023191","2014-01-08T22:51:00","FM-15","7",,,,,,,,,,,,,,,,,,,,,,,,,,,,,,,,,,,,,,"30.09","43","52","0.00",,,,"72","30.06","CLR:00","28.39","10.00","48","030",,"6",,,,,,,,,,,,,,,,,,,,,,,,,,,,,,,,,,,,,"MET09501/08/14 22:51:02 METAR KAVX 090651Z 03005KT 10SM CLR 11/06 A3009 RMK AO2 SLP180 T01110061 TSNO","FM-15","7",,,,,,,,,,,,,,,,,,,,,,,,,,,,
"72292023191","2014-01-08T23:51:00","FM-15","7",,,,,,,,,,,,,,,,,,,,,,,,,,,,,,,,,,,,,,"30.08","44","51","0.00",,,,"77","30.05","CLR:00","28.38","10.00","47","060",,"7",,,,,,,,,,,,,,,,,,,,,,,,,,,,,,,,,,,,,"MET10501/08/14 23:51:02 METAR KAVX 090751Z 06006KT 10SM CLR 11/07 A3008 RMK AO2 SLP176 T01060067 401830106 TSNO","FM-15","7",,,,,,,,,,,,,,,,,,,,,,,,,,,,
"72292023191","2014-01-08T23:59:00","SOD  ","6",,,,,,,,,,,,,,,,"58",,,"28.38",,"4.0","0","2.8","7","65","51","270","12","0.00",,,"250","9",,,,,,,,,,,,,,,,,,,,,,,,,,,,,,,,,,,,,,,,,,,,,,,,,,,,,,,,,"SOD73024 HR PRECIPITATION (IN):0.00  24 HR MAX TEMP (F):65 24 HR MAX TEMP TIME (LST):1213 24 HR MIN TEMP (F):51 24 HR MIN TEMP TIME (LST):2355 AVERAGE STATION PRESSURE:28.380 MINIMUM SEA LEVEL PRESSURE:30.01 TIME OF OCCURRENCE:1334 PEAK WIND SPEED (MPH):12  PEAK WIND DIR (DEG):270 PEAK WIND TIME (LST):1347  FASTEST 2MIN SPEED (MPH):9  FASTEST 2MIN DIR (DEG):250 FASTEST 2MIN TIME (LST):1346 AVERAGE WIND SPEED (MPH):4.0  24 HR AVG TEMP (F):58 HEATING DEGREE DAYS:7   COOLING DEGREE DAYS:0   LATEST DAY MAX TEMP (0700-1900 LST):65  LATEST NIGHT MIN TEMP(1900-0800 LST):51 HOURLY INCREMENTAL PRECIPITATION VALUES (IN):.00 0.00 0.00 0.00 0.00 0.00 0.00 0.00 0.00 0.00 0.00 0.00 0.00 0.00 0.00 0.00 0.00 0.00 0.00 0.00 0.00 0.00 0.00 0.00","SOD  ","6",,,,,,,,,,,,,,,,,,,,,,,,,"0658","1703",,
"72292023191","2014-01-09T00:51:00","FM-15","7",,,,,,,,,,,,,,,,,,,,,,,,,,,,,,,,,,,,,,"30.06","43","52","0.00",,"+0.02","8","72","30.04","CLR:00","28.36","10.00","48","140",,"6",,,,,,,,,,,,,,,,,,,,,,,,,,,,,,,,,,,,,"MET10101/09/14 00:51:02 METAR KAVX 090851Z 14005KT 10SM CLR 11/06 A3006 RMK AO2 SLP174 T01110061 58007 TSNO","FM-15","7",,,,,,,,,,,,,,,,,,,,,,,,,,,,
"72292023191","2014-01-09T01:51:00","FM-15","7",,,,,,,,,,,,,,,,,,,,,,,,,,,,,,,,,,,,,,"30.06","41","52","0.00",,,,"66","30.04","CLR:00","28.36","10.00","47","000",,"0",,,,,,,,,,,,,,,,,,,,,,,,,,,,,,,,,,,,,"MET09501/09/14 01:51:02 METAR KAVX 090951Z 00000KT 10SM CLR 11/05 A3006 RMK AO2 SLP173 T01110050 TSNO","FM-15","7",,,,,,,,,,,,,,,,,,,,,,,,,,,,
"72292023191","2014-01-09T02:51:00","FM-15","7",,,,,,,,,,,,,,,,,,,,,,,,,,,,,,,,,,,,,,"30.06","43","51","0.00",,,,"74","30.05","CLR:00","28.36","10.00","47","330",,"5",,,,,,,,,,,,,,,,,,,,,,,,,,,,,,,,,,,,,"MET09501/09/14 02:51:02 METAR KAVX 091051Z 33004KT 10SM CLR 11/06 A3006 RMK AO2 SLP175 T01060061 TSNO","FM-15","7",,,,,,,,,,,,,,,,,,,,,,,,,,,,
"72292023191","2014-01-09T02:54:00","FM-16","7",,,,,,,,,,,,,,,,,,,,,,,,,,,,,,,,,,,,,,"30.06","45","52",,"HZ:7 |FU |HZ",,,"77",,"VV:09 1","28.36","0.75","48","330",,"6",,,,,,,,,,,,,,,,,,,,,,,,,,,,,,,,,,,,,"MET08401/09/14 02:54:02 SPECI KAVX 091054Z 33005KT 3/4SM HZ VV001 11/07 A3006 RMK AO2 TSNO","FM-16","7",,,,,,,,,,,,,,,,,,,,,,,,,,,,
"72292023191","2014-01-09T03:06:00","FM-16","7",,,,,,,,,,,,,,,,,,,,,,,,,,,,,,,,,,,,,,"30.05","46","48",,"FG:2 |FG |",,,"94",,,"28.35","0.25","47","150",,"3",,,,,,,,,,,,,,,,,,,,,,,,,,,,,,,,,,,,,"MET08001/09/14 03:06:02 SPECI KAVX 091106Z 15003KT 1/4SM FG 09/08 A3005 RMK AO2 TSNO $","FM-16","7",,,,,,,,,,,,,,,,,,,,,,,,,,,,
"72292023191","2014-01-09T03:12:00","FM-16","7",,,,,,,,,,,,,,,,,,,,,,,,,,,,,,,,,,,,,,"30.05","45","48",,"BR:1 ||",,,"87",,,"28.35","1.50","47","150",,"5",,,,,,,,,,,,,,,,,,,,,,,,,,,,,,,,,,,,,"MET08201/09/14 03:12:02 SPECI KAVX 091112Z 15004KT 1 1/2SM BR 09/07 A3005 RMK AO2 TSNO $","FM-16","7",,,,,,,,,,,,,,,,,,,,,,,,,,,,
"72292023191","2014-01-09T03:15:00","FM-16","7",,,,,,,,,,,,,,,,,,,,,,,,,,,,,,,,,,,,,,"30.05","45","48",,"BR:1 ||",,,"87",,,"28.35","4.00","47","130",,"3",,,,,,,,,,,,,,,,,,,,,,,,,,,,,,,,,,,,,"MET07801/09/14 03:15:02 SPECI KAVX 091115Z 13003KT 4SM BR 09/07 A3005 RMK AO2 TSNO $","FM-16","7",,,,,,,,,,,,,,,,,,,,,,,,,,,,
"72292023191","2014-01-09T03:40:00","FM-16","7",,,,,,,,,,,,,,,,,,,,,,,,,,,,,,,,,,,,,,"30.05","46","50",,"BR:1 ||",,,"88",,"FEW:02 2","28.35","5.00","48","000",,"0",,,,,,,,,,,,,,,,,,,,,,,,,,,,,,,,,,,,,"MET08501/09/14 03:40:02 SPECI KAVX 091140Z 00000KT 5SM BR FEW002 10/08 A3005 RMK AO2 TSNO $","FM-16","7",,,,,,,,,,,,,,,,,,,,,,,,,,,,
"72292023191","2014-01-09T03:51:00","FM-15","7",,,,,,,,,,,,,,,,,,,,,,,,,,,,,,,,,,,,,,"30.05","46","49","0.00",,"+0.01","8","90","30.03","FEW:02 2","28.35","8.00","47","000",,"0",,,,,,,,,,,,,,,,,,,,,,,,,,,,,,,,,,,,,"MET11701/09/14 03:51:02 METAR KAVX 091151Z 00000KT 8SM FEW002 09/08 A3005 RMK AO2 SLP169 T00940078 10122 20089 58005 TSNO $","FM-15","7",,,,,,,,,,,,,,,,,,,,,,,,,,,,
"72292023191","2014-01-09T04:40:00","FM-16","7",,,,,,,,,,,,,,,,,,,,,,,,,,,,,,,,,,,,,,"30.04","46","48",,"BR:1 ||",,,"94",,"VV:09 1","28.34","1.00","47","130",,"5",,,,,,,,,,,,,,,,,,,,,,,,,,,,,,,,,,,,,"MET08401/09/14 04:40:02 SPECI KAVX 091240Z 13004KT 1SM BR VV001 09/08 A3004 RMK AO2 TSNO $","FM-16","7",,,,,,,,,,,,,,,,,,,,,,,,,,,,
"72292023191","2014-01-09T04:47:00","FM-16","7",,,,,,,,,,,,,,,,,,,,,,,,,,,,,,,,,,,,,,"30.05","46","48",,"FG:2 |FG |",,,"94",,"VV:09 1","28.35","0.25","47","120",,"5",,,,,,,,,,,,,,,,,,,,,,,,,,,,,,,,,,,,,"MET08601/09/14 04:47:02 SPECI KAVX 091247Z 12004KT 1/4SM FG VV001 09/08 A3005 RMK AO2 TSNO $","FM-16","7",,,,,,,,,,,,,,,,,,,,,,,,,,,,
"72292023191","2014-01-09T04:51:00","FM-15","7",,,,,,,,,,,,,,,,,,,,,,,,,,,,,,,,,,,,,,"30.05","47","49","0.00","FG:2 |FG |",,,"93","30.04","VV:09 1","28.35","0.25","48","140",,"3",,,,,,,,,,,,,,,,,,,,,,,,,,,,,,,,,,,,,"MET10301/09/14 04:51:02 METAR KAVX 091251Z 14003KT 1/4SM FG VV001 09/08 A3005 RMK AO2 SLP172 T00940083 TSNO $","FM-15","7",,,,,,,,,,,,,,,,,,,,,,,,,,,,
"72292023191","2014-01-09T05:28:00","FM-16","7",,,,,,,,,,,,,,,,,,,,,,,,,,,,,,,,,,,,,,"30.04","46","48",,"BR:1 ||",,,"94",,"OVC:08 1","28.34","1.25","47","140",,"5",,,,,,,,,,,,,,,,,,,,,,,,,,,,,,,,,,,,,"MET08901/09/14 05:28:02 SPECI KAVX 091328Z 14004KT 1 1/4SM BR OVC001 09/08 A3004 RMK AO2 TSNO $","FM-16","7",,,,,,,,,,,,,,,,,,,,,,,,,,,,
"72292023191","2014-01-09T05:34:00","FM-16","7",,,,,,,,,,,,,,,,,,,,,,,,,,,,,,,,,,,,,,"30.06","46","48",,"BR:1 ||",,,"94",,"BKN:07 1","28.36","3.00","47","000",,"0",,,,,,,,,,,,,,,,,,,,,,,,,,,,,,,,,,,,,"MET08501/09/14 05:34:02 SPECI KAVX 091334Z 00000KT 3SM BR BKN001 09/08 A3006 RMK AO2 TSNO $","FM-16","7",,,,,,,,,,,,,,,,,,,,,,,,,,,,
"72292023191","2014-01-09T05:49:00","FM-16","7",,,,,,,,,,,,,,,,,,,,,,,,,,,,,,,,,,,,,,"30.06","46","48",,,,,"94",,"SCT:04 1","28.36","10.00","47","000",,"0",,,,,,,,,,,,,,,,,,,,,,,,,,,,,,,,,,,,,"MET08301/09/14 05:49:02 SPECI KAVX 091349Z 00000KT 10SM SCT001 09/08 A3006 RMK AO2 TSNO $","FM-16","7",,,,,,,,,,,,,,,,,,,,,,,,,,,,
"72292023191","2014-01-09T05:51:00","FM-15","7",,,,,,,,,,,,,,,,,,,,,,,,,,,,,,,,,,,,,,"30.06","46","48","0.00",,,,"93","30.06","FEW:02 1","28.36","10.00","47","000",,"0",,,,,,,,,,,,,,,,,,,,,,,,,,,,,,,,,,,,,"MET10001/09/14 05:51:02 METAR KAVX 091351Z 00000KT 10SM FEW001 09/08 A3006 RMK AO2 SLP179 T00890078 TSNO $","FM-15","7",,,,,,,,,,,,,,,,,,,,,,,,,,,,
"72292023191","2014-01-09T06:16:00","FM-16","7",,,,,,,,,,,,,,,,,,,,,,,,,,,,,,,,,,,,,,"30.05","46","48",,"BR:1 ||",,,"94",,"BKN:07 3","28.35","6.00","47","110",,"7",,,,,,,,,,,,,,,,,,,,,,,,,,,,,,,,,,,,,"MET08501/09/14 06:16:02 SPECI KAVX 091416Z 11006KT 6SM BR BKN003 09/08 A3005 RMK AO2 TSNO $","FM-16","7",,,,,,,,,,,,,,,,,,,,,,,,,,,,
"72292023191","2014-01-09T06:46:00","FM-16","7",,,,,,,,,,,,,,,,,,,,,,,,,,,,,,,,,,,,,,"30.05","46","48",,"BR:1 ||",,,"94",,"SCT:04 3","28.35","6.00","47","140",,"8",,,,,,,,,,,,,,,,,,,,,,,,,,,,,,,,,,,,,"MET08501/09/14 06:46:02 SPECI KAVX 091446Z 14007KT 6SM BR SCT003 09/08 A3005 RMK AO2 TSNO $","FM-16","7",,,,,,,,,,,,,,,,,,,,,,,,,,,,
"72292023191","2014-01-09T06:51:00","FM-15","7",,,,,,,,,,,,,,,,,,,,,,,,,,,,,,,,,,,,,,"30.05","47","49","0.00",,"+0.01","8","93","30.04","FEW:02 3","28.35","7.00","48","130",,"7",,,,,,,,,,,,,,,,,,,,,,,,,,,,,,,,,,,,,"MET10501/09/14 06:51:02 METAR KAVX 091451Z 13006KT 7SM FEW003 09/08 A3005 RMK AO2 SLP173 T00940083 58003 TSNO $","FM-15","7",,,,,,,,,,,,,,,,,,,,,,,,,,,,
"72292023191","2014-01-09T07:51:00","FM-15","7",,,,,,,,,,,,,,,,,,,,,,,,,,,,,,,,,,,,,,"30.08","48","50","0.00",,,,"93","30.06","CLR:00","28.38","7.00","49","150",,"6",,,,,,,,,,,,,,,,,,,,,,,,,,,,,,,,,,,,,"MET09401/09/14 07:51:02 METAR KAVX 091551Z 15005KT 7SM CLR 10/09 A3008 RMK AO2 SLP180 T01000089 TSNO","FM-15","7",,,,,,,,,,,,,,,,,,,,,,,,,,,,
"72292023191","2014-01-09T08:51:00","FM-15","7",,,,,,,,,,,,,,,,,,,,,,,,,,,,,,,,,,,,,,"30.10","43","57","0.00",,,,"60","30.07","CLR:00","28.40","10.00","50","000",,"0",,,,,,,,,,,,,,,,,,,,,,,,,,,,,,,,,,,,,"MET09501/09/14 08:51:02 METAR KAVX 091651Z 00000KT 10SM CLR 14/06 A3010 RMK AO2 SLP184 T01390061 TSNO","FM-15","7",,,,,,,,,,,,,,,,,,,,,,,,,,,,
"72292023191","2014-01-09T09:51:00","FM-15","7",,,,,,,,,,,,,,,,,,,,,,,,,,,,,,,,,,,,,,"30.11","46","54","0.00",,"-0.06","1","75","30.10","CLR:00","28.41","10.00","50","240",,"5",,,,,,,,,,,,,,,,,,,,,,,,,,,,,,,,,,,,,"MET11301/09/14 09:51:02 METAR KAVX 091751Z 24004KT 10SM CLR 12/08 A3011 RMK AO2 SLP194 T01220078 10139 20083 51019 TSNO","FM-15","7",,,,,,,,,,,,,,,,,,,,,,,,,,,,
"72292023191","2014-01-09T10:51:00","FM-15","7",,,,,,,,,,,,,,,,,,,,,,,,,,,,,,,,,,,,,,"30.11","48","55","0.00",,,,"77","30.09","CLR:00","28.41","10.00","51","260",,"6",,,,,,,,,,,,,,,,,,,,,,,,,,,,,,,,,,,,,"MET09501/09/14 10:51:02 METAR KAVX 091851Z 26005KT 10SM CLR 13/09 A3011 RMK AO2 SLP190 T01280089 TSNO","FM-15","7",,,,,,,,,,,,,,,,,,,,,,,,,,,,
"72292023191","2014-01-09T11:51:00","FM-15","7",,,,,,,,,,,,,,,,,,,,,,,,,,,,,,,,,,,,,,"30.07","48","55","0.00",,,,"77","30.06","CLR:00","28.37","10.00","51","250",,"7",,,,,,,,,,,,,,,,,,,,,,,,,,,,,,,,,,,,,"MET09501/09/14 11:51:02 METAR KAVX 091951Z 25006KT 10SM CLR 13/09 A3007 RMK AO2 SLP179 T01280089 TSNO","FM-15","7",,,,,,,,,,,,,,,,,,,,,,,,,,,,
"72292023191","2014-01-09T12:49:00","FM-16","6",,,,,,,,,,,,,,,,,,,,,,,,,,,,,,,,,,,,,,"30.05","48","55",,,,,"77",,"FEW:02 8","28.35","10.00","51","320",,"9",,,,,,,,,,,,,,,,,,,,,,,,,,,,,,,,,,,,,"MET08601/09/14 12:49:02 SPECI KAVX 092049Z 32008KT 10SM FEW008 13/09 A3005 RMK AO2 TSNO FIBI","FM-16","6",,,,,,,,,,,,,,,,,,,,,,,,,,,,
"72292023191","2014-01-09T12:51:00","FM-15","7",,,,,,,,,,,,,,,,,,,,,,,,,,,,,,,,,,,,,,"30.05","49","56","0.00",,"+0.06","8","77","30.03","FEW:02 3 SCT:04 8","28.35","9.00","52","320",,"11",,,,,,,,,,,,,,,,,,,,,,,,,,,,,,,,,,,,,"MET11001/09/14 12:51:02 METAR KAVX 092051Z 32010KT 9SM FEW003 SCT008 13/09 A3005 RMK AO2 SLP171 T01330094 58020 TSNO","FM-15","7",,,,,,,,,,,,,,,,,,,,,,,,,,,,
"72292023191","2014-01-09T13:00:00","FM-16","7",,,,,,,,,,,,,,,,,,,,,,,,,,,,,,,,,,,,,,"30.04","48","54",,"HZ:7 |FU |HZ",,,"82",,"BKN:07 3 BKN:07 8","28.34","4.00","51","320",,"11",,,,,,,,,,,,,,,,,,,,,,,,,,,,,,,,,,,,,"MET09001/09/14 13:00:02 SPECI KAVX 092100Z 32010KT 4SM HZ BKN003 BKN008 12/09 A3004 RMK AO2 TSNO","FM-16","7",,,,,,,,,,,,,,,,,,,,,,,,,,,,
"72292023191","2014-01-09T13:23:00","FM-16","7",,,,,,,,,,,,,,,,,,,,,,,,,,,,,,,,,,,,,,"30.03","48","55",,,,,"77",,"SCT:04 3 SCT:04 8","28.33","10.00","51","300",,"8",,,,,,,,,,,,,,,,,,,,,,,,,,,,,,,,,,,,,"MET08801/09/14 13:23:02 SPECI KAVX 092123Z 30007KT 10SM SCT003 SCT008 13/09 A3003 RMK AO2 TSNO","FM-16","7",,,,,,,,,,,,,,,,,,,,,,,,,,,,
"72292023191","2014-01-09T13:51:00","FM-15","7",,,,,,,,,,,,,,,,,,,,,,,,,,,,,,,,,,,,,,"30.02","49","55","0.00",,,,"80","30.01","FEW:02 3","28.32","7.00","52","260",,"7",,,,,,,,,,,,,,,,,,,,,,,,,,,,,,,,,,,,,"MET10401/09/14 13:51:02 METAR KAVX 092151Z 26006KT 7SM FEW003 13/09 A3002 RMK AO2 PRESFR SLP161 T01280094 TSNO","FM-15","7",,,,,,,,,,,,,,,,,,,,,,,,,,,,
"72292023191","2014-01-09T14:51:00","FM-15","7",,,,,,,,,,,,,,,,,,,,,,,,,,,,,,,,,,,,,,"30.00","42","59","0.00",,,,"54","29.98","CLR:00","28.30","10.00","50","260",,"10",,,,,,,,,,,,,,,,,,,,,,,,,,,,,,,,,,,,,"MET09501/09/14 14:51:02 METAR KAVX 092251Z 26009KT 10SM CLR 15/06 A3000 RMK AO2 SLP153 T01500056 TSNO","FM-15","7",,,,,,,,,,,,,,,,,,,,,,,,,,,,
"72292023191","2014-01-09T15:51:00","FM-15","7",,,,,,,,,,,,,,,,,,,,,,,,,,,,,,,,,,,,,,"30.02","45","54","0.00",,"+0.03","5","72","30.01","CLR:00","28.32","9.00","49","260",,"10",,,,,,,,,,,,,,,,,,,,,,,,,,,,,,,,,,,,,"MET11201/09/14 15:51:02 METAR KAVX 092351Z 26009KT 9SM CLR 12/07 A3002 RMK AO2 SLP164 T01220072 10150 20117 55009 TSNO","FM-15","7",,,,,,,,,,,,,,,,,,,,,,,,,,,,
"72292023191","2014-01-09T16:51:00","FM-15","7",,,,,,,,,,,,,,,,,,,,,,,,,,,,,,,,,,,,,,"30.01","46","52","0.00","HZ:7 |FU |HZ",,,"80","30.01","CLR:00","28.31","5.00","49","270",,"11",,,,,,,,,,,,,,,,,,,,,,,,,,,,,,,,,,,,,"MET09701/09/14 16:51:01 METAR KAVX 100051Z 27010KT 5SM HZ CLR 11/08 A3001 RMK AO2 SLP161 T01110078 TSNO","FM-15","7",,,,,,,,,,,,,,,,,,,,,,,,,,,,
"72292023191","2014-01-09T17:51:00","FM-15","7",,,,,,,,,,,,,,,,,,,,,,,,,,,,,,,,,,,,,,"30.03","41","54","0.00",,,,"62","30.02","CLR:00","28.33","10.00","48","330",,"9",,,,,,,,,,,,,,,,,,,,,,,,,,,,,,,,,,,,,"MET09501/09/14 17:51:01 METAR KAVX 100151Z 33008KT 10SM CLR 12/05 A3003 RMK AO2 SLP167 T01220050 TSNO","FM-15","7",,,,,,,,,,,,,,,,,,,,,,,,,,,,
"72292023191","2014-01-09T18:51:00","FM-15","7",,,,,,,,,,,,,,,,,,,,,,,,,,,,,,,,,,,,,,"30.03","43","53","0.00",,"-0.01","3","69","30.03","CLR:00","28.33","10.00","48","340",,"8",,,,,,,,,,,,,,,,,,,,,,,,,,,,,,,,,,,,,"MET10101/09/14 18:51:01 METAR KAVX 100251Z 34007KT 10SM CLR 12/06 A3003 RMK AO2 SLP169 T01170061 53004 TSNO","FM-15","7",,,,,,,,,,,,,,,,,,,,,,,,,,,,
"72292023191","2014-01-09T19:51:00","FM-15","7",,,,,,,,,,,,,,,,,,,,,,,,,,,,,,,,,,,,,,"30.04","44","52","0.00",,,,"75","30.04","CLR:00","28.34","10.00","48","010",,"5",,,,,,,,,,,,,,,,,,,,,,,,,,,,,,,,,,,,,"MET09501/09/14 19:51:01 METAR KAVX 100351Z 01004KT 10SM CLR 11/07 A3004 RMK AO2 SLP172 T01110067 TSNO","FM-15","7",,,,,,,,,,,,,,,,,,,,,,,,,,,,
"72292023191","2014-01-09T20:51:00","FM-15","7",,,,,,,,,,,,,,,,,,,,,,,,,,,,,,,,,,,,,,"30.05","47","52","0.00",,,,"83","30.03","CLR:00","28.35","10.00","49","340",,"6",,,,,,,,,,,,,,,,,,,,,,,,,,,,,,,,,,,,,"MET09501/09/14 20:51:01 METAR KAVX 100451Z 34005KT 10SM CLR 11/08 A3005 RMK AO2 SLP171 T01110083 TSNO","FM-15","7",,,,,,,,,,,,,,,,,,,,,,,,,,,,
"72292023191","2014-01-09T21:51:00","FM-15","7",,,,,,,,,,,,,,,,,,,,,,,,,,,,,,,,,,,,,,"30.05","46","52","0.00",,"-0.02","1","80","30.05","CLR:00","28.35","10.00","49","050",,"7",,,,,,,,,,,,,,,,,,,,,,,,,,,,,,,,,,,,,"MET11301/09/14 21:51:01 METAR KAVX 100551Z 05006KT 10SM CLR 11/08 A3005 RMK AO2 SLP175 T01110078 10122 20106 51007 TSNO","FM-15","7",,,,,,,,,,,,,,,,,,,,,,,,,,,,
"72292023191","2014-01-09T22:51:00","FM-15","7",,,,,,,,,,,,,,,,,,,,,,,,,,,,,,,,,,,,,,"30.07","44","53","0.00",,,,"72","30.05","CLR:00","28.37","10.00","48","060",,"7",,,,,,,,,,,,,,,,,,,,,,,,,,,,,,,,,,,,,"MET09501/09/14 22:51:01 METAR KAVX 100651Z 06006KT 10SM CLR 12/07 A3007 RMK AO2 SLP177 T01170067 TSNO","FM-15","7",,,,,,,,,,,,,,,,,,,,,,,,,,,,
"72292023191","2014-01-09T23:51:00","FM-15","7",,,,,,,,,,,,,,,,,,,,,,,,,,,,,,,,,,,,,,"30.07","41","54","0.00",,,,"62","30.05","CLR:00","28.37","10.00","48","040",,"9",,,,,,,,,,,,,,,,,,,,,,,,,,,,,,,,,,,,,"MET10501/09/14 23:51:01 METAR KAVX 100751Z 04008KT 10SM CLR 12/05 A3007 RMK AO2 SLP176 T01220050 401500083 TSNO","FM-15","7",,,,,,,,,,,,,,,,,,,,,,,,,,,,
"72292023191","2014-01-09T23:59:00","SOD  ","6",,,,,,,,,,,,,,,,"53",,,"28.35",,"6.0","0","-2.2","12","59","47","250","17","0.00",,,"260","15","FG BR HZ",,,,,,,,,,,,,,,,,,,,,,,,,,,,,,,,,,,,,,,,,,,,,,,,,,,,,,,,"SOD75124 HR PRECIPITATION (IN):0.00  WEATHER(CODE):8,2,1  24 HR MAX TEMP (F):59 24 HR MAX TEMP TIME (LST):1453 24 HR MIN TEMP (F):47 24 HR MIN TEMP TIME (LST):0602 AVERAGE STATION PRESSURE:28.355 MINIMUM SEA LEVEL PRESSURE:29.98 TIME OF OCCURRENCE:1454 PEAK WIND SPEED (MPH):17  PEAK WIND DIR (DEG):250 PEAK WIND TIME (LST):1559  FASTEST 2MIN SPEED (MPH):15 FASTEST 2MIN DIR (DEG):260 FASTEST 2MIN TIME (LST):1540 AVERAGE WIND SPEED (MPH):6.0  24 HR AVG TEMP (F):53 HEATING DEGREE DAYS:12  COOLING DEGREE DAYS:0   LATEST DAY MAX TEMP (0700-1900 LST):59  LATEST NIGHT MIN TEMP(1900-0800 LST):47 HOURLY INCREMENTAL PRECIPITATION VALUES (IN):.00 0.00 0.00 0.00 0.00 0.00 0.00 0.00 0.00 0.00 0.00 0.00 0.00 0.00 0.00 0.00 0.00 0.00 0.00 0.00 0.00 0.00 0.00 0.00","SOD  ","6",,,,,,,,,,,,,,,,,,,,,,,,,"0659","1704",,
"72292023191","2014-01-10T00:51:00","FM-15","7",,,,,,,,,,,,,,,,,,,,,,,,,,,,,,,,,,,,,,"30.06","41","54","0.00",,"-0.01","0","62","30.05","CLR:00","28.36","10.00","48","030",,"8",,,,,,,,,,,,,,,,,,,,,,,,,,,,,,,,,,,,,"MET10101/10/14 00:51:02 METAR KAVX 100851Z 03007KT 10SM CLR 12/05 A3006 RMK AO2 SLP175 T01220050 50003 TSNO","FM-15","7",,,,,,,,,,,,,,,,,,,,,,,,,,,,
"72292023191","2014-01-10T01:51:00","FM-15","7",,,,,,,,,,,,,,,,,,,,,,,,,,,,,,,,,,,,,,"30.07","42","53","0.00",,,,"66","30.06","CLR:00","28.37","8.00","48","010",,"8",,,,,,,,,,,,,,,,,,,,,,,,,,,,,,,,,,,,,"MET09401/10/14 01:51:02 METAR KAVX 100951Z 01007KT 8SM CLR 12/06 A3007 RMK AO2 SLP178 T01170056 TSNO","FM-15","7",,,,,,,,,,,,,,,,,,,,,,,,,,,,
"72292023191","2014-01-10T02:51:00","FM-15","7",,,,,,,,,,,,,,,,,,,,,,,,,,,,,,,,,,,,,,"30.06","42","53","0.00",,,,"66","30.04","CLR:00","28.36","8.00","48","020",,"5",,,,,,,,,,,,,,,,,,,,,,,,,,,,,,,,,,,,,"MET09401/10/14 02:51:02 METAR KAVX 101051Z 02004KT 8SM CLR 12/06 A3006 RMK AO2 SLP174 T01170056 TSNO","FM-15","7",,,,,,,,,,,,,,,,,,,,,,,,,,,,
"72292023191","2014-01-10T03:51:00","FM-15","7",,,,,,,,,,,,,,,,,,,,,,,,,,,,,,,,,,,,,,"30.06","37","56","0.00",,"-0.00","1","49","30.05","CLR:00","28.36","10.00","47","020",,"8",,,,,,,,,,,,,,,,,,,,,,,,,,,,,,,,,,,,,"MET11301/10/14 03:51:02 METAR KAVX 101151Z 02007KT 10SM CLR 13/03 A3006 RMK AO2 SLP176 T01330028 10133 20111 51001 TSNO","FM-15","7",,,,,,,,,,,,,,,,,,,,,,,,,,,,
"72292023191","2014-01-10T04:51:00","FM-15","7",,,,,,,,,,,,,,,,,,,,,,,,,,,,,,,,,,,,,,"30.07","36","56","0.00",,,,"47","30.06","CLR:00","28.37","10.00","46","030",,"7",,,,,,,,,,,,,,,,,,,,,,,,,,,,,,,,,,,,,"MET09501/10/14 04:51:02 METAR KAVX 101251Z 03006KT 10SM CLR 13/02 A3007 RMK AO2 SLP179 T01330022 TSNO","FM-15","7",,,,,,,,,,,,,,,,,,,,,,,,,,,,
"72292023191","2014-01-10T05:51:00","FM-15","7",,,,,,,,,,,,,,,,,,,,,,,,,,,,,,,,,,,,,,"30.07","36","56","0.00",,,,"47","30.06","CLR:00","28.37","10.00","46","040",,"10",,,,,,,,,,,,,,,,,,,,,,,,,,,,,,,,,,,,,"MET09501/10/14 05:51:02 METAR KAVX 101351Z 04009KT 10SM CLR 13/02 A3007 RMK AO2 SLP178 T01330022 TSNO","FM-15","7",,,,,,,,,,,,,,,,,,,,,,,,,,,,
"72292023191","2014-01-10T06:51:00","FM-15","7",,,,,,,,,,,,,,,,,,,,,,,,,,,,,,,,,,,,,,"30.08","33","57","0.00",,"-0.02","3","41","30.07","CLR:00","28.38","10.00","46","030",,"5",,,,,,,,,,,,,,,,,,,,,,,,,,,,,,,,,,,,,"MET10101/10/14 06:51:02 METAR KAVX 101451Z 03004KT 10SM CLR 14/01 A3008 RMK AO2 SLP182 T01390006 53006 TSNO","FM-15","7",,,,,,,,,,,,,,,,,,,,,,,,,,,,
"72292023191","2014-01-10T07:51:00","FM-15","7",,,,,,,,,,,,,,,,,,,,,,,,,,,,,,,,,,,,,,"30.11","35","58","0.00",,,,"42","30.09","CLR:00","28.41","10.00","47","360",,"3",,,,,,,,,,,,,,,,,,,,,,,,,,,,,,,,,,,,,"MET09501/10/14 07:51:02 METAR KAVX 101551Z 36003KT 10SM CLR 14/02 A3011 RMK AO2 SLP191 T01440017 TSNO","FM-15","7",,,,,,,,,,,,,,,,,,,,,,,,,,,,
"72292023191","2014-01-10T08:51:00","FM-15","7",,,,,,,,,,,,,,,,,,,,,,,,,,,,,,,,,,,,,,"30.13","32","60","0.00",,,,"35","30.11","CLR:00","28.43","10.00","47","290",,"5",,,,,,,,,,,,,,,,,,,,,,,,,,,,,,,,,,,,,"MET09501/10/14 08:51:02 METAR KAVX 101651Z 29004KT 10SM CLR 16/00 A3013 RMK AO2 SLP197 T01560000 TSNO","FM-15","7",,,,,,,,,,,,,,,,,,,,,,,,,,,,
"72292023191","2014-01-10T09:51:00","FM-15","7",,,,,,,,,,,,,,,,,,,,,,,,,,,,,,,,,,,,,,"30.15","36","61","0.00",,"-0.07","1","39","30.13","CLR:00","28.45","10.00","49","260",,"5",,,,,,,,,,,,,,,,,,,,,,,,,,,,,,,,,,,,,"MET11301/10/14 09:51:02 METAR KAVX 101751Z 26004KT 10SM CLR 16/02 A3015 RMK AO2 SLP203 T01610022 10161 20128 51023 TSNO","FM-15","7",,,,,,,,,,,,,,,,,,,,,,,,,,,,
"72292023191","2014-01-10T10:51:00","FM-15","7",,,,,,,,,,,,,,,,,,,,,,,,,,,,,,,,,,,,,,"30.14","39","64","0.00",,,,"40","30.11","CLR:00","28.44","10.00","51","210",,"7",,,,,,,,,,,,,,,,,,,,,,,,,,,,,,,,,,,,,"MET09501/10/14 10:51:02 METAR KAVX 101851Z 21006KT 10SM CLR 18/04 A3014 RMK AO2 SLP195 T01780039 TSNO","FM-15","7",,,,,,,,,,,,,,,,,,,,,,,,,,,,
"72292023191","2014-01-10T11:51:00","FM-15","7",,,,,,,,,,,,,,,,,,,,,,,,,,,,,,,,,,,,,,"30.11","43","64","0.00",,,,"46","30.08","CLR:00","28.41","10.00","53","240",,"8",,,,,,,,,,,,,,,,,,,,,,,,,,,,,,,,,,,,,"MET09501/10/14 11:51:02 METAR KAVX 101951Z 24007KT 10SM CLR 18/06 A3011 RMK AO2 SLP187 T01780061 TSNO","FM-15","7",,,,,,,,,,,,,,,,,,,,,,,,,,,,
"72292023191","2014-01-10T12:51:00","FM-15","7",,,,,,,,,,,,,,,,,,,,,,,,,,,,,,,,,,,,,,"30.08","35","65","0.00",,"+0.07","8","33","30.05","CLR:00","28.38","10.00","50","240",,"7",,,,,,,,,,,,,,,,,,,,,,,,,,,,,,,,,,,,,"MET10101/10/14 12:51:02 METAR KAVX 102051Z 24006KT 10SM CLR 18/02 A3008 RMK AO2 SLP176 T01830017 58023 TSNO","FM-15","7",,,,,,,,,,,,,,,,,,,,,,,,,,,,
"72292023191","2014-01-10T13:51:00","FM-15","7",,,,,,,,,,,,,,,,,,,,,,,,,,,,,,,,,,,,,,"30.07","36","66","0.00",,,,"33","30.04","CLR:00","28.37","10.00","51","250",,"9",,,,,,,,,,,,,,,,,,,,,,,,,,,,,,,,,,,,,"MET09501/10/14 13:51:02 METAR KAVX 102151Z 25008KT 10SM CLR 19/02 A3007 RMK AO2 SLP173 T01890022 TSNO","FM-15","7",,,,,,,,,,,,,,,,,,,,,,,,,,,,
"72292023191","2014-01-10T14:51:00","FM-15","7",,,,,,,,,,,,,,,,,,,,,,,,,,,,,,,,,,,,,,"30.06","32","66","0.00",,,,"28","30.03","CLR:00","28.36","10.00","50","240",,"8",,,,,,,,,,,,,,,,,,,,,,,,,,,,,,,,,,,,,"MET09501/10/14 14:51:02 METAR KAVX 102251Z 24007KT 10SM CLR 19/00 A3006 RMK AO2 SLP170 T01890000 TSNO","FM-15","7",,,,,,,,,,,,,,,,,,,,,,,,,,,,
"72292023191","2014-01-10T15:51:00","FM-15","7",,,,,,,,,,,,,,,,,,,,,,,,,,,,,,,,,,,,,,"30.07","36","63","0.00",,"+0.01","5","37","30.04","CLR:00","28.37","10.00","50","250",,"8",,,,,,,,,,,,,,,,,,,,,,,,,,,,,,,,,,,,,"MET11301/10/14 15:51:02 METAR KAVX 102351Z 25007KT 10SM CLR 17/02 A3007 RMK AO2 SLP173 T01720022 10194 20161 55004 TSNO","FM-15","7",,,,,,,,,,,,,,,,,,,,,,,,,,,,
"72292023191","2014-01-10T16:51:00","FM-15","7",,,,,,,,,,,,,,,,,,,,,,,,,,,,,,,,,,,,,,"30.07","34","63","0.00",,,,"34","30.04","CLR:00","28.37","10.00","49","000",,"0",,,,,,,,,,,,,,,,,,,,,,,,,,,,,,,,,,,,,"MET09501/10/14 16:51:01 METAR KAVX 110051Z 00000KT 10SM CLR 17/01 A3007 RMK AO2 SLP173 T01720011 TSNO","FM-15","7",,,,,,,,,,,,,,,,,,,,,,,,,,,,
"72292023191","2014-01-10T17:51:00","FM-15","7",,,,,,,,,,,,,,,,,,,,,,,,,,,,,,,,,,,,,,"30.08","32","60","0.00",,,,"35","30.05","CLR:00","28.38","10.00","47","230",,"5",,,,,,,,,,,,,,,,,,,,,,,,,,,,,,,,,,,,,"MET09501/10/14 17:51:01 METAR KAVX 110151Z 23004KT 10SM CLR 16/00 A3008 RMK AO2 SLP176 T01560000 TSNO","FM-15","7",,,,,,,,,,,,,,,,,,,,,,,,,,,,
"72292023191","2014-01-10T18:51:00","FM-15","7",,,,,,,,,,,,,,,,,,,,,,,,,,,,,,,,,,,,,,"30.10","32","61","0.00",,"-0.02","3","34","30.07","CLR:00","28.40","10.00","47","270",,"3",,,,,,,,,,,,,,,,,,,,,,,,,,,,,,,,,,,,,"MET10101/10/14 18:51:01 METAR KAVX 110251Z 27003KT 10SM CLR 16/00 A3010 RMK AO2 SLP182 T01610000 53007 TSNO","FM-15","7",,,,,,,,,,,,,,,,,,,,,,,,,,,,
"72292023191","2014-01-10T19:51:00","FM-15","7",,,,,,,,,,,,,,,,,,,,,,,,,,,,,,,,,,,,,,"30.10","33","59","0.00",,,,"38","30.07","CLR:00","28.40","10.00","47","090",,"5",,,,,,,,,,,,,,,,,,,,,,,,,,,,,,,,,,,,,"MET09501/10/14 19:51:02 METAR KAVX 110351Z 09004KT 10SM CLR 15/01 A3010 RMK AO2 SLP184 T01500006 TSNO","FM-15","7",,,,,,,,,,,,,,,,,,,,,,,,,,,,
"72292023191","2014-01-10T20:51:00","FM-15","7",,,,,,,,,,,,,,,,,,,,,,,,,,,,,,,,,,,,,,"30.12","31","63","0.00",,,,"30","30.08","CLR:00","28.42","10.00","48","080",,"3",,,,,,,,,,,,,,,,,,,,,,,,,,,,,,,,,,,,,"MET09601/10/14 20:51:02 METAR KAVX 110451Z 08003KT 10SM CLR 17/M01 A3012 RMK AO2 SLP185 T01721006 TSNO","FM-15","7",,,,,,,,,,,,,,,,,,,,,,,,,,,,
"72292023191","2014-01-10T21:51:00","FM-15","7",,,,,,,,,,,,,,,,,,,,,,,,,,,,,,,,,,,,,,"30.13","31","62","0.00",,"-0.03","3","31","30.09","CLR:00","28.43","10.00","47","000",,"0",,,,,,,,,,,,,,,,,,,,,,,,,,,,,,,,,,,,,"MET11401/10/14 21:51:02 METAR KAVX 110551Z 00000KT 10SM CLR 17/M01 A3013 RMK AO2 SLP188 T01671006 10178 20144 53009 TSNO","FM-15","7",,,,,,,,,,,,,,,,,,,,,,,,,,,,
"72292023191","2014-01-10T22:51:00","FM-15","7",,,,,,,,,,,,,,,,,,,,,,,,,,,,,,,,,,,,,,"30.13","31","64","0.00",,,,"29","30.08","CLR:00","28.43","10.00","48","000",,"0",,,,,,,,,,,,,,,,,,,,,,,,,,,,,,,,,,,,,"MET09601/10/14 22:51:02 METAR KAVX 110651Z 00000KT 10SM CLR 18/M01 A3013 RMK AO2 SLP185 T01781006 TSNO","FM-15","7",,,,,,,,,,,,,,,,,,,,,,,,,,,,
"72292023191","2014-01-10T23:51:00","FM-15","7",,,,,,,,,,,,,,,,,,,,,,,,,,,,,,,,,,,,,,"30.13","30","65","0.00",,,,"27","30.07","CLR:00","28.43","10.00","49","000",,"0",,,,,,,,,,,,,,,,,,,,,,,,,,,,,,,,,,,,,"MET10601/10/14 23:51:02 METAR KAVX 110751Z 00000KT 10SM CLR 18/M01 A3013 RMK AO2 SLP184 T01831011 401940111 TSNO","FM-15","7",,,,,,,,,,,,,,,,,,,,,,,,,,,,
"72292023191","2014-01-10T23:59:00","SOD  ","6",,,,,,,,,,,,,,,,"60",,,"28.40",,"5.3","0","4.8","5","67","52","030","15","0.00",,,"040","13",,,,,,,,,,,,,,,,,,,,,,,,,,,,,,,,,,,,,,,,,,,,,,,,,,,,,,,,,"SOD73024 HR PRECIPITATION (IN):0.00  24 HR MAX TEMP (F):67 24 HR MAX TEMP TIME (LST):1349 24 HR MIN TEMP (F):52 24 HR MIN TEMP TIME (LST):0220 AVERAGE STATION PRESSURE:28.400 MINIMUM SEA LEVEL PRESSURE:30.03 TIME OF OCCURRENCE:1714 PEAK WIND SPEED (MPH):15  PEAK WIND DIR (DEG):30  PEAK WIND TIME (LST):0528  FASTEST 2MIN SPEED (MPH):13 FASTEST 2MIN DIR (DEG):40  FASTEST 2MIN TIME (LST):0532 AVERAGE WIND SPEED (MPH):5.3  24 HR AVG TEMP (F):60 HEATING DEGREE DAYS:5   COOLING DEGREE DAYS:0   LATEST DAY MAX TEMP (0700-1900 LST):67  LATEST NIGHT MIN TEMP(1900-0800 LST):51 HOURLY INCREMENTAL PRECIPITATION VALUES (IN):.00 0.00 0.00 0.00 0.00 0.00 0.00 0.00 0.00 0.00 0.00 0.00 0.00 0.00 0.00 0.00 0.00 0.00 0.00 0.00 0.00 0.00 0.00 0.00","SOD  ","6",,,,,,,,,,,,,,,,,,,,,,,,,"0658","1704",,
"72292023191","2014-01-11T00:51:00","FM-15","7",,,,,,,,,,,,,,,,,,,,,,,,,,,,,,,,,,,,,,"30.12","30","62","0.00",,"+0.00","8","30","30.08","CLR:00","28.42","10.00","47","000",,"0",,,,,,,,,,,,,,,,,,,,,,,,,,,,,,,,,,,,,"MET10201/11/14 00:51:02 METAR KAVX 110851Z 00000KT 10SM CLR 17/M01 A3012 RMK AO2 SLP185 T01671011 58000 TSNO","FM-15","7",,,,,,,,,,,,,,,,,,,,,,,,,,,,
"72292023191","2014-01-11T01:51:00","FM-15","7",,,,,,,,,,,,,,,,,,,,,,,,,,,,,,,,,,,,,,"30.13","33","59","0.00",,,,"38","30.09","CLR:00","28.43","10.00","47","090",,"3",,,,,,,,,,,,,,,,,,,,,,,,,,,,,,,,,,,,,"MET09501/11/14 01:51:02 METAR KAVX 110951Z 09003KT 10SM CLR 15/01 A3013 RMK AO2 SLP188 T01500006 TSNO","FM-15","7",,,,,,,,,,,,,,,,,,,,,,,,,,,,
"72292023191","2014-01-11T02:51:00","FM-15","7",,,,,,,,,,,,,,,,,,,,,,,,,,,,,,,,,,,,,,"30.14","33","59","0.00",,,,"38","30.09","CLR:00","28.44","10.00","47","000",,"0",,,,,,,,,,,,,,,,,,,,,,,,,,,,,,,,,,,,,"MET09501/11/14 02:51:02 METAR KAVX 111051Z 00000KT 10SM CLR 15/01 A3014 RMK AO2 SLP191 T01500006 TSNO","FM-15","7",,,,,,,,,,,,,,,,,,,,,,,,,,,,
"72292023191","2014-01-11T03:51:00","FM-15","7",,,,,,,,,,,,,,,,,,,,,,,,,,,,,,,,,,,,,,"30.13","32","60","0.00",,"-0.01","0","35","30.09","CLR:00","28.43","10.00","47","180",,"3",,,,,,,,,,,,,,,,,,,,,,,,,,,,,,,,,,,,,"MET11301/11/14 03:51:02 METAR KAVX 111151Z 18003KT 10SM CLR 16/00 A3013 RMK AO2 SLP190 T01560000 10183 20139 50003 TSNO","FM-15","7",,,,,,,,,,,,,,,,,,,,,,,,,,,,
"72292023191","2014-01-11T04:51:00","FM-15","7",,,,,,,,,,,,,,,,,,,,,,,,,,,,,,,,,,,,,,"30.13","31","62","0.00",,,,"31","30.09","CLR:00","28.43","10.00","47","000",,"0",,,,,,,,,,,,,,,,,,,,,,,,,,,,,,,,,,,,,"MET09601/11/14 04:51:02 METAR KAVX 111251Z 00000KT 10SM CLR 17/M01 A3013 RMK AO2 SLP189 T01671006 TSNO","FM-15","7",,,,,,,,,,,,,,,,,,,,,,,,,,,,
"72292023191","2014-01-11T05:51:00","FM-15","7",,,,,,,,,,,,,,,,,,,,,,,,,,,,,,,,,,,,,,"30.14","30","63","0.00",,,,"29","30.10","CLR:00","28.44","10.00","48","000",,"0",,,,,,,,,,,,,,,,,,,,,,,,,,,,,,,,,,,,,"MET09601/11/14 05:51:02 METAR KAVX 111351Z 00000KT 10SM CLR 17/M01 A3014 RMK AO2 SLP192 T01721011 TSNO","FM-15","7",,,,,,,,,,,,,,,,,,,,,,,,,,,,
"72292023191","2014-01-11T06:51:00","FM-15","7",,,,,,,,,,,,,,,,,,,,,,,,,,,,,,,,,,,,,,"30.15","30","60","0.00",,"-0.01","3","32","30.11","CLR:00","28.45","10.00","46","000",,"0",,,,,,,,,,,,,,,,,,,,,,,,,,,,,,,,,,,,,"MET10201/11/14 06:51:02 METAR KAVX 111451Z 00000KT 10SM CLR 16/M01 A3015 RMK AO2 SLP196 T01561011 53004 TSNO","FM-15","7",,,,,,,,,,,,,,,,,,,,,,,,,,,,
"72292023191","2014-01-11T07:51:00","FM-15","7",,,,,,,,,,,,,,,,,,,,,,,,,,,,,,,,,,,,,,"30.16","30","63","0.00",,,,"29","30.12","CLR:00","28.46","10.00","48","000",,"0",,,,,,,,,,,,,,,,,,,,,,,,,,,,,,,,,,,,,"MET09601/11/14 07:51:02 METAR KAVX 111551Z 00000KT 10SM CLR 17/M01 A3016 RMK AO2 SLP200 T01721011 TSNO","FM-15","7",,,,,,,,,,,,,,,,,,,,,,,,,,,,
"72292023191","2014-01-11T08:51:00","FM-15","7",,,,,,,,,,,,,,,,,,,,,,,,,,,,,,,,,,,,,,"30.18","31","66","0.00",,,,"27","30.13","CLR:00","28.48","10.00","49","000",,"0",,,,,,,,,,,,,,,,,,,,,,,,,,,,,,,,,,,,,"MET09601/11/14 08:51:02 METAR KAVX 111651Z 00000KT 10SM CLR 19/M01 A3018 RMK AO2 SLP202 T01891006 TSNO","FM-15","7",,,,,,,,,,,,,,,,,,,,,,,,,,,,
"72292023191","2014-01-11T09:51:00","FM-15","7",,,,,,,,,,,,,,,,,,,,,,,,,,,,,,,,,,,,,,"30.20","33","64","0.00",,"-0.05","3","32","30.15","CLR:00","28.50","10.00","49","000",,"0",,,,,,,,,,,,,,,,,,,,,,,,,,,,,,,,,,,,,"MET11301/11/14 09:51:02 METAR KAVX 111751Z 00000KT 10SM CLR 18/01 A3020 RMK AO2 SLP211 T01780006 10189 20156 53017 TSNO","FM-15","7",,,,,,,,,,,,,,,,,,,,,,,,,,,,
"72292023191","2014-01-11T10:51:00","FM-15","7",,,,,,,,,,,,,,,,,,,,,,,,,,,,,,,,,,,,,,"30.18","41","65","0.00",,,,"42","30.13","CLR:00","28.48","10.00","53","000",,"0",,,,,,,,,,,,,,,,,,,,,,,,,,,,,,,,,,,,,"MET09501/11/14 10:51:02 METAR KAVX 111851Z 00000KT 10SM CLR 18/05 A3018 RMK AO2 SLP204 T01830050 TSNO","FM-15","7",,,,,,,,,,,,,,,,,,,,,,,,,,,,
"72292023191","2014-01-11T11:51:00","FM-15","7",,,,,,,,,,,,,,,,,,,,,,,,,,,,,,,,,,,,,,"30.15","42","67","0.00",,,,"41","30.09","CLR:00","28.45","10.00","54","260",,"5",,,,,,,,,,,,,,,,,,,,,,,,,,,,,,,,,,,,,"MET09501/11/14 11:51:02 METAR KAVX 111951Z 26004KT 10SM CLR 19/06 A3015 RMK AO2 SLP191 T01940056 TSNO","FM-15","7",,,,,,,,,,,,,,,,,,,,,,,,,,,,
"72292023191","2014-01-11T12:51:00","FM-15","7",,,,,,,,,,,,,,,,,,,,,,,,,,,,,,,,,,,,,,"30.12","39","67","0.00",,"+0.07","8","36","30.07","CLR:00","28.42","10.00","53","260",,"5",,,,,,,,,,,,,,,,,,,,,,,,,,,,,,,,,,,,,"MET10101/11/14 12:51:02 METAR KAVX 112051Z 26004KT 10SM CLR 19/04 A3012 RMK AO2 SLP182 T01940039 58024 TSNO","FM-15","7",,,,,,,,,,,,,,,,,,,,,,,,,,,,
"72292023191","2014-01-11T13:51:00","FM-15","7",,,,,,,,,,,,,,,,,,,,,,,,,,,,,,,,,,,,,,"30.10","42","67","0.00",,,,"41","30.06","CLR:00","28.40","10.00","54","240",,"6",,,,,,,,,,,,,,,,,,,,,,,,,,,,,,,,,,,,,"MET09501/11/14 13:51:02 METAR KAVX 112151Z 24005KT 10SM CLR 19/06 A3010 RMK AO2 SLP179 T01940056 TSNO","FM-15","7",,,,,,,,,,,,,,,,,,,,,,,,,,,,
"72292023191","2014-01-11T14:51:00","FM-15","7",,,,,,,,,,,,,,,,,,,,,,,,,,,,,,,,,,,,,,"30.10","46","66","0.00",,,,"49","30.06","CLR:00","28.40","10.00","55","270",,"7",,,,,,,,,,,,,,,,,,,,,,,,,,,,,,,,,,,,,"MET09501/11/14 14:51:02 METAR KAVX 112251Z 27006KT 10SM CLR 19/08 A3010 RMK AO2 SLP178 T01890078 TSNO","FM-15","7",,,,,,,,,,,,,,,,,,,,,,,,,,,,
"72292023191","2014-01-11T15:51:00","FM-15","7",,,,,,,,,,,,,,,,,,,,,,,,,,,,,,,,,,,,,,"30.09","44","65","0.00",,"+0.04","6","47","30.04","CLR:00","28.39","10.00","54","000",,"0",,,,,,,,,,,,,,,,,,,,,,,,,,,,,,,,,,,,,"MET11301/11/14 15:51:02 METAR KAVX 112351Z 00000KT 10SM CLR 18/07 A3009 RMK AO2 SLP173 T01830067 10206 20178 56012 TSNO","FM-15","7",,,,,,,,,,,,,,,,,,,,,,,,,,,,
"72292023191","2014-01-11T16:51:00","FM-15","7",,,,,,,,,,,,,,,,,,,,,,,,,,,,,,,,,,,,,,"30.09","36","64","0.00",,,,"35","30.05","CLR:00","28.39","10.00","50","280",,"6",,,,,,,,,,,,,,,,,,,,,,,,,,,,,,,,,,,,,"MET09501/11/14 16:51:01 METAR KAVX 120051Z 28005KT 10SM CLR 18/02 A3009 RMK AO2 SLP175 T01780022 TSNO","FM-15","7",,,,,,,,,,,,,,,,,,,,,,,,,,,,
"72292023191","2014-01-11T17:51:00","FM-15","7",,,,,,,,,,,,,,,,,,,,,,,,,,,,,,,,,,,,,,"30.09","33","64","0.00",,,,"32","30.04","CLR:00","28.39","10.00","49","250",,"5",,,,,,,,,,,,,,,,,,,,,,,,,,,,,,,,,,,,,"MET09501/11/14 17:51:01 METAR KAVX 120151Z 25004KT 10SM CLR 18/01 A3009 RMK AO2 SLP172 T01780006 TSNO","FM-15","7",,,,,,,,,,,,,,,,,,,,,,,,,,,,
"72292023191","2014-01-11T18:51:00","FM-15","7",,,,,,,,,,,,,,,,,,,,,,,,,,,,,,,,,,,,,,"30.10","38","59","0.00",,"-0.01","3","46","30.06","CLR:00","28.40","8.00","49","250",,"9",,,,,,,,,,,,,,,,,,,,,,,,,,,,,,,,,,,,,"MET10001/11/14 18:51:01 METAR KAVX 120251Z 25008KT 8SM CLR 15/03 A3010 RMK AO2 SLP181 T01500033 53004 TSNO","FM-15","7",,,,,,,,,,,,,,,,,,,,,,,,,,,,
"72292023191","2014-01-11T19:51:00","FM-15","7",,,,,,,,,,,,,,,,,,,,,,,,,,,,,,,,,,,,,,"30.10","37","58","0.00",,,,"46","30.06","CLR:00","28.40","10.00","48","260",,"9",,,,,,,,,,,,,,,,,,,,,,,,,,,,,,,,,,,,,"MET09501/11/14 19:51:02 METAR KAVX 120351Z 26008KT 10SM CLR 14/03 A3010 RMK AO2 SLP178 T01440028 TSNO","FM-15","7",,,,,,,,,,,,,,,,,,,,,,,,,,,,
"72292023191","2014-01-11T20:51:00","FM-15","7",,,,,,,,,,,,,,,,,,,,,,,,,,,,,,,,,,,,,,"30.11","41","57","0.00",,,,"55","30.07","CLR:00","28.41","10.00","49","280",,"9",,,,,,,,,,,,,,,,,,,,,,,,,,,,,,,,,,,,,"MET09501/11/14 20:51:02 METAR KAVX 120451Z 28008KT 10SM CLR 14/05 A3011 RMK AO2 SLP183 T01390050 TSNO","FM-15","7",,,,,,,,,,,,,,,,,,,,,,,,,,,,
"72292023191","2014-01-11T21:51:00","FM-15","7",,,,,,,,,,,,,,,,,,,,,,,,,,,,,,,,,,,,,,"30.10","42","59","0.00",,"-0.00","0","54","30.06","CLR:00","28.40","10.00","50","300",,"9",,,,,,,,,,,,,,,,,,,,,,,,,,,,,,,,,,,,,"MET11301/11/14 21:51:02 METAR KAVX 120551Z 30008KT 10SM CLR 15/06 A3010 RMK AO2 SLP179 T01500056 10183 20128 50001 TSNO","FM-15","7",,,,,,,,,,,,,,,,,,,,,,,,,,,,
"72292023191","2014-01-11T22:51:00","FM-15","7",,,,,,,,,,,,,,,,,,,,,,,,,,,,,,,,,,,,,,"30.10","43","58","0.00",,,,"58","30.06","CLR:00","28.40","10.00","50","300",,"8",,,,,,,,,,,,,,,,,,,,,,,,,,,,,,,,,,,,,"MET09501/11/14 22:51:02 METAR KAVX 120651Z 30007KT 10SM CLR 14/06 A3010 RMK AO2 SLP178 T01440061 TSNO","FM-15","7",,,,,,,,,,,,,,,,,,,,,,,,,,,,
"72292023191","2014-01-11T23:51:00","FM-15","7",,,,,,,,,,,,,,,,,,,,,,,,,,,,,,,,,,,,,,"30.08","45","56","0.00",,,,"67","30.03","CLR:00","28.38","10.00","50","300",,"6",,,,,,,,,,,,,,,,,,,,,,,,,,,,,,,,,,,,,"MET10501/11/14 23:51:02 METAR KAVX 120751Z 30005KT 10SM CLR 13/07 A3008 RMK AO2 SLP171 T01330072 402060128 TSNO","FM-15","7",,,,,,,,,,,,,,,,,,,,,,,,,,,,
"72292023191","2014-01-11T23:59:00","SOD  ","6",,,,,,,,,,,,,,,,"62",,,"28.43",,"3.7","0","6.7","3","69","55","310","18","0.00",,,"290","14",,,,,,,,,,,,,,,,,,,,,,,,,,,,,,,,,,,,,,,,,,,,,,,,,,,,,,,,,"SOD74724 HR PRECIPITATION (IN):0.00  WEATHER(CODE):8  24 HR MAX TEMP (F):69 24 HR MAX TEMP TIME (LST):1114 24 HR MIN TEMP (F):55 24 HR MIN TEMP TIME (LST):2041 AVERAGE STATION PRESSURE:28.425 MINIMUM SEA LEVEL PRESSURE:30.03 TIME OF OCCURRENCE:2359 PEAK WIND SPEED (MPH):18  PEAK WIND DIR (DEG):310 PEAK WIND TIME (LST):2340  FASTEST 2MIN SPEED (MPH):14 FASTEST 2MIN DIR (DEG):290 FASTEST 2MIN TIME (LST):2010 AVERAGE WIND SPEED (MPH):3.7  24 HR AVG TEMP (F):62 HEATING DEGREE DAYS:3   COOLING DEGREE DAYS:0   LATEST DAY MAX TEMP (0700-1900 LST):69  LATEST NIGHT MIN TEMP(1900-0800 LST):57 HOURLY INCREMENTAL PRECIPITATION VALUES (IN):.00 0.00 0.00 0.00 0.00 0.00 0.00 0.00 0.00 0.00 0.00 0.00 0.00 0.00 0.00 0.00 0.00 0.00 0.00 0.00 0.00 0.00 0.00 0.00","SOD  ","6",,,,,,,,,,,,,,,,,,,,,,,,,"0658","1705",,
"72292023191","2014-01-12T00:51:00","FM-15","7",,,,,,,,,,,,,,,,,,,,,,,,,,,,,,,,,,,,,,"30.08","43","58","0.00",,"+0.02","5","58","30.03","CLR:00","28.38","10.00","50","300",,"11",,,,,,,,,,,,,,,,,,,,,,,,,,,,,,,,,,,,,"MET10101/12/14 00:51:02 METAR KAVX 120851Z 30010KT 10SM CLR 14/06 A3008 RMK AO2 SLP171 T01440061 55007 TSNO","FM-15","7",,,,,,,,,,,,,,,,,,,,,,,,,,,,
"72292023191","2014-01-12T01:51:00","FM-15","7",,,,,,,,,,,,,,,,,,,,,,,,,,,,,,,,,,,,,,"30.09","46","55","0.00",,,,"72","30.05","CLR:00","28.39","10.00","50","300","22","14",,,,,,,,,,,,,,,,,,,,,,,,,,,,,,,,,,,,,"MET09801/12/14 01:51:02 METAR KAVX 120951Z 30012G19KT 10SM CLR 13/08 A3009 RMK AO2 SLP175 T01280078 TSNO","FM-15","7",,,,,,,,,,,,,,,,,,,,,,,,,,,,
"72292023191","2014-01-12T02:51:00","FM-15","7",,,,,,,,,,,,,,,,,,,,,,,,,,,,,,,,,,,,,,"30.08","48","54","0.00",,,,"80","30.04","CLR:00","28.38","10.00","51","320",,"14",,,,,,,,,,,,,,,,,,,,,,,,,,,,,,,,,,,,,"MET09501/12/14 02:51:02 METAR KAVX 121051Z 32012KT 10SM CLR 12/09 A3008 RMK AO2 SLP174 T01220089 TSNO","FM-15","7",,,,,,,,,,,,,,,,,,,,,,,,,,,,
"72292023191","2014-01-12T03:51:00","FM-15","7",,,,,,,,,,,,,,,,,,,,,,,,,,,,,,,,,,,,,,"30.07","42","57","0.00",,"+0.01","8","58","30.03","CLR:00","28.37","10.00","49","340",,"9",,,,,,,,,,,,,,,,,,,,,,,,,,,,,,,,,,,,,"MET11301/12/14 03:51:02 METAR KAVX 121151Z 34008KT 10SM CLR 14/06 A3007 RMK AO2 SLP171 T01390056 10150 20117 58002 TSNO","FM-15","7",,,,,,,,,,,,,,,,,,,,,,,,,,,,
"72292023191","2014-01-12T04:51:00","FM-15","7",,,,,,,,,,,,,,,,,,,,,,,,,,,,,,,,,,,,,,"30.07","41","54","0.00",,,,"62","30.04","CLR:00","28.37","10.00","48","010",,"7",,,,,,,,,,,,,,,,,,,,,,,,,,,,,,,,,,,,,"MET09501/12/14 04:51:02 METAR KAVX 121251Z 01006KT 10SM CLR 12/05 A3007 RMK AO2 SLP172 T01220050 TSNO","FM-15","7",,,,,,,,,,,,,,,,,,,,,,,,,,,,
"72292023191","2014-01-12T05:51:00","FM-15","7",,,,,,,,,,,,,,,,,,,,,,,,,,,,,,,,,,,,,,"30.08","41","56","0.00",,,,"57","30.05","CLR:00","28.38","10.00","49","010",,"9",,,,,,,,,,,,,,,,,,,,,,,,,,,,,,,,,,,,,"MET09501/12/14 05:51:02 METAR KAVX 121351Z 01008KT 10SM CLR 13/05 A3008 RMK AO2 SLP176 T01330050 TSNO","FM-15","7",,,,,,,,,,,,,,,,,,,,,,,,,,,,
"72292023191","2014-01-12T06:51:00","FM-15","7",,,,,,,,,,,,,,,,,,,,,,,,,,,,,,,,,,,,,,"30.08","40","56","0.00",,"-0.01","3","55","30.06","CLR:00","28.38","10.00","48","350",,"10",,,,,,,,,,,,,,,,,,,,,,,,,,,,,,,,,,,,,"MET10101/12/14 06:51:02 METAR KAVX 121451Z 35009KT 10SM CLR 13/04 A3008 RMK AO2 SLP178 T01330044 53004 TSNO","FM-15","7",,,,,,,,,,,,,,,,,,,,,,,,,,,,
"72292023191","2014-01-12T07:51:00","FM-15","7",,,,,,,,,,,,,,,,,,,,,,,,,,,,,,,,,,,,,,"30.10","38","57","0.00",,,,"49","30.07","CLR:00","28.40","10.00","48","330",,"11",,,,,,,,,,,,,,,,,,,,,,,,,,,,,,,,,,,,,"MET09501/12/14 07:51:02 METAR KAVX 121551Z 33010KT 10SM CLR 14/03 A3010 RMK AO2 SLP183 T01390033 TSNO","FM-15","7",,,,,,,,,,,,,,,,,,,,,,,,,,,,
"72292023191","2014-01-12T08:51:00","FM-15","7",,,,,,,,,,,,,,,,,,,,,,,,,,,,,,,,,,,,,,"30.12","42","57","0.00",,,,"58","30.10","CLR:00","28.42","10.00","49","340",,"11",,,,,,,,,,,,,,,,,,,,,,,,,,,,,,,,,,,,,"MET09501/12/14 08:51:02 METAR KAVX 121651Z 34010KT 10SM CLR 14/06 A3012 RMK AO2 SLP192 T01390056 TSNO","FM-15","7",,,,,,,,,,,,,,,,,,,,,,,,,,,,
"72292023191","2014-01-12T09:51:00","FM-15","7",,,,,,,,,,,,,,,,,,,,,,,,,,,,,,,,,,,,,,"30.14","42","58","0.00",,"-0.06","3","56","30.11","CLR:00","28.44","10.00","50","320",,"10",,,,,,,,,,,,,,,,,,,,,,,,,,,,,,,,,,,,,"MET11301/12/14 09:51:02 METAR KAVX 121751Z 32009KT 10SM CLR 14/06 A3014 RMK AO2 SLP197 T01440056 10144 20122 53019 TSNO","FM-15","7",,,,,,,,,,,,,,,,,,,,,,,,,,,,
"72292023191","2014-01-12T10:51:00","FM-15","7",,,,,,,,,,,,,,,,,,,,,,,,,,,,,,,,,,,,,,"30.14","43","59","0.00",,,,"56","30.11","CLR:00","28.44","10.00","51","340",,"8",,,,,,,,,,,,,,,,,,,,,,,,,,,,,,,,,,,,,"MET09501/12/14 10:51:02 METAR KAVX 121851Z 34007KT 10SM CLR 15/06 A3014 RMK AO2 SLP196 T01500061 TSNO","FM-15","7",,,,,,,,,,,,,,,,,,,,,,,,,,,,
"72292023191","2014-01-12T11:51:00","FM-15","7",,,,,,,,,,,,,,,,,,,,,,,,,,,,,,,,,,,,,,"30.12","43","61","0.00",,,,"52","30.09","CLR:00","28.42","10.00","52","340",,"9",,,,,,,,,,,,,,,,,,,,,,,,,,,,,,,,,,,,,"MET09501/12/14 11:51:02 METAR KAVX 121951Z 34008KT 10SM CLR 16/06 A3012 RMK AO2 SLP190 T01610061 TSNO","FM-15","7",,,,,,,,,,,,,,,,,,,,,,,,,,,,
"72292023191","2014-01-12T12:51:00","FM-15","7",,,,,,,,,,,,,,,,,,,,,,,,,,,,,,,,,,,,,,"30.10","39","62","0.00",,"+0.04","8","43","30.07","CLR:00","28.40","10.00","50","300",,"11",,,,,,,,,,,,,,,,,,,,,,,,,,,,,,,,,,,,,"MET10101/12/14 12:51:02 METAR KAVX 122051Z 30010KT 10SM CLR 17/04 A3010 RMK AO2 SLP183 T01670039 58012 TSNO","FM-15","7",,,,,,,,,,,,,,,,,,,,,,,,,,,,
"72292023191","2014-01-12T13:51:00","FM-15","7",,,,,,,,,,,,,,,,,,,,,,,,,,,,,,,,,,,,,,"30.09","29","64","0.00",,,,"27","30.06","CLR:00","28.39","10.00","48","330",,"10",,,,,,,,,,,,,,,,,,,,,,,,,,,,,,,,,,,,,"MET09601/12/14 13:51:02 METAR KAVX 122151Z 33009KT 10SM CLR 18/M02 A3009 RMK AO2 SLP178 T01781017 TSNO","FM-15","7",,,,,,,,,,,,,,,,,,,,,,,,,,,,
"72292023191","2014-01-12T14:51:00","FM-15","7",,,,,,,,,,,,,,,,,,,,,,,,,,,,,,,,,,,,,,"30.08","33","63","0.00",,,,"33","30.06","CLR:00","28.38","10.00","49","310",,"9",,,,,,,,,,,,,,,,,,,,,,,,,,,,,,,,,,,,,"MET09501/12/14 14:51:02 METAR KAVX 122251Z 31008KT 10SM CLR 17/01 A3008 RMK AO2 SLP178 T01720006 TSNO","FM-15","7",,,,,,,,,,,,,,,,,,,,,,,,,,,,
"72292023191","2014-01-12T15:51:00","FM-15","7",,,,,,,,,,,,,,,,,,,,,,,,,,,,,,,,,,,,,,"30.09","35","61","0.00",,"+0.01","5","38","30.06","CLR:00","28.39","10.00","48","310",,"7",,,,,,,,,,,,,,,,,,,,,,,,,,,,,,,,,,,,,"MET11301/12/14 15:51:02 METAR KAVX 122351Z 31006KT 10SM CLR 16/02 A3009 RMK AO2 SLP179 T01610017 10183 20144 55005 TSNO","FM-15","7",,,,,,,,,,,,,,,,,,,,,,,,,,,,
"72292023191","2014-01-12T16:51:00","FM-15","7",,,,,,,,,,,,,,,,,,,,,,,,,,,,,,,,,,,,,,"30.10","46","55","0.00",,,,"72","30.08","CLR:00","28.40","10.00","50","290",,"7",,,,,,,,,,,,,,,,,,,,,,,,,,,,,,,,,,,,,"MET09501/12/14 16:51:01 METAR KAVX 130051Z 29006KT 10SM CLR 13/08 A3010 RMK AO2 SLP187 T01280078 TSNO","FM-15","7",,,,,,,,,,,,,,,,,,,,,,,,,,,,
"72292023191","2014-01-12T17:51:00","FM-15","7",,,,,,,,,,,,,,,,,,,,,,,,,,,,,,,,,,,,,,"30.12","37","57","0.00",,,,"47","30.09","CLR:00","28.42","10.00","47","310",,"10",,,,,,,,,,,,,,,,,,,,,,,,,,,,,,,,,,,,,"MET09501/12/14 17:51:01 METAR KAVX 130151Z 31009KT 10SM CLR 14/03 A3012 RMK AO2 SLP191 T01390028 TSNO","FM-15","7",,,,,,,,,,,,,,,,,,,,,,,,,,,,
"72292023191","2014-01-12T18:51:00","FM-15","7",,,,,,,,,,,,,,,,,,,,,,,,,,,,,,,,,,,,,,"30.13","34","58","0.00",,"-0.04","3","41","30.10","CLR:00","28.43","10.00","47","330",,"8",,,,,,,,,,,,,,,,,,,,,,,,,,,,,,,,,,,,,"MET10101/12/14 18:51:02 METAR KAVX 130251Z 33007KT 10SM CLR 14/01 A3013 RMK AO2 SLP194 T01440011 53013 TSNO","FM-15","7",,,,,,,,,,,,,,,,,,,,,,,,,,,,
"72292023191","2014-01-12T19:51:00","FM-15","7",,,,,,,,,,,,,,,,,,,,,,,,,,,,,,,,,,,,,,"30.14","36","58","0.00",,,,"44","30.11","CLR:00","28.44","10.00","47","020",,"6",,,,,,,,,,,,,,,,,,,,,,,,,,,,,,,,,,,,,"MET09501/12/14 19:51:02 METAR KAVX 130351Z 02005KT 10SM CLR 14/02 A3014 RMK AO2 SLP197 T01440022 TSNO","FM-15","7",,,,,,,,,,,,,,,,,,,,,,,,,,,,
"72292023191","2014-01-12T20:51:00","FM-15","7",,,,,,,,,,,,,,,,,,,,,,,,,,,,,,,,,,,,,,"30.14","36","60","0.00",,,,"41","30.11","CLR:00","28.44","10.00","48","090",,"14",,,,,,,,,,,,,,,,,,,,,,,,,,,,,,,,,,,,,"MET09501/12/14 20:51:02 METAR KAVX 130451Z 09012KT 10SM CLR 16/02 A3014 RMK AO2 SLP198 T01560022 TSNO","FM-15","7",,,,,,,,,,,,,,,,,,,,,,,,,,,,
"72292023191","2014-01-12T21:51:00","FM-15","7",,,,,,,,,,,,,,,,,,,,,,,,,,,,,,,,,,,,,,"30.17","38","59","0.00",,"-0.04","3","46","30.14","CLR:00","28.47","8.00","49","100",,"11",,,,,,,,,,,,,,,,,,,,,,,,,,,,,,,,,,,,,"MET11201/12/14 21:51:02 METAR KAVX 130551Z 10010KT 8SM CLR 15/03 A3017 RMK AO2 SLP206 T01500033 10161 20128 53013 TSNO","FM-15","7",,,,,,,,,,,,,,,,,,,,,,,,,,,,
"72292023191","2014-01-12T22:51:00","FM-15","7",,,,,,,,,,,,,,,,,,,,,,,,,,,,,,,,,,,,,,"30.18","38","59","0.00",,,,"46","30.16","CLR:00","28.48","9.00","49","090",,"14",,,,,,,,,,,,,,,,,,,,,,,,,,,,,,,,,,,,,"MET09401/12/14 22:51:02 METAR KAVX 130651Z 09012KT 9SM CLR 15/03 A3018 RMK AO2 SLP212 T01500033 TSNO","FM-15","7",,,,,,,,,,,,,,,,,,,,,,,,,,,,
"72292023191","2014-01-12T23:51:00","FM-15","7",,,,,,,,,,,,,,,,,,,,,,,,,,,,,,,,,,,,,,"30.18","28","61","0.00",,,,"29","30.15","CLR:00","28.48","10.00","46","100",,"11",,,,,,,,,,,,,,,,,,,,,,,,,,,,,,,,,,,,,"MET10601/12/14 23:51:02 METAR KAVX 130751Z 10010KT 10SM CLR 16/M02 A3018 RMK AO2 SLP209 T01611022 401830117 TSNO","FM-15","7",,,,,,,,,,,,,,,,,,,,,,,,,,,,
"72292023191","2014-01-12T23:59:00","SOD  ","6",,,,,,,,,,,,,,,,"59",,,"28.41",,"10.2","0","3.7","6","65","53","090","24","0.00",,,"090","18",,,,,,,,,,,,,,,,,,,,,,,,,,,,,,,,,,,,,,,,,,,,,,,,,,,,,,,,,"SOD73024 HR PRECIPITATION (IN):0.00  24 HR MAX TEMP (F):65 24 HR MAX TEMP TIME (LST):1346 24 HR MIN TEMP (F):53 24 HR MIN TEMP TIME (LST):0239 AVERAGE STATION PRESSURE:28.410 MINIMUM SEA LEVEL PRESSURE:30.03 TIME OF OCCURRENCE:0538 PEAK WIND SPEED (MPH):24  PEAK WIND DIR (DEG):90  PEAK WIND TIME (LST):2310  FASTEST 2MIN SPEED (MPH):18 FASTEST 2MIN DIR (DEG):90  FASTEST 2MIN TIME (LST):2311 AVERAGE WIND SPEED (MPH):10.2 24 HR AVG TEMP (F):59 HEATING DEGREE DAYS:6   COOLING DEGREE DAYS:0   LATEST DAY MAX TEMP (0700-1900 LST):65  LATEST NIGHT MIN TEMP(1900-0800 LST):53 HOURLY INCREMENTAL PRECIPITATION VALUES (IN):.00 0.00 0.00 0.00 0.00 0.00 0.00 0.00 0.00 0.00 0.00 0.00 0.00 0.00 0.00 0.00 0.00 0.00 0.00 0.00 0.00 0.00 0.00 0.00","SOD  ","6",,,,,,,,,,,,,,,,,,,,,,,,,"0658","1706",,
"72292023191","2014-01-13T00:51:00","FM-15","7",,,,,,,,,,,,,,,,,,,,,,,,,,,,,,,,,,,,,,"30.19","26","61","0.00",,"-0.02","1","26","30.15","CLR:00","28.48","10.00","45","080",,"11",,,,,,,,,,,,,,,,,,,,,,,,,,,,,,,,,,,,,"MET10201/13/14 00:51:02 METAR KAVX 130851Z 08010KT 10SM CLR 16/M03 A3019 RMK AO2 SLP210 T01611033 51007 TSNO","FM-15","7",,,,,,,,,,,,,,,,,,,,,,,,,,,,
"72292023191","2014-01-13T01:51:00","FM-15","7",,,,,,,,,,,,,,,,,,,,,,,,,,,,,,,,,,,,,,"30.22","22","61","0.00",,,,"22","30.17","CLR:00","28.51","10.00","44","080",,"11",,,,,,,,,,,,,,,,,,,,,,,,,,,,,,,,,,,,,"MET09601/13/14 01:51:02 METAR KAVX 130951Z 08010KT 10SM CLR 16/M06 A3022 RMK AO2 SLP218 T01611056 TSNO","FM-15","7",,,,,,,,,,,,,,,,,,,,,,,,,,,,
"72292023191","2014-01-13T02:51:00","FM-15","7",,,,,,,,,,,,,,,,,,,,,,,,,,,,,,,,,,,,,,"30.22","16","61","0.00",,,,"17","30.18","CLR:00","28.51","10.00","43","090",,"13",,,,,,,,,,,,,,,,,,,,,,,,,,,,,,,,,,,,,"MET09601/13/14 02:51:02 METAR KAVX 131051Z 09011KT 10SM CLR 16/M09 A3022 RMK AO2 SLP219 T01611089 TSNO","FM-15","7",,,,,,,,,,,,,,,,,,,,,,,,,,,,
"72292023191","2014-01-13T03:51:00","FM-15","7",,,,,,,,,,,,,,,,,,,,,,,,,,,,,,,,,,,,,,"30.22","15","61","0.00",,"-0.03","1","17","30.18","CLR:00","28.51","10.00","43","080",,"11",,,,,,,,,,,,,,,,,,,,,,,,,,,,,,,,,,,,,"MET11401/13/14 03:51:02 METAR KAVX 131151Z 08010KT 10SM CLR 16/M09 A3022 RMK AO2 SLP220 T01611094 10172 20144 51009 TSNO","FM-15","7",,,,,,,,,,,,,,,,,,,,,,,,,,,,
"72292023191","2014-01-13T04:51:00","FM-15","7",,,,,,,,,,,,,,,,,,,,,,,,,,,,,,,,,,,,,,"30.23","15","61","0.00",,,,"17","30.21","CLR:00","28.52","10.00","43","090",,"13",,,,,,,,,,,,,,,,,,,,,,,,,,,,,,,,,,,,,"MET09601/13/14 04:51:02 METAR KAVX 131251Z 09011KT 10SM CLR 16/M09 A3023 RMK AO2 SLP229 T01611094 TSNO","FM-15","7",,,,,,,,,,,,,,,,,,,,,,,,,,,,
"72292023191","2014-01-13T05:51:00","FM-15","7",,,,,,,,,,,,,,,,,,,,,,,,,,,,,,,,,,,,,,"30.25","14","62","0.00",,,,"15","30.22","CLR:00","28.54","10.00","43","110",,"14",,,,,,,,,,,,,,,,,,,,,,,,,,,,,,,,,,,,,"MET09601/13/14 05:51:02 METAR KAVX 131351Z 11012KT 10SM CLR 17/M10 A3025 RMK AO2 SLP232 T01671100 TSNO","FM-15","7",,,,,,,,,,,,,,,,,,,,,,,,,,,,
"72292023191","2014-01-13T06:51:00","FM-15","7",,,,,,,,,,,,,,,,,,,,,,,,,,,,,,,,,,,,,,"30.27","15","61","0.00",,"-0.05","3","17","30.24","CLR:00","28.56","10.00","43","100",,"11",,,,,,,,,,,,,,,,,,,,,,,,,,,,,,,,,,,,,"MET10201/13/14 06:51:02 METAR KAVX 131451Z 10010KT 10SM CLR 16/M09 A3027 RMK AO2 SLP239 T01611094 53016 TSNO","FM-15","7",,,,,,,,,,,,,,,,,,,,,,,,,,,,
"72292023191","2014-01-13T07:51:00","FM-15","7",,,,,,,,,,,,,,,,,,,,,,,,,,,,,,,,,,,,,,"30.29","15","64","0.00",,,,"15","30.26","CLR:00","28.58","10.00","44","060",,"10",,,,,,,,,,,,,,,,,,,,,,,,,,,,,,,,,,,,,"MET09601/13/14 07:51:02 METAR KAVX 131551Z 06009KT 10SM CLR 18/M09 A3029 RMK AO2 SLP246 T01781094 TSNO","FM-15","7",,,,,,,,,,,,,,,,,,,,,,,,,,,,
"72292023191","2014-01-13T08:51:00","FM-15","7",,,,,,,,,,,,,,,,,,,,,,,,,,,,,,,,,,,,,,"30.32","11","66","0.00",,,,"11","30.28","CLR:00","28.61","10.00","44","070",,"13",,,,,,,,,,,,,,,,,,,,,,,,,,,,,,,,,,,,,"MET09601/13/14 08:51:02 METAR KAVX 131651Z 07011KT 10SM CLR 19/M12 A3032 RMK AO2 SLP255 T01891117 TSNO","FM-15","7",,,,,,,,,,,,,,,,,,,,,,,,,,,,
"72292023191","2014-01-13T09:51:00","FM-15","7",,,,,,,,,,,,,,,,,,,,,,,,,,,,,,,,,,,,,,"30.34","12","66","0.00",,"-0.07","1","12","30.30","CLR:00","28.63","10.00","45","070",,"10",,,,,,,,,,,,,,,,,,,,,,,,,,,,,,,,,,,,,"MET11401/13/14 09:51:02 METAR KAVX 131751Z 07009KT 10SM CLR 19/M11 A3034 RMK AO2 SLP260 T01891111 10189 20150 51023 TSNO","FM-15","7",,,,,,,,,,,,,,,,,,,,,,,,,,,,
"72292023191","2014-01-13T10:51:00","FM-15","7",,,,,,,,,,,,,,,,,,,,,,,,,,,,,,,,,,,,,,"30.33","13","72","0.00",,,,"10","30.28","CLR:00","28.62","10.00","48","100","17","13",,,,,,,,,,,,,,,,,,,,,,,,,,,,,,,,,,,,,"MET09901/13/14 10:51:02 METAR KAVX 131851Z 10011G15KT 10SM CLR 22/M11 A3033 RMK AO2 SLP253 T02221106 TSNO","FM-15","7",,,,,,,,,,,,,,,,,,,,,,,,,,,,
"72292023191","2014-01-13T11:51:00","FM-15","7",,,,,,,,,,,,,,,,,,,,,,,,,,,,,,,,,,,,,,"30.32","9","72","0.00",,,,"8","30.26","CLR:00","28.61","10.00","47","130",,"9",,,,,,,,,,,,,,,,,,,,,,,,,,,,,,,,,,,,,"MET09601/13/14 11:51:02 METAR KAVX 131951Z 13008KT 10SM CLR 22/M13 A3032 RMK AO2 SLP247 T02221128 TSNO","FM-15","7",,,,,,,,,,,,,,,,,,,,,,,,,,,,
"72292023191","2014-01-13T12:51:00","FM-15","7",,,,,,,,,,,,,,,,,,,,,,,,,,,,,,,,,,,,,,"30.30","11","71","0.00",,"+0.04","8","10","30.25","CLR:00","28.59","10.00","47","VRB",,"5",,,,,,,,,,,,,,,,,,,,,,,,,,,,,,,,,,,,,"MET10201/13/14 12:51:02 METAR KAVX 132051Z VRB04KT 10SM CLR 22/M12 A3030 RMK AO2 SLP243 T02171117 58012 TSNO","FM-15","7",,,,,,,,,,,,,,,,,,,,,,,,,,,,
"72292023191","2014-01-13T13:51:00","FM-15","7",,,,,,,,,,,,,,,,,,,,,,,,,,,,,,,,,,,,,,"30.30","6","71","0.00",,,,"8","30.24","CLR:00","28.59","10.00","46","070",,"7",,,,,,,,,,,,,,,,,,,,,,,,,,,,,,,,,,,,,"MET09601/13/14 13:51:02 METAR KAVX 132151Z 07006KT 10SM CLR 22/M14 A3030 RMK AO2 SLP241 T02171144 TSNO","FM-15","7",,,,,,,,,,,,,,,,,,,,,,,,,,,,
"72292023191","2014-01-13T14:51:00","FM-15","7",,,,,,,,,,,,,,,,,,,,,,,,,,,,,,,,,,,,,,"30.30","7","71","0.00",,,,"8","30.24","CLR:00","28.59","10.00","46","010",,"5",,,,,,,,,,,,,,,,,,,,,,,,,,,,,,,,,,,,,"MET09601/13/14 14:51:02 METAR KAVX 132251Z 01004KT 10SM CLR 22/M14 A3030 RMK AO2 SLP242 T02171139 TSNO","FM-15","7",,,,,,,,,,,,,,,,,,,,,,,,,,,,
"72292023191","2014-01-13T15:51:00","FM-15","7",,,,,,,,,,,,,,,,,,,,,,,,,,,,,,,,,,,,,,"30.29","8","71","0.00",,"+0.01","6","8","30.24","CLR:00","28.58","10.00","46","060",,"5",,,,,,,,,,,,,,,,,,,,,,,,,,,,,,,,,,,,,"MET11401/13/14 15:51:02 METAR KAVX 132351Z 06004KT 10SM CLR 22/M13 A3029 RMK AO2 SLP240 T02171133 10228 20189 56003 TSNO","FM-15","7",,,,,,,,,,,,,,,,,,,,,,,,,,,,
"72292023191","2014-01-13T16:51:00","FM-15","7",,,,,,,,,,,,,,,,,,,,,,,,,,,,,,,,,,,,,,"30.29","12","68","0.00",,,,"11","30.24","CLR:00","28.58","10.00","46","030",,"6",,,,,,,,,,,,,,,,,,,,,,,,,,,,,,,,,,,,,"MET09601/13/14 16:51:01 METAR KAVX 140051Z 03005KT 10SM CLR 20/M11 A3029 RMK AO2 SLP241 T02001111 TSNO","FM-15","7",,,,,,,,,,,,,,,,,,,,,,,,,,,,
"72292023191","2014-01-13T17:51:00","FM-15","7",,,,,,,,,,,,,,,,,,,,,,,,,,,,,,,,,,,,,,"30.29","12","67","0.00",,,,"12","30.24","CLR:00","28.58","10.00","45","030",,"6",,,,,,,,,,,,,,,,,,,,,,,,,,,,,,,,,,,,,"MET09601/13/14 17:51:01 METAR KAVX 140151Z 03005KT 10SM CLR 19/M11 A3029 RMK AO2 SLP241 T01941111 TSNO","FM-15","7",,,,,,,,,,,,,,,,,,,,,,,,,,,,
"72292023191","2014-01-13T18:51:00","FM-15","7",,,,,,,,,,,,,,,,,,,,,,,,,,,,,,,,,,,,,,"30.30","12","68","0.00",,"-0.01","3","11","30.25","CLR:00","28.59","10.00","46","010",,"6",,,,,,,,,,,,,,,,,,,,,,,,,,,,,,,,,,,,,"MET10201/13/14 18:51:02 METAR KAVX 140251Z 01005KT 10SM CLR 20/M11 A3030 RMK AO2 SLP244 T02001111 53002 TSNO","FM-15","7",,,,,,,,,,,,,,,,,,,,,,,,,,,,
"72292023191","2014-01-13T19:51:00","FM-15","7",,,,,,,,,,,,,,,,,,,,,,,,,,,,,,,,,,,,,,"30.30","11","69","0.00",,,,"10","30.24","CLR:00","28.59","10.00","46","010",,"3",,,,,,,,,,,,,,,,,,,,,,,,,,,,,,,,,,,,,"MET09601/13/14 19:51:02 METAR KAVX 140351Z 01003KT 10SM CLR 21/M12 A3030 RMK AO2 SLP242 T02061117 TSNO","FM-15","7",,,,,,,,,,,,,,,,,,,,,,,,,,,,
"72292023191","2014-01-13T20:51:00","FM-15","7",,,,,,,,,,,,,,,,,,,,,,,,,,,,,,,,,,,,,,"30.30","13","67","0.00",,,,"12","30.24","CLR:00","28.59","10.00","45","010",,"6",,,,,,,,,,,,,,,,,,,,,,,,,,,,,,,,,,,,,"MET09601/13/14 20:51:02 METAR KAVX 140451Z 01005KT 10SM CLR 19/M11 A3030 RMK AO2 SLP240 T01941106 TSNO","FM-15","7",,,,,,,,,,,,,,,,,,,,,,,,,,,,
"72292023191","2014-01-13T21:51:00","FM-15","7",,,,,,,,,,,,,,,,,,,,,,,,,,,,,,,,,,,,,,"30.30","14","67","0.00",,"+0.00","7","13","30.24","CLR:00","28.59","10.00","45","080",,"9",,,,,,,,,,,,,,,,,,,,,,,,,,,,,,,,,,,,,"MET11401/13/14 21:51:02 METAR KAVX 140551Z 08008KT 10SM CLR 19/M10 A3030 RMK AO2 SLP241 T01941100 10217 20183 57001 TSNO","FM-15","7",,,,,,,,,,,,,,,,,,,,,,,,,,,,
"72292023191","2014-01-13T22:51:00","FM-15","7",,,,,,,,,,,,,,,,,,,,,,,,,,,,,,,,,,,,,,"30.30","15","66","0.00",,,,"14","30.23","CLR:00","28.59","10.00","45","080",,"7",,,,,,,,,,,,,,,,,,,,,,,,,,,,,,,,,,,,,"MET09601/13/14 22:51:02 METAR KAVX 140651Z 08006KT 10SM CLR 19/M09 A3030 RMK AO2 SLP238 T01891094 TSNO","FM-15","7",,,,,,,,,,,,,,,,,,,,,,,,,,,,
"72292023191","2014-01-13T23:51:00","FM-15","7",,,,,,,,,,,,,,,,,,,,,,,,,,,,,,,,,,,,,,"30.30","16","65","0.00",,,,"15","30.23","CLR:00","28.59","10.00","45","070",,"8",,,,,,,,,,,,,,,,,,,,,,,,,,,,,,,,,,,,,"MET10601/13/14 23:51:02 METAR KAVX 140751Z 07007KT 10SM CLR 18/M09 A3030 RMK AO2 SLP238 T01831089 402280150 TSNO","FM-15","7",,,,,,,,,,,,,,,,,,,,,,,,,,,,
"72292023191","2014-01-13T23:59:00","SOD  ","6",,,,,,,,,,,,,,,,"66",,,"28.58",,"8.8","1","10.7","0","73","59","100","20","0.00",,,"090","15",,,,,,,,,,,,,,,,,,,,,,,,,,,,,,,,,,,,,,,,,,,,,,,,,,,,,,,,,"SOD73024 HR PRECIPITATION (IN):0.00  24 HR MAX TEMP (F):73 24 HR MAX TEMP TIME (LST):1346 24 HR MIN TEMP (F):59 24 HR MIN TEMP TIME (LST):0435 AVERAGE STATION PRESSURE:28.575 MINIMUM SEA LEVEL PRESSURE:30.14 TIME OF OCCURRENCE:0040 PEAK WIND SPEED (MPH):20  PEAK WIND DIR (DEG):100 PEAK WIND TIME (LST):1059  FASTEST 2MIN SPEED (MPH):15 FASTEST 2MIN DIR (DEG):90  FASTEST 2MIN TIME (LST):1100 AVERAGE WIND SPEED (MPH):8.8  24 HR AVG TEMP (F):66 HEATING DEGREE DAYS:0   COOLING DEGREE DAYS:1   LATEST DAY MAX TEMP (0700-1900 LST):73  LATEST NIGHT MIN TEMP(1900-0800 LST):57 HOURLY INCREMENTAL PRECIPITATION VALUES (IN):.00 0.00 0.00 0.00 0.00 0.00 0.00 0.00 0.00 0.00 0.00 0.00 0.00 0.00 0.00 0.00 0.00 0.00 0.00 0.00 0.00 0.00 0.00 0.00","SOD  ","6",,,,,,,,,,,,,,,,,,,,,,,,,"0658","1707",,
"72292023191","2014-01-14T00:51:00","FM-15","7",,,,,,,,,,,,,,,,,,,,,,,,,,,,,,,,,,,,,,"30.30","14","65","0.00",,"-0.00","0","14","30.24","CLR:00","28.59","10.00","44","080",,"10",,,,,,,,,,,,,,,,,,,,,,,,,,,,,,,,,,,,,"MET10201/14/14 00:51:02 METAR KAVX 140851Z 08009KT 10SM CLR 18/M10 A3030 RMK AO2 SLP239 T01831100 50000 TSNO","FM-15","7",,,,,,,,,,,,,,,,,,,,,,,,,,,,
"72292023191","2014-01-14T01:51:00","FM-15","7",,,,,,,,,,,,,,,,,,,,,,,,,,,,,,,,,,,,,,"30.31","14","63","0.00",,,,"15","30.25","CLR:00","28.60","10.00","43","090",,"7",,,,,,,,,,,,,,,,,,,,,,,,,,,,,,,,,,,,,"MET09601/14/14 01:51:02 METAR KAVX 140951Z 09006KT 10SM CLR 17/M10 A3031 RMK AO2 SLP244 T01721100 TSNO","FM-15","7",,,,,,,,,,,,,,,,,,,,,,,,,,,,
"72292023191","2014-01-14T02:51:00","FM-15","7",,,,,,,,,,,,,,,,,,,,,,,,,,,,,,,,,,,,,,"30.31","11","66","0.00",,,,"11","30.24","CLR:00","28.60","10.00","44","060","21","15",,,,,,,,,,,,,,,,,,,,,,,,,,,,,,,,,,,,,"MET09901/14/14 02:51:02 METAR KAVX 141051Z 06013G18KT 10SM CLR 19/M12 A3031 RMK AO2 SLP240 T01891117 TSNO","FM-15","7",,,,,,,,,,,,,,,,,,,,,,,,,,,,
"72292023191","2014-01-14T03:51:00","FM-15","7",,,,,,,,,,,,,,,,,,,,,,,,,,,,,,,,,,,,,,"30.30","11","66","0.00",,"-0.01","0","11","30.24","CLR:00","28.59","10.00","44","070","23","14",,,,,,,,,,,,,,,,,,,,,,,,,,,,,,,,,,,,,"MET11701/14/14 03:51:02 METAR KAVX 141151Z 07012G20KT 10SM CLR 19/M12 A3030 RMK AO2 SLP239 T01891117 10194 20172 50002 TSNO","FM-15","7",,,,,,,,,,,,,,,,,,,,,,,,,,,,
"72292023191","2014-01-14T04:51:00","FM-15","7",,,,,,,,,,,,,,,,,,,,,,,,,,,,,,,,,,,,,,"30.30","12","66","0.00",,,,"12","30.25","CLR:00","28.59","10.00","45","070",,"14",,,,,,,,,,,,,,,,,,,,,,,,,,,,,,,,,,,,,"MET09601/14/14 04:51:02 METAR KAVX 141251Z 07012KT 10SM CLR 19/M11 A3030 RMK AO2 SLP243 T01891111 TSNO","FM-15","7",,,,,,,,,,,,,,,,,,,,,,,,,,,,
"72292023191","2014-01-14T05:51:00","FM-15","7",,,,,,,,,,,,,,,,,,,,,,,,,,,,,,,,,,,,,,"30.32","13","64","0.00",,,,"13","30.26","CLR:00","28.61","10.00","44","080",,"13",,,,,,,,,,,,,,,,,,,,,,,,,,,,,,,,,,,,,"MET09601/14/14 05:51:02 METAR KAVX 141351Z 08011KT 10SM CLR 18/M11 A3032 RMK AO2 SLP248 T01781106 TSNO","FM-15","7",,,,,,,,,,,,,,,,,,,,,,,,,,,,
"72292023191","2014-01-14T06:51:00","FM-15","7",,,,,,,,,,,,,,,,,,,,,,,,,,,,,,,,,,,,,,"30.33","11","67","0.00",,"-0.02","3","11","30.27","CLR:00","28.62","10.00","45","070","25","17",,,,,,,,,,,,,,,,,,,,,,,,,,,,,,,,,,,,,"MET10501/14/14 06:51:02 METAR KAVX 141451Z 07015G22KT 10SM CLR 19/M12 A3033 RMK AO2 SLP249 T01941117 53008 TSNO","FM-15","7",,,,,,,,,,,,,,,,,,,,,,,,,,,,
"72292023191","2014-01-14T07:51:00","FM-15","7",,,,,,,,,,,,,,,,,,,,,,,,,,,,,,,,,,,,,,"30.34","12","67","0.00",,,,"12","30.28","CLR:00","28.63","10.00","45","070",,"10",,,,,,,,,,,,,,,,,,,,,,,,,,,,,,,,,,,,,"MET09601/14/14 07:51:02 METAR KAVX 141551Z 07009KT 10SM CLR 19/M11 A3034 RMK AO2 SLP253 T01941111 TSNO","FM-15","7",,,,,,,,,,,,,,,,,,,,,,,,,,,,
"72292023191","2014-01-14T08:51:00","FM-15","6",,,,,,,,,,,,,,,,,,,,,,,,,,,,,,,,,,,,,,"30.35","11","68","0.00",,,,"11","30.29","CLR:00","28.64","10.00","45","060","23","13",,,,,,,,,,,,,,,,,,,,,,,,,,,,,,,,,,,,,"MET09901/14/14 08:51:02 METAR KAVX 141651Z 06011G20KT 10SM CLR 20/M12 A3035 RMK AO2 SLP256 T02001117 TSNO","FM-15","6",,,,,,,,,,,,,,,,,,,,,,,,,,,,
"72292023191","2014-01-14T09:51:00","FM-15","7",,,,,,,,,,,,,,,,,,,,,,,,,,,,,,,,,,,,,,"30.35","12","70","0.00",,"-0.02","1","10","30.29","CLR:00","28.64","10.00","46","060",,"13",,,,,,,,,,,,,,,,,,,,,,,,,,,,,,,,,,,,,"MET11401/14/14 09:51:02 METAR KAVX 141751Z 06011KT 10SM CLR 21/M11 A3035 RMK AO2 SLP256 T02111111 10217 20178 51007 TSNO","FM-15","7",,,,,,,,,,,,,,,,,,,,,,,,,,,,
"72292023191","2014-01-14T10:51:00","FM-15","7",,,,,,,,,,,,,,,,,,,,,,,,,,,,,,,,,,,,,,"30.33","8","74","0.00",,,,"8","30.27","CLR:00","28.62","10.00","48","090","28","20",,,,,,,,,,,,,,,,,,,,,,,,,,,,,,,,,,,,,"MET09901/14/14 10:51:02 METAR KAVX 141851Z 09017G24KT 10SM CLR 23/M13 A3033 RMK AO2 SLP249 T02331133 TSNO","FM-15","7",,,,,,,,,,,,,,,,,,,,,,,,,,,,
"72292023191","2014-01-14T11:51:00","FM-15","7",,,,,,,,,,,,,,,,,,,,,,,,,,,,,,,,,,,,,,"30.31","10","73","0.00",,,,"9","30.24","CLR:00","28.60","10.00","48","080",,"17",,,,,,,,,,,,,,,,,,,,,,,,,,,,,,,,,,,,,"MET09601/14/14 11:51:02 METAR KAVX 141951Z 08015KT 10SM CLR 23/M12 A3031 RMK AO2 SLP241 T02281122 TSNO","FM-15","7",,,,,,,,,,,,,,,,,,,,,,,,,,,,
"72292023191","2014-01-14T12:51:00","FM-15","7",,,,,,,,,,,,,,,,,,,,,,,,,,,,,,,,,,,,,,"30.28","9","75","0.00",,"+0.06","8","8","30.22","CLR:00","28.57","10.00","48","070",,"9",,,,,,,,,,,,,,,,,,,,,,,,,,,,,,,,,,,,,"MET10201/14/14 12:51:02 METAR KAVX 142051Z 07008KT 10SM CLR 24/M13 A3028 RMK AO2 SLP232 T02391128 58021 TSNO","FM-15","7",,,,,,,,,,,,,,,,,,,,,,,,,,,,
"72292023191","2014-01-14T13:51:00","FM-15","7",,,,,,,,,,,,,,,,,,,,,,,,,,,,,,,,,,,,,,"30.27","5","77","0.00",,,,"6","30.20","CLR:00","28.56","10.00","49","040",,"7",,,,,,,,,,,,,,,,,,,,,,,,,,,,,,,,,,,,,"MET09601/14/14 13:51:02 METAR KAVX 142151Z 04006KT 10SM CLR 25/M15 A3027 RMK AO2 SLP228 T02501150 TSNO","FM-15","7",,,,,,,,,,,,,,,,,,,,,,,,,,,,
"72292023191","2014-01-14T14:51:00","FM-15","7",,,,,,,,,,,,,,,,,,,,,,,,,,,,,,,,,,,,,,"30.27","3","76","0.00",,,,"6","30.20","CLR:00","28.56","10.00","48","360",,"5",,,,,,,,,,,,,,,,,,,,,,,,,,,,,,,,,,,,,"MET09601/14/14 14:51:02 METAR KAVX 142251Z 36004KT 10SM CLR 24/M16 A3027 RMK AO2 SLP226 T02441161 TSNO","FM-15","7",,,,,,,,,,,,,,,,,,,,,,,,,,,,
"72292023191","2014-01-14T15:51:00","FM-15","7",,,,,,,,,,,,,,,,,,,,,,,,,,,,,,,,,,,,,,"30.26","4","74","0.00",,"+0.02","6","6","30.19","CLR:00","28.55","10.00","47","330",,"3",,,,,,,,,,,,,,,,,,,,,,,,,,,,,,,,,,,,,"MET11401/14/14 15:51:02 METAR KAVX 142351Z 33003KT 10SM CLR 23/M16 A3026 RMK AO2 SLP225 T02331156 10250 20211 56007 TSNO","FM-15","7",,,,,,,,,,,,,,,,,,,,,,,,,,,,
"72292023191","2014-01-14T16:51:00","FM-15","7",,,,,,,,,,,,,,,,,,,,,,,,,,,,,,,,,,,,,,"30.26","3","73","0.00",,,,"6","30.19","CLR:00","28.55","10.00","47","030",,"5",,,,,,,,,,,,,,,,,,,,,,,,,,,,,,,,,,,,,"MET09601/14/14 16:51:01 METAR KAVX 150051Z 03004KT 10SM CLR 23/M16 A3026 RMK AO2 SLP224 T02281161 TSNO","FM-15","7",,,,,,,,,,,,,,,,,,,,,,,,,,,,
"72292023191","2014-01-14T17:51:00","FM-15","7",,,,,,,,,,,,,,,,,,,,,,,,,,,,,,,,,,,,,,"30.26","6","72","0.00",,,,"7","30.20","CLR:00","28.55","10.00","47","050",,"8",,,,,,,,,,,,,,,,,,,,,,,,,,,,,,,,,,,,,"MET09601/14/14 17:51:01 METAR KAVX 150151Z 05007KT 10SM CLR 22/M14 A3026 RMK AO2 SLP227 T02221144 TSNO","FM-15","7",,,,,,,,,,,,,,,,,,,,,,,,,,,,
"72292023191","2014-01-14T18:51:00","FM-15","7",,,,,,,,,,,,,,,,,,,,,,,,,,,,,,,,,,,,,,"30.27","5","71","0.00",,"-0.00","3","7","30.20","CLR:00","28.56","10.00","46","080",,"13",,,,,,,,,,,,,,,,,,,,,,,,,,,,,,,,,,,,,"MET10201/14/14 18:51:01 METAR KAVX 150251Z 08011KT 10SM CLR 22/M15 A3027 RMK AO2 SLP227 T02171150 53000 TSNO","FM-15","7",,,,,,,,,,,,,,,,,,,,,,,,,,,,
"72292023191","2014-01-14T19:51:00","FM-15","7",,,,,,,,,,,,,,,,,,,,,,,,,,,,,,,,,,,,,,"30.27","7","71","0.00",,,,"8","30.20","CLR:00","28.56","10.00","46","080","22","16",,,,,,,,,,,,,,,,,,,,,,,,,,,,,,,,,,,,,"MET09901/14/14 19:51:02 METAR KAVX 150351Z 08014G19KT 10SM CLR 22/M14 A3027 RMK AO2 SLP228 T02171139 TSNO","FM-15","7",,,,,,,,,,,,,,,,,,,,,,,,,,,,
"72292023191","2014-01-14T20:51:00","FM-15","7",,,,,,,,,,,,,,,,,,,,,,,,,,,,,,,,,,,,,,"30.27","6","70","0.00",,,,"8","30.21","CLR:00","28.56","10.00","46","090",,"18",,,,,,,,,,,,,,,,,,,,,,,,,,,,,,,,,,,,,"MET09601/14/14 20:51:02 METAR KAVX 150451Z 09016KT 10SM CLR 21/M14 A3027 RMK AO2 SLP230 T02111144 TSNO","FM-15","7",,,,,,,,,,,,,,,,,,,,,,,,,,,,
"72292023191","2014-01-14T21:51:00","FM-15","7",,,,,,,,,,,,,,,,,,,,,,,,,,,,,,,,,,,,,,"30.27","9","69","0.00",,"-0.01","0","9","30.20","CLR:00","28.56","10.00","45","090","28","20",,,,,,,,,,,,,,,,,,,,,,,,,,,,,,,,,,,,,"MET13501/14/14 21:51:02 METAR KAVX 150551Z 09017G24KT 10SM CLR 21/M13 A3027 RMK AO2 PK WND 09029/0526 SLP228 T02061128 10233 20206 50002 TSNO","FM-15","7",,,,,,,,,,,,,,,,,,,,,,,,,,,,
"72292023191","2014-01-14T22:51:00","FM-15","7",,,,,,,,,,,,,,,,,,,,,,,,,,,,,,,,,,,,,,"30.27","10","70","0.00",,,,"10","30.20","CLR:00","28.56","10.00","46","090","30","20",,,,,,,,,,,,,,,,,,,,,,,,,,,,,,,,,,,,,"MET11701/14/14 22:51:02 METAR KAVX 150651Z 09017G26KT 10SM CLR 21/M12 A3027 RMK AO2 PK WND 09028/0620 SLP226 T02111122 TSNO","FM-15","7",,,,,,,,,,,,,,,,,,,,,,,,,,,,
"72292023191","2014-01-14T23:51:00","FM-15","7",,,,,,,,,,,,,,,,,,,,,,,,,,,,,,,,,,,,,,"30.26","9","71","0.00",,,,"9","30.19","CLR:00","28.55","10.00","46","080","30","23",,,,,,,,,,,,,,,,,,,,,,,,,,,,,,,,,,,,,"MET12701/14/14 23:51:02 METAR KAVX 150751Z 08020G26KT 10SM CLR 22/M13 A3026 RMK AO2 PK WND 07026/0747 SLP222 T02171128 402500172 TSNO","FM-15","7",,,,,,,,,,,,,,,,,,,,,,,,,,,,
"72292023191","2014-01-14T23:59:00","SOD  ","6",,,,,,,,,,,,,,,,"70",,,"28.59",,"12.8","5","14.8","0","77","63","090","33","0.00",,,"090","25",,,,,,,,,,,,,,,,,,,,,,,,,,,,,,,,,,,,,,,,,,,,,,,,,,,,,,,,,"SOD73024 HR PRECIPITATION (IN):0.00  24 HR MAX TEMP (F):77 24 HR MAX TEMP TIME (LST):1458 24 HR MIN TEMP (F):63 24 HR MIN TEMP TIME (LST):0158 AVERAGE STATION PRESSURE:28.585 MINIMUM SEA LEVEL PRESSURE:30.18 TIME OF OCCURRENCE:2359 PEAK WIND SPEED (MPH):33  PEAK WIND DIR (DEG):90  PEAK WIND TIME (LST):2126  FASTEST 2MIN SPEED (MPH):25 FASTEST 2MIN DIR (DEG):90  FASTEST 2MIN TIME (LST):2132 AVERAGE WIND SPEED (MPH):12.8 24 HR AVG TEMP (F):70 HEATING DEGREE DAYS:0   COOLING DEGREE DAYS:5   LATEST DAY MAX TEMP (0700-1900 LST):77  LATEST NIGHT MIN TEMP(1900-0800 LST):63 HOURLY INCREMENTAL PRECIPITATION VALUES (IN):.00 0.00 0.00 0.00 0.00 0.00 0.00 0.00 0.00 0.00 0.00 0.00 0.00 0.00 0.00 0.00 0.00 0.00 0.00 0.00 0.00 0.00 0.00 0.00","SOD  ","6",,,,,,,,,,,,,,,,,,,,,,,,,"0658","1708",,
"72292023191","2014-01-15T00:51:00","FM-15","7",,,,,,,,,,,,,,,,,,,,,,,,,,,,,,,,,,,,,,"30.26","10","71","0.00",,"+0.02","8","9","30.18","CLR:00","28.55","10.00","47","090","34","24",,,,,,,,,,,,,,,,,,,,,,,,,,,,,,,,,,,,,"MET12301/15/14 00:51:02 METAR KAVX 150851Z 09021G30KT 10SM CLR 22/M12 A3026 RMK AO2 PK WND 09030/0850 SLP219 T02171122 58006 TSNO","FM-15","7",,,,,,,,,,,,,,,,,,,,,,,,,,,,
"72292023191","2014-01-15T01:51:00","FM-15","7",,,,,,,,,,,,,,,,,,,,,,,,,,,,,,,,,,,,,,"30.26","9","71","0.00",,,,"9","30.18","CLR:00","28.55","10.00","46","090","30","18",,,,,,,,,,,,,,,,,,,,,,,,,,,,,,,,,,,,,"MET11701/15/14 01:51:02 METAR KAVX 150951Z 09016G26KT 10SM CLR 22/M13 A3026 RMK AO2 PK WND 09028/0911 SLP220 T02171128 TSNO","FM-15","7",,,,,,,,,,,,,,,,,,,,,,,,,,,,
"72292023191","2014-01-15T02:51:00","FM-15","7",,,,,,,,,,,,,,,,,,,,,,,,,,,,,,,,,,,,,,"30.26","10","70","0.00",,,,"10","30.18","CLR:00","28.55","10.00","46","070","23","15",,,,,,,,,,,,,,,,,,,,,,,,,,,,,,,,,,,,,"MET11701/15/14 02:51:02 METAR KAVX 151051Z 07013G20KT 10SM CLR 21/M12 A3026 RMK AO2 PK WND 09027/0953 SLP221 T02111122 TSNO","FM-15","7",,,,,,,,,,,,,,,,,,,,,,,,,,,,
"72292023191","2014-01-15T03:51:00","FM-15","7",,,,,,,,,,,,,,,,,,,,,,,,,,,,,,,,,,,,,,"30.26","12","66","0.00",,"-0.00","1","12","30.19","CLR:00","28.55","10.00","45","090",,"10",,,,,,,,,,,,,,,,,,,,,,,,,,,,,,,,,,,,,"MET11401/15/14 03:51:02 METAR KAVX 151151Z 09009KT 10SM CLR 19/M11 A3026 RMK AO2 SLP223 T01891111 10217 20183 51001 TSNO","FM-15","7",,,,,,,,,,,,,,,,,,,,,,,,,,,,
"72292023191","2014-01-15T04:51:00","FM-15","7",,,,,,,,,,,,,,,,,,,,,,,,,,,,,,,,,,,,,,"30.25","12","67","0.00",,,,"12","30.18","CLR:00","28.54","10.00","45","090",,"14",,,,,,,,,,,,,,,,,,,,,,,,,,,,,,,,,,,,,"MET09601/15/14 04:51:02 METAR KAVX 151251Z 09012KT 10SM CLR 19/M11 A3025 RMK AO2 SLP221 T01941111 TSNO","FM-15","7",,,,,,,,,,,,,,,,,,,,,,,,,,,,
"72292023191","2014-01-15T05:51:00","FM-15","7",,,,,,,,,,,,,,,,,,,,,,,,,,,,,,,,,,,,,,"30.26","13","66","0.00",,,,"13","30.19","CLR:00","28.55","10.00","45","090",,"9",,,,,,,,,,,,,,,,,,,,,,,,,,,,,,,,,,,,,"MET09601/15/14 05:51:02 METAR KAVX 151351Z 09008KT 10SM CLR 19/M11 A3026 RMK AO2 SLP224 T01891106 TSNO","FM-15","7",,,,,,,,,,,,,,,,,,,,,,,,,,,,
"72292023191","2014-01-15T06:51:00","FM-15","7",,,,,,,,,,,,,,,,,,,,,,,,,,,,,,,,,,,,,,"30.26","14","67","0.00",,"+0.00","6","13","30.19","CLR:00","28.55","10.00","45","090",,"10",,,,,,,,,,,,,,,,,,,,,,,,,,,,,,,,,,,,,"MET10201/15/14 06:51:02 METAR KAVX 151451Z 09009KT 10SM CLR 19/M10 A3026 RMK AO2 SLP223 T01941100 56001 TSNO","FM-15","7",,,,,,,,,,,,,,,,,,,,,,,,,,,,
"72292023191","2014-01-15T07:51:00","FM-15","7",,,,,,,,,,,,,,,,,,,,,,,,,,,,,,,,,,,,,,"30.27","13","69","0.00",,,,"11","30.20","CLR:00","28.56","10.00","46","070",,"8",,,,,,,,,,,,,,,,,,,,,,,,,,,,,,,,,,,,,"MET09601/15/14 07:51:02 METAR KAVX 151551Z 07007KT 10SM CLR 21/M11 A3027 RMK AO2 SLP226 T02061106 TSNO","FM-15","7",,,,,,,,,,,,,,,,,,,,,,,,,,,,
"72292023191","2014-01-15T08:51:00","FM-15","7",,,,,,,,,,,,,,,,,,,,,,,,,,,,,,,,,,,,,,"30.27","11","72","0.00",,,,"9","30.20","CLR:00","28.56","10.00","47","080",,"11",,,,,,,,,,,,,,,,,,,,,,,,,,,,,,,,,,,,,"MET09601/15/14 08:51:02 METAR KAVX 151651Z 08010KT 10SM CLR 22/M12 A3027 RMK AO2 SLP226 T02221117 TSNO","FM-15","7",,,,,,,,,,,,,,,,,,,,,,,,,,,,
"72292023191","2014-01-15T09:51:00","FM-15","7",,,,,,,,,,,,,,,,,,,,,,,,,,,,,,,,,,,,,,"30.27","12","72","0.00",,"-0.02","1","10","30.20","CLR:00","28.56","10.00","47","070",,"9",,,,,,,,,,,,,,,,,,,,,,,,,,,,,,,,,,,,,"MET11401/15/14 09:51:02 METAR KAVX 151751Z 07008KT 10SM CLR 22/M11 A3027 RMK AO2 SLP228 T02221111 10228 20183 51006 TSNO","FM-15","7",,,,,,,,,,,,,,,,,,,,,,,,,,,,
"72292023191","2014-01-15T10:51:00","FM-15","7",,,,,,,,,,,,,,,,,,,,,,,,,,,,,,,,,,,,,,"30.27","12","76","0.00",,,,"9","30.19","CLR:00","28.56","10.00","49","080",,"9",,,,,,,,,,,,,,,,,,,,,,,,,,,,,,,,,,,,,"MET09601/15/14 10:51:02 METAR KAVX 151851Z 08008KT 10SM CLR 24/M11 A3027 RMK AO2 SLP223 T02441111 TSNO","FM-15","7",,,,,,,,,,,,,,,,,,,,,,,,,,,,
"72292023191","2014-01-15T11:51:00","FM-15","7",,,,,,,,,,,,,,,,,,,,,,,,,,,,,,,,,,,,,,"30.24","11","78","0.00",,,,"8","30.15","CLR:00","28.53","10.00","50","060",,"7",,,,,,,,,,,,,,,,,,,,,,,,,,,,,,,,,,,,,"MET09601/15/14 11:51:02 METAR KAVX 151951Z 06006KT 10SM CLR 26/M12 A3024 RMK AO2 SLP210 T02561117 TSNO","FM-15","7",,,,,,,,,,,,,,,,,,,,,,,,,,,,
"72292023191","2014-01-15T12:51:00","FM-15","7",,,,,,,,,,,,,,,,,,,,,,,,,,,,,,,,,,,,,,"30.21","12","78","0.00",,"+0.06","8","8","30.12","CLR:00","28.51","10.00","50","060",,"8",,,,,,,,,,,,,,,,,,,,,,,,,,,,,,,,,,,,,"MET10201/15/14 12:51:02 METAR KAVX 152051Z 06007KT 10SM CLR 26/M11 A3021 RMK AO2 SLP200 T02561111 58021 TSNO","FM-15","7",,,,,,,,,,,,,,,,,,,,,,,,,,,,
"72292023191","2014-01-15T13:51:00","FM-15","7",,,,,,,,,,,,,,,,,,,,,,,,,,,,,,,,,,,,,,"30.20","13","78","0.00",,,,"8","30.11","CLR:00","28.50","10.00","50","040",,"6",,,,,,,,,,,,,,,,,,,,,,,,,,,,,,,,,,,,,"MET09601/15/14 13:51:02 METAR KAVX 152151Z 04005KT 10SM CLR 26/M11 A3020 RMK AO2 SLP198 T02561106 TSNO","FM-15","7",,,,,,,,,,,,,,,,,,,,,,,,,,,,
"72292023191","2014-01-15T14:51:00","FM-15","7",,,,,,,,,,,,,,,,,,,,,,,,,,,,,,,,,,,,,,"30.19","9","77","0.00",,,,"7","30.11","CLR:00","28.48","10.00","49","330",,"6",,,,,,,,,,,,,,,,,,,,,,,,,,,,,,,,,,,,,"MET09601/15/14 14:51:02 METAR KAVX 152251Z 33005KT 10SM CLR 25/M13 A3019 RMK AO2 SLP196 T02501128 TSNO","FM-15","7",,,,,,,,,,,,,,,,,,,,,,,,,,,,
"72292023191","2014-01-15T15:51:00","FM-15","7",,,,,,,,,,,,,,,,,,,,,,,,,,,,,,,,,,,,,,"30.19","9","76","0.00",,"+0.02","6","7","30.11","CLR:00","28.48","10.00","49","330",,"5",,,,,,,,,,,,,,,,,,,,,,,,,,,,,,,,,,,,,"MET11401/15/14 15:51:02 METAR KAVX 152351Z 33004KT 10SM CLR 24/M13 A3019 RMK AO2 SLP198 T02441128 10267 20222 56006 TSNO","FM-15","7",,,,,,,,,,,,,,,,,,,,,,,,,,,,
"72292023191","2014-01-15T16:51:00","FM-15","7",,,,,,,,,,,,,,,,,,,,,,,,,,,,,,,,,,,,,,"30.18","11","74","0.00",,,,"9","30.11","CLR:00","28.48","10.00","48","300",,"5",,,,,,,,,,,,,,,,,,,,,,,,,,,,,,,,,,,,,"MET09601/15/14 16:51:01 METAR KAVX 160051Z 30004KT 10SM CLR 23/M12 A3018 RMK AO2 SLP195 T02331117 TSNO","FM-15","7",,,,,,,,,,,,,,,,,,,,,,,,,,,,
"72292023191","2014-01-15T17:51:00","FM-15","7",,,,,,,,,,,,,,,,,,,,,,,,,,,,,,,,,,,,,,"30.18","12","73","0.00",,,,"9","30.11","CLR:00","28.48","10.00","48","310",,"6",,,,,,,,,,,,,,,,,,,,,,,,,,,,,,,,,,,,,"MET09601/15/14 17:51:01 METAR KAVX 160151Z 31005KT 10SM CLR 23/M11 A3018 RMK AO2 SLP196 T02281111 TSNO","FM-15","7",,,,,,,,,,,,,,,,,,,,,,,,,,,,
"72292023191","2014-01-15T18:51:00","FM-15","7",,,,,,,,,,,,,,,,,,,,,,,,,,,,,,,,,,,,,,"30.18","12","72","0.00",,"+0.01","5","10","30.11","CLR:00","28.48","10.00","47","310",,"5",,,,,,,,,,,,,,,,,,,,,,,,,,,,,,,,,,,,,"MET10201/15/14 18:51:01 METAR KAVX 160251Z 31004KT 10SM CLR 22/M11 A3018 RMK AO2 SLP197 T02221111 55002 TSNO","FM-15","7",,,,,,,,,,,,,,,,,,,,,,,,,,,,
"72292023191","2014-01-15T19:51:00","FM-15","7",,,,,,,,,,,,,,,,,,,,,,,,,,,,,,,,,,,,,,"30.18","13","72","0.00",,,,"10","30.11","CLR:00","28.48","10.00","48","050",,"7",,,,,,,,,,,,,,,,,,,,,,,,,,,,,,,,,,,,,"MET09601/15/14 19:51:02 METAR KAVX 160351Z 05006KT 10SM CLR 22/M11 A3018 RMK AO2 SLP196 T02221106 TSNO","FM-15","7",,,,,,,,,,,,,,,,,,,,,,,,,,,,
"72292023191","2014-01-15T20:51:00","FM-15","7",,,,,,,,,,,,,,,,,,,,,,,,,,,,,,,,,,,,,,"30.18","14","71","0.00",,,,"11","30.10","CLR:00","28.48","10.00","47","080",,"10",,,,,,,,,,,,,,,,,,,,,,,,,,,,,,,,,,,,,"MET09601/15/14 20:51:02 METAR KAVX 160451Z 08009KT 10SM CLR 22/M10 A3018 RMK AO2 SLP194 T02171100 TSNO","FM-15","7",,,,,,,,,,,,,,,,,,,,,,,,,,,,
"72292023191","2014-01-15T21:51:00","FM-15","7",,,,,,,,,,,,,,,,,,,,,,,,,,,,,,,,,,,,,,"30.18","10","70","0.00",,"+0.00","5","10","30.11","CLR:00","28.48","10.00","46","090","20","13",,,,,,,,,,,,,,,,,,,,,,,,,,,,,,,,,,,,,"MET11701/15/14 21:51:01 METAR KAVX 160551Z 09011G17KT 10SM CLR 21/M12 A3018 RMK AO2 SLP196 T02111122 10244 20206 55000 TSNO","FM-15","7",,,,,,,,,,,,,,,,,,,,,,,,,,,,
"72292023191","2014-01-15T22:51:00","FM-15","7",,,,,,,,,,,,,,,,,,,,,,,,,,,,,,,,,,,,,,"30.18","5","72","0.00",,,,"7","30.09","CLR:00","28.48","10.00","46","060",,"9",,,,,,,,,,,,,,,,,,,,,,,,,,,,,,,,,,,,,"MET09601/15/14 22:51:01 METAR KAVX 160651Z 06008KT 10SM CLR 22/M15 A3018 RMK AO2 SLP190 T02221150 TSNO","FM-15","7",,,,,,,,,,,,,,,,,,,,,,,,,,,,
"72292023191","2014-01-15T23:51:00","FM-15","7",,,,,,,,,,,,,,,,,,,,,,,,,,,,,,,,,,,,,,"30.17","4","70","0.00",,,,"7","30.09","CLR:00","28.47","10.00","45","080",,"14",,,,,,,,,,,,,,,,,,,,,,,,,,,,,,,,,,,,,"MET10601/15/14 23:51:01 METAR KAVX 160751Z 08012KT 10SM CLR 21/M16 A3017 RMK AO2 SLP188 T02111156 402670183 TSNO","FM-15","7",,,,,,,,,,,,,,,,,,,,,,,,,,,,
"72292023191","2014-01-15T23:59:00","SOD  ","6",,,,,,,,,,,,,,,,"73",,,"28.51",,"9.9","8","17.8","0","80","65","090","35","0.00",,,"080","28",,,,,,,,,,,,,,,,,,,,,,,,,,,,,,,,,,,,,,,,,,,,,,,,,,,,,,,,,"SOD73024 HR PRECIPITATION (IN):0.00  24 HR MAX TEMP (F):80 24 HR MAX TEMP TIME (LST):1202 24 HR MIN TEMP (F):65 24 HR MIN TEMP TIME (LST):0605 AVERAGE STATION PRESSURE:28.515 MINIMUM SEA LEVEL PRESSURE:30.08 TIME OF OCCURRENCE:2359 PEAK WIND SPEED (MPH):35  PEAK WIND DIR (DEG):90  PEAK WIND TIME (LST):0050  FASTEST 2MIN SPEED (MPH):28 FASTEST 2MIN DIR (DEG):80  FASTEST 2MIN TIME (LST):0016 AVERAGE WIND SPEED (MPH):9.9  24 HR AVG TEMP (F):73 HEATING DEGREE DAYS:0   COOLING DEGREE DAYS:8   LATEST DAY MAX TEMP (0700-1900 LST):80  LATEST NIGHT MIN TEMP(1900-0800 LST):65 HOURLY INCREMENTAL PRECIPITATION VALUES (IN):.00 0.00 0.00 0.00 0.00 0.00 0.00 0.00 0.00 0.00 0.00 0.00 0.00 0.00 0.00 0.00 0.00 0.00 0.00 0.00 0.00 0.00 0.00 0.00","SOD  ","6",,,,,,,,,,,,,,,,,,,,,,,,,"0658","1709",,
"72292023191","2014-01-16T00:51:00","FM-15","7",,,,,,,,,,,,,,,,,,,,,,,,,,,,,,,,,,,,,,"30.16","2","71","0.00",,"+0.02","8","6","30.07","CLR:00","28.46","10.00","46","080",,"11",,,,,,,,,,,,,,,,,,,,,,,,,,,,,,,,,,,,,"MET10201/16/14 00:51:02 METAR KAVX 160851Z 08010KT 10SM CLR 22/M17 A3016 RMK AO2 SLP184 T02171167 58006 TSNO","FM-15","7",,,,,,,,,,,,,,,,,,,,,,,,,,,,
"72292023191","2014-01-16T01:51:00","FM-15","7",,,,,,,,,,,,,,,,,,,,,,,,,,,,,,,,,,,,,,"30.16","3","70","0.00",,,,"7","30.08","CLR:00","28.46","10.00","45","060",,"9",,,,,,,,,,,,,,,,,,,,,,,,,,,,,,,,,,,,,"MET09601/16/14 01:51:02 METAR KAVX 160951Z 06008KT 10SM CLR 21/M16 A3016 RMK AO2 SLP185 T02111161 TSNO","FM-15","7",,,,,,,,,,,,,,,,,,,,,,,,,,,,
"72292023191","2014-01-16T02:51:00","FM-15","7",,,,,,,,,,,,,,,,,,,,,,,,,,,,,,,,,,,,,,"30.15","5","68","0.00",,,,"8","30.07","CLR:00","28.45","10.00","44","060",,"6",,,,,,,,,,,,,,,,,,,,,,,,,,,,,,,,,,,,,"MET09601/16/14 02:51:02 METAR KAVX 161051Z 06005KT 10SM CLR 20/M15 A3015 RMK AO2 SLP184 T02001150 TSNO","FM-15","7",,,,,,,,,,,,,,,,,,,,,,,,,,,,
"72292023191","2014-01-16T03:51:00","FM-15","7",,,,,,,,,,,,,,,,,,,,,,,,,,,,,,,,,,,,,,"30.15","6","69","0.00",,"+0.01","8","8","30.07","CLR:00","28.45","10.00","45","050",,"9",,,,,,,,,,,,,,,,,,,,,,,,,,,,,,,,,,,,,"MET11401/16/14 03:51:02 METAR KAVX 161151Z 05008KT 10SM CLR 21/M14 A3015 RMK AO2 SLP182 T02061144 10222 20189 58005 TSNO","FM-15","7",,,,,,,,,,,,,,,,,,,,,,,,,,,,
"72292023191","2014-01-16T04:51:00","FM-15","7",,,,,,,,,,,,,,,,,,,,,,,,,,,,,,,,,,,,,,"30.14","5","70","0.00",,,,"8","30.06","CLR:00","28.44","10.00","45","080",,"13",,,,,,,,,,,,,,,,,,,,,,,,,,,,,,,,,,,,,"MET09601/16/14 04:51:02 METAR KAVX 161251Z 08011KT 10SM CLR 21/M15 A3014 RMK AO2 SLP181 T02111150 TSNO","FM-15","7",,,,,,,,,,,,,,,,,,,,,,,,,,,,
"72292023191","2014-01-16T05:51:00","FM-15","7",,,,,,,,,,,,,,,,,,,,,,,,,,,,,,,,,,,,,,"30.15","5","71","0.00",,,,"7","30.08","CLR:00","28.45","10.00","46","080","25","18",,,,,,,,,,,,,,,,,,,,,,,,,,,,,,,,,,,,,"MET09901/16/14 05:51:02 METAR KAVX 161351Z 08016G22KT 10SM CLR 22/M15 A3015 RMK AO2 SLP185 T02171150 TSNO","FM-15","7",,,,,,,,,,,,,,,,,,,,,,,,,,,,
"72292023191","2014-01-16T06:51:00","FM-15","7",,,,,,,,,,,,,,,,,,,,,,,,,,,,,,,,,,,,,,"30.16","6","69","0.00",,"-0.01","3","8","30.09","CLR:00","28.46","10.00","45","090",,"13",,,,,,,,,,,,,,,,,,,,,,,,,,,,,,,,,,,,,"MET10201/16/14 06:51:02 METAR KAVX 161451Z 09011KT 10SM CLR 21/M14 A3016 RMK AO2 SLP189 T02061144 53005 TSNO","FM-15","7",,,,,,,,,,,,,,,,,,,,,,,,,,,,
"72292023191","2014-01-16T07:51:00","FM-15","7",,,,,,,,,,,,,,,,,,,,,,,,,,,,,,,,,,,,,,"30.16","6","72","0.00",,,,"7","30.09","CLR:00","28.46","10.00","46","070","25","17",,,,,,,,,,,,,,,,,,,,,,,,,,,,,,,,,,,,,"MET11701/16/14 07:51:02 METAR KAVX 161551Z 07015G22KT 10SM CLR 22/M14 A3016 RMK AO2 PK WND 07026/1536 SLP189 T02221144 TSNO","FM-15","7",,,,,,,,,,,,,,,,,,,,,,,,,,,,
"72292023191","2014-01-16T08:51:00","FM-15","7",,,,,,,,,,,,,,,,,,,,,,,,,,,,,,,,,,,,,,"30.19","8","72","0.00",,,,"8","30.11","CLR:00","28.48","10.00","47","080","26","16",,,,,,,,,,,,,,,,,,,,,,,,,,,,,,,,,,,,,"MET11701/16/14 08:51:02 METAR KAVX 161651Z 08014G23KT 10SM CLR 22/M13 A3019 RMK AO2 PK WND 07028/1553 SLP196 T02221133 TSNO","FM-15","7",,,,,,,,,,,,,,,,,,,,,,,,,,,,
"72292023191","2014-01-16T09:51:00","FM-15","7",,,,,,,,,,,,,,,,,,,,,,,,,,,,,,,,,,,,,,"30.19","7","75","0.00",,"-0.03","3","7","30.11","CLR:00","28.48","10.00","48","090","21","15",,,,,,,,,,,,,,,,,,,,,,,,,,,,,,,,,,,,,"MET11701/16/14 09:51:02 METAR KAVX 161751Z 09013G18KT 10SM CLR 24/M14 A3019 RMK AO2 SLP198 T02391139 10239 20200 53010 TSNO","FM-15","7",,,,,,,,,,,,,,,,,,,,,,,,,,,,
"72292023191","2014-01-16T10:51:00","FM-15","7",,,,,,,,,,,,,,,,,,,,,,,,,,,,,,,,,,,,,,"30.18","5","75","0.00",,,,"6","30.09","CLR:00","28.48","10.00","48","080",,"14",,,,,,,,,,,,,,,,,,,,,,,,,,,,,,,,,,,,,"MET09601/16/14 10:51:02 METAR KAVX 161851Z 08012KT 10SM CLR 24/M15 A3018 RMK AO2 SLP190 T02391150 TSNO","FM-15","7",,,,,,,,,,,,,,,,,,,,,,,,,,,,
"72292023191","2014-01-16T11:51:00","FM-15","7",,,,,,,,,,,,,,,,,,,,,,,,,,,,,,,,,,,,,,"30.15","7","77","0.00",,,,"7","30.06","CLR:00","28.45","10.00","49","080",,"9",,,,,,,,,,,,,,,,,,,,,,,,,,,,,,,,,,,,,"MET09601/16/14 11:51:02 METAR KAVX 161951Z 08008KT 10SM CLR 25/M14 A3015 RMK AO2 SLP181 T02501139 TSNO","FM-15","7",,,,,,,,,,,,,,,,,,,,,,,,,,,,
"72292023191","2014-01-16T12:51:00","FM-15","7",,,,,,,,,,,,,,,,,,,,,,,,,,,,,,,,,,,,,,"30.12","8","78","0.00",,"+0.06","8","7","30.04","CLR:00","28.42","10.00","50","110",,"7",,,,,,,,,,,,,,,,,,,,,,,,,,,,,,,,,,,,,"MET10201/16/14 12:51:02 METAR KAVX 162051Z 11006KT 10SM CLR 26/M13 A3012 RMK AO2 SLP172 T02561133 58022 TSNO","FM-15","7",,,,,,,,,,,,,,,,,,,,,,,,,,,,
"72292023191","2014-01-16T13:51:00","FM-15","7",,,,,,,,,,,,,,,,,,,,,,,,,,,,,,,,,,,,,,"30.11","4","79","0.00",,,,"5","30.02","CLR:00","28.41","10.00","49","080",,"6",,,,,,,,,,,,,,,,,,,,,,,,,,,,,,,,,,,,,"MET09601/16/14 13:51:02 METAR KAVX 162151Z 08005KT 10SM CLR 26/M16 A3011 RMK AO2 SLP167 T02611156 TSNO","FM-15","7",,,,,,,,,,,,,,,,,,,,,,,,,,,,
"72292023191","2014-01-16T14:51:00","FM-15","7",,,,,,,,,,,,,,,,,,,,,,,,,,,,,,,,,,,,,,"30.11","7","77","0.00",,,,"7","30.03","CLR:00","28.41","10.00","49","060",,"7",,,,,,,,,,,,,,,,,,,,,,,,,,,,,,,,,,,,,"MET09601/16/14 14:51:02 METAR KAVX 162251Z 06006KT 10SM CLR 25/M14 A3011 RMK AO2 SLP169 T02501139 TSNO","FM-15","7",,,,,,,,,,,,,,,,,,,,,,,,,,,,
"72292023191","2014-01-16T15:51:00","FM-15","7",,,,,,,,,,,,,,,,,,,,,,,,,,,,,,,,,,,,,,"30.11","8","76","0.00",,"+0.01","6","7","30.03","CLR:00","28.41","10.00","49","060",,"7",,,,,,,,,,,,,,,,,,,,,,,,,,,,,,,,,,,,,"MET11401/16/14 15:51:02 METAR KAVX 162351Z 06006KT 10SM CLR 24/M13 A3011 RMK AO2 SLP169 T02441133 10261 20239 56005 TSNO","FM-15","7",,,,,,,,,,,,,,,,,,,,,,,,,,,,
"72292023191","2014-01-16T16:51:00","FM-15","7",,,,,,,,,,,,,,,,,,,,,,,,,,,,,,,,,,,,,,"30.11","7","74","0.00",,,,"7","30.03","CLR:00","28.41","10.00","48","040",,"5",,,,,,,,,,,,,,,,,,,,,,,,,,,,,,,,,,,,,"MET09601/16/14 16:51:01 METAR KAVX 170051Z 04004KT 10SM CLR 23/M14 A3011 RMK AO2 SLP171 T02331139 TSNO","FM-15","7",,,,,,,,,,,,,,,,,,,,,,,,,,,,
"72292023191","2014-01-16T17:51:00","FM-15","7",,,,,,,,,,,,,,,,,,,,,,,,,,,,,,,,,,,,,,"30.12","4","73","0.00",,,,"6","30.04","CLR:00","28.42","10.00","47","050",,"5",,,,,,,,,,,,,,,,,,,,,,,,,,,,,,,,,,,,,"MET09601/16/14 17:51:01 METAR KAVX 170151Z 05004KT 10SM CLR 23/M16 A3012 RMK AO2 SLP174 T02281156 TSNO","FM-15","7",,,,,,,,,,,,,,,,,,,,,,,,,,,,
"72292023191","2014-01-16T18:51:00","FM-15","7",,,,,,,,,,,,,,,,,,,,,,,,,,,,,,,,,,,,,,"30.12","4","73","0.00",,"-0.01","1","6","30.05","CLR:00","28.42","10.00","47","060",,"6",,,,,,,,,,,,,,,,,,,,,,,,,,,,,,,,,,,,,"MET10201/16/14 18:51:01 METAR KAVX 170251Z 06005KT 10SM CLR 23/M16 A3012 RMK AO2 SLP175 T02281156 51004 TSNO","FM-15","7",,,,,,,,,,,,,,,,,,,,,,,,,,,,
"72292023191","2014-01-16T19:51:00","FM-15","7",,,,,,,,,,,,,,,,,,,,,,,,,,,,,,,,,,,,,,"30.12","4","72","0.00",,,,"7","30.05","CLR:00","28.42","10.00","46","070",,"6",,,,,,,,,,,,,,,,,,,,,,,,,,,,,,,,,,,,,"MET09601/16/14 19:51:02 METAR KAVX 170351Z 07005KT 10SM CLR 22/M16 A3012 RMK AO2 SLP175 T02221156 TSNO","FM-15","7",,,,,,,,,,,,,,,,,,,,,,,,,,,,
"72292023191","2014-01-16T20:51:00","FM-15","7",,,,,,,,,,,,,,,,,,,,,,,,,,,,,,,,,,,,,,"30.13","4","71","0.00",,,,"7","30.06","CLR:00","28.43","10.00","46","070",,"10",,,,,,,,,,,,,,,,,,,,,,,,,,,,,,,,,,,,,"MET09601/16/14 20:51:02 METAR KAVX 170451Z 07009KT 10SM CLR 22/M16 A3013 RMK AO2 SLP178 T02171156 TSNO","FM-15","7",,,,,,,,,,,,,,,,,,,,,,,,,,,,
"72292023191","2014-01-16T21:51:00","FM-15","7",,,,,,,,,,,,,,,,,,,,,,,,,,,,,,,,,,,,,,"30.14","3","71","0.00",,"-0.01","3","7","30.06","CLR:00","28.44","10.00","46","080",,"11",,,,,,,,,,,,,,,,,,,,,,,,,,,,,,,,,,,,,"MET11401/16/14 21:51:02 METAR KAVX 170551Z 08010KT 10SM CLR 22/M16 A3014 RMK AO2 SLP179 T02171161 10239 20206 53005 TSNO","FM-15","7",,,,,,,,,,,,,,,,,,,,,,,,,,,,
"72292023191","2014-01-16T22:51:00","FM-15","7",,,,,,,,,,,,,,,,,,,,,,,,,,,,,,,,,,,,,,"30.13","3","68","0.00",,,,"7","30.05","CLR:00","28.43","10.00","44","090",,"11",,,,,,,,,,,,,,,,,,,,,,,,,,,,,,,,,,,,,"MET09601/16/14 22:51:02 METAR KAVX 170651Z 09010KT 10SM CLR 20/M16 A3013 RMK AO2 SLP177 T02001161 TSNO","FM-15","7",,,,,,,,,,,,,,,,,,,,,,,,,,,,
"72292023191","2014-01-16T23:51:00","FM-15","7",,,,,,,,,,,,,,,,,,,,,,,,,,,,,,,,,,,,,,"30.12","0","71","0.00",,,,"6","30.03","CLR:00","28.42","10.00","45","090","21","15",,,,,,,,,,,,,,,,,,,,,,,,,,,,,,,,,,,,,"MET10901/16/14 23:51:02 METAR KAVX 170751Z 09013G18KT 10SM CLR 22/M18 A3012 RMK AO2 SLP171 T02171178 402610189 TSNO","FM-15","7",,,,,,,,,,,,,,,,,,,,,,,,,,,,
"72292023191","2014-01-16T23:59:00","SOD  ","6",,,,,,,,,,,,,,,,"73",,,"28.44",,"10.3","8","17.8","0","79","66","070","32","0.00",,,"080","23",,,,,,,,,,,,,,,,,,,,,,,,,,,,,,,,,,,,,,,,,,,,,,,,,,,,,,,,,"SOD73024 HR PRECIPITATION (IN):0.00  24 HR MAX TEMP (F):79 24 HR MAX TEMP TIME (LST):1404 24 HR MIN TEMP (F):66 24 HR MIN TEMP TIME (LST):0307 AVERAGE STATION PRESSURE:28.440 MINIMUM SEA LEVEL PRESSURE:30.02 TIME OF OCCURRENCE:1430 PEAK WIND SPEED (MPH):32  PEAK WIND DIR (DEG):70  PEAK WIND TIME (LST):0753  FASTEST 2MIN SPEED (MPH):23 FASTEST 2MIN DIR (DEG):80  FASTEST 2MIN TIME (LST):0754 AVERAGE WIND SPEED (MPH):10.3 24 HR AVG TEMP (F):73 HEATING DEGREE DAYS:0   COOLING DEGREE DAYS:8   LATEST DAY MAX TEMP (0700-1900 LST):79  LATEST NIGHT MIN TEMP(1900-0800 LST):66 HOURLY INCREMENTAL PRECIPITATION VALUES (IN):.00 0.00 0.00 0.00 0.00 0.00 0.00 0.00 0.00 0.00 0.00 0.00 0.00 0.00 0.00 0.00 0.00 0.00 0.00 0.00 0.00 0.00 0.00 0.00","SOD  ","6",,,,,,,,,,,,,,,,,,,,,,,,,"0658","1710",,
"72292023191","2014-01-17T00:51:00","FM-15","7",,,,,,,,,,,,,,,,,,,,,,,,,,,,,,,,,,,,,,"30.12","0","69",,,"+0.02","6","6","30.03","CLR:00","28.42","10.00","44","080",,"11",,,,,,,,,,,,,,,,,,,,,,,,,,,,,,,,,,,,,"MET10201/17/14 00:51:02 METAR KAVX 170851Z 08010KT 10SM CLR 21/M18 A3012 RMK AO2 SLP170 T02061178 56006 TSNO","FM-15","7",,,,,,,,,,,,,,,,,,,,,,,,,,,,
"72292023191","2014-01-17T01:51:00","FM-15","7",,,,,,,,,,,,,,,,,,,,,,,,,,,,,,,,,,,,,,"30.13","3","68",,,,,"7","30.04","CLR:00","28.43","10.00","44","080",,"6",,,,,,,,,,,,,,,,,,,,,,,,,,,,,,,,,,,,,"MET09601/17/14 01:51:02 METAR KAVX 170951Z 08005KT 10SM CLR 20/M16 A3013 RMK AO2 SLP174 T02001161 TSNO","FM-15","7",,,,,,,,,,,,,,,,,,,,,,,,,,,,
"72292023191","2014-01-17T02:51:00","FM-15","7",,,,,,,,,,,,,,,,,,,,,,,,,,,,,,,,,,,,,,"30.13","0","72",,,,,"6","30.04","CLR:00","28.43","10.00","46","220",,"5",,,,,,,,,,,,,,,,,,,,,,,,,,,,,,,,,,,,,"MET09601/17/14 02:51:02 METAR KAVX 171051Z 22004KT 10SM CLR 22/M18 A3013 RMK AO2 SLP173 T02221178 TSNO","FM-15","7",,,,,,,,,,,,,,,,,,,,,,,,,,,,
"72292023191","2014-01-17T03:51:00","FM-15","7",,,,,,,,,,,,,,,,,,,,,,,,,,,,,,,,,,,,,,"30.13","1","71",,,"-0.01","1","6","30.04","CLR:00","28.43","10.00","45","270",,"6",,,,,,,,,,,,,,,,,,,,,,,,,,,,,,,,,,,,,"MET11401/17/14 03:51:02 METAR KAVX 171151Z 27005KT 10SM CLR 22/M17 A3013 RMK AO2 SLP174 T02171172 10228 20194 51004 TSNO","FM-15","7",,,,,,,,,,,,,,,,,,,,,,,,,,,,
"72292023191","2014-01-17T04:51:00","FM-15","7",,,,,,,,,,,,,,,,,,,,,,,,,,,,,,,,,,,,,,"30.13","2","68",,,,,"7","30.05","CLR:00","28.43","10.00","44","110",,"6",,,,,,,,,,,,,,,,,,,,,,,,,,,,,,,,,,,,,"MET09601/17/14 04:51:02 METAR KAVX 171251Z 11005KT 10SM CLR 20/M17 A3013 RMK AO2 SLP177 T02001167 TSNO","FM-15","7",,,,,,,,,,,,,,,,,,,,,,,,,,,,
"72292023191","2014-01-17T05:51:00","FM-15","7",,,,,,,,,,,,,,,,,,,,,,,,,,,,,,,,,,,,,,"30.13","2","67",,,,,"7","30.06","CLR:00","28.43","10.00","44","070",,"7",,,,,,,,,,,,,,,,,,,,,,,,,,,,,,,,,,,,,"MET09601/17/14 05:51:02 METAR KAVX 171351Z 07006KT 10SM CLR 19/M17 A3013 RMK AO2 SLP180 T01941167 TSNO","FM-15","7",,,,,,,,,,,,,,,,,,,,,,,,,,,,
"72292023191","2014-01-17T06:51:00","FM-15","7",,,,,,,,,,,,,,,,,,,,,,,,,,,,,,,,,,,,,,"30.15","2","68",,,"-0.02","3","7","30.07","CLR:00","28.45","10.00","44","050",,"5",,,,,,,,,,,,,,,,,,,,,,,,,,,,,,,,,,,,,"MET10201/17/14 06:51:02 METAR KAVX 171451Z 05004KT 10SM CLR 20/M17 A3015 RMK AO2 SLP184 T02001167 53006 TSNO","FM-15","7",,,,,,,,,,,,,,,,,,,,,,,,,,,,
"72292023191","2014-01-17T07:51:00","FM-15","7",,,,,,,,,,,,,,,,,,,,,,,,,,,,,,,,,,,,,,"30.16","2","70",,,,,"7","30.09","CLR:00","28.46","10.00","45","000",,"0",,,,,,,,,,,,,,,,,,,,,,,,,,,,,,,,,,,,,"MET09601/17/14 07:51:02 METAR KAVX 171551Z 00000KT 10SM CLR 21/M17 A3016 RMK AO2 SLP188 T02111167 TSNO","FM-15","7",,,,,,,,,,,,,,,,,,,,,,,,,,,,
"72292023191","2014-01-17T08:51:00","FM-15","7",,,,,,,,,,,,,,,,,,,,,,,,,,,,,,,,,,,,,,"30.17","6","75",,,,,"7","30.09","CLR:00","28.47","10.00","48","140",,"5",,,,,,,,,,,,,,,,,,,,,,,,,,,,,,,,,,,,,"MET09601/17/14 08:51:02 METAR KAVX 171651Z 14004KT 10SM CLR 24/M14 A3017 RMK AO2 SLP191 T02391144 TSNO","FM-15","7",,,,,,,,,,,,,,,,,,,,,,,,,,,,
"72292023191","2014-01-17T09:51:00","FM-15","7",,,,,,,,,,,,,,,,,,,,,,,,,,,,,,,,,,,,,,"30.18","5","77",,,"-0.03","1","6","30.09","CLR:00","28.48","10.00","49","140",,"8",,,,,,,,,,,,,,,,,,,,,,,,,,,,,,,,,,,,,"MET11401/17/14 09:51:02 METAR KAVX 171751Z 14007KT 10SM CLR 25/M15 A3018 RMK AO2 SLP191 T02501150 10250 20194 51010 TSNO","FM-15","7",,,,,,,,,,,,,,,,,,,,,,,,,,,,
"72292023191","2014-01-17T10:51:00","FM-15","7",,,,,,,,,,,,,,,,,,,,,,,,,,,,,,,,,,,,,,"30.17","5","77","0.00",,,,"6","30.09",,"28.47","10.00","49","130",,"8",,,,,,,,,,,,,,,,,,,,,,,,,,,,,,,,,,,,,"MET09401/17/14 10:51:02 METAR KAVX 171851Z 13007KT 10SM 25/M15 A3017 RMK AO2 SLP189 T02501150 TSNO $","FM-15","7",,,,,,,,,,,,,,,,,,,,,,,,,,,,
"72292023191","2014-01-17T11:51:00","FM-15","7",,,,,,,,,,,,,,,,,,,,,,,,,,,,,,,,,,,,,,"30.13","3","77","0.00",,,,"5","30.05","CLR:00","28.43","10.00","48","110",,"10",,,,,,,,,,,,,,,,,,,,,,,,,,,,,,,,,,,,,"MET09801/17/14 11:51:02 METAR KAVX 171951Z 11009KT 10SM CLR 25/M16 A3013 RMK AO2 SLP176 T02501161 TSNO $","FM-15","7",,,,,,,,,,,,,,,,,,,,,,,,,,,,
"72292023191","2014-01-17T12:51:00","FM-15","7",,,,,,,,,,,,,,,,,,,,,,,,,,,,,,,,,,,,,,"30.12","3","77","0.00",,,,"5","30.04","CLR:00","28.42","10.00","48","VRB",,"3",,,,,,,,,,,,,,,,,,,,,,,,,,,,,,,,,,,,,"MET10201/17/14 12:51:02 METAR KAVX 172051Z VRB03KT 10SM CLR 25/M16 A3012 RMK AO2 SLP174 6//// T02501161 TSNO","FM-15","7",,,,,,,,,,,,,,,,,,,,,,,,,,,,
"72292023191","2014-01-17T13:51:00","FM-15","7",,,,,,,,,,,,,,,,,,,,,,,,,,,,,,,,,,,,,,"30.11","6","74","0.00",,,,"7","30.03","CLR:00","28.41","10.00","47","250",,"7",,,,,,,,,,,,,,,,,,,,,,,,,,,,,,,,,,,,,"MET09601/17/14 13:51:02 METAR KAVX 172151Z 25006KT 10SM CLR 23/M14 A3011 RMK AO2 SLP171 T02331144 TSNO","FM-15","7",,,,,,,,,,,,,,,,,,,,,,,,,,,,
"72292023191","2014-01-17T14:51:00","FM-15","7",,,,,,,,,,,,,,,,,,,,,,,,,,,,,,,,,,,,,,"30.10","6","74","0.00",,,,"7","30.02","CLR:00","28.40","10.00","47","260",,"8",,,,,,,,,,,,,,,,,,,,,,,,,,,,,,,,,,,,,"MET09601/17/14 14:51:02 METAR KAVX 172251Z 26007KT 10SM CLR 23/M14 A3010 RMK AO2 SLP167 T02331144 TSNO","FM-15","7",,,,,,,,,,,,,,,,,,,,,,,,,,,,
"72292023191","2014-01-17T15:51:00","FM-15","7",,,,,,,,,,,,,,,,,,,,,,,,,,,,,,,,,,,,,,"30.11","4","73","0.00",,"+0.01","5","6","30.03","CLR:00","28.41","7.00","47","260",,"9",,,,,,,,,,,,,,,,,,,,,,,,,,,,,,,,,,,,,"MET11901/17/14 15:51:02 METAR KAVX 172351Z 26008KT 7SM CLR 23/M16 A3011 RMK AO2 SLP169 6//// T02281156 10261 20144 55005 TSNO","FM-15","7",,,,,,,,,,,,,,,,,,,,,,,,,,,,
"72292023191","2014-01-17T16:51:00","FM-15","7",,,,,,,,,,,,,,,,,,,,,,,,,,,,,,,,,,,,,,"30.11","4","69","0.00",,,,"7","30.04","CLR:00","28.41","10.00","45","250",,"11",,,,,,,,,,,,,,,,,,,,,,,,,,,,,,,,,,,,,"MET09601/17/14 16:51:01 METAR KAVX 180051Z 25010KT 10SM CLR 21/M16 A3011 RMK AO2 SLP173 T02061156 TSNO","FM-15","7",,,,,,,,,,,,,,,,,,,,,,,,,,,,
"72292023191","2014-01-17T17:51:00","FM-15","7",,,,,,,,,,,,,,,,,,,,,,,,,,,,,,,,,,,,,,"30.12","4","67","0.00",,,,"8","30.06","CLR:00","28.42","10.00","44","260",,"9",,,,,,,,,,,,,,,,,,,,,,,,,,,,,,,,,,,,,"MET09601/17/14 17:51:01 METAR KAVX 180151Z 26008KT 10SM CLR 19/M16 A3012 RMK AO2 SLP178 T01941156 TSNO","FM-15","7",,,,,,,,,,,,,,,,,,,,,,,,,,,,
"72292023191","2014-01-17T18:51:00","FM-15","7",,,,,,,,,,,,,,,,,,,,,,,,,,,,,,,,,,,,,,"30.11","3","69","0.00",,"-0.01","0","7","30.05","CLR:00","28.41","10.00","45","300",,"9",,,,,,,,,,,,,,,,,,,,,,,,,,,,,,,,,,,,,"MET10201/17/14 18:51:01 METAR KAVX 180251Z 30008KT 10SM CLR 21/M16 A3011 RMK AO2 SLP175 T02061161 50002 TSNO","FM-15","7",,,,,,,,,,,,,,,,,,,,,,,,,,,,
"72292023191","2014-01-17T19:51:00","FM-15","7",,,,,,,,,,,,,,,,,,,,,,,,,,,,,,,,,,,,,,"30.12","3","68","0.00",,,,"7","30.05","CLR:00","28.42","10.00","44","310",,"8",,,,,,,,,,,,,,,,,,,,,,,,,,,,,,,,,,,,,"MET09601/17/14 19:51:02 METAR KAVX 180351Z 31007KT 10SM CLR 20/M16 A3012 RMK AO2 SLP176 T02001161 TSNO","FM-15","7",,,,,,,,,,,,,,,,,,,,,,,,,,,,
"72292023191","2014-01-17T20:51:00","FM-15","7",,,,,,,,,,,,,,,,,,,,,,,,,,,,,,,,,,,,,,"30.12","2","68","0.00",,,,"7","30.04","CLR:00","28.42","10.00","44","320",,"8",,,,,,,,,,,,,,,,,,,,,,,,,,,,,,,,,,,,,"MET09601/17/14 20:51:02 METAR KAVX 180451Z 32007KT 10SM CLR 20/M17 A3012 RMK AO2 SLP174 T02001167 TSNO","FM-15","7",,,,,,,,,,,,,,,,,,,,,,,,,,,,
"72292023191","2014-01-17T21:51:00","FM-15","7",,,,,,,,,,,,,,,,,,,,,,,,,,,,,,,,,,,,,,"30.13","2","69","0.00",,"-0.01","3","7","30.05","CLR:00","28.43","10.00","45","320",,"9",,,,,,,,,,,,,,,,,,,,,,,,,,,,,,,,,,,,,"MET11401/17/14 21:51:02 METAR KAVX 180551Z 32008KT 10SM CLR 21/M17 A3013 RMK AO2 SLP176 T02061167 10222 20194 53005 TSNO","FM-15","7",,,,,,,,,,,,,,,,,,,,,,,,,,,,
"72292023191","2014-01-17T22:51:00","FM-15","7",,,,,,,,,,,,,,,,,,,,,,,,,,,,,,,,,,,,,,"30.12","3","69","0.00",,,,"7","30.04","CLR:00","28.42","10.00","45","310",,"6",,,,,,,,,,,,,,,,,,,,,,,,,,,,,,,,,,,,,"MET09601/17/14 22:51:02 METAR KAVX 180651Z 31005KT 10SM CLR 21/M16 A3012 RMK AO2 SLP173 T02061161 TSNO","FM-15","7",,,,,,,,,,,,,,,,,,,,,,,,,,,,
"72292023191","2014-01-17T23:51:00","FM-15","7",,,,,,,,,,,,,,,,,,,,,,,,,,,,,,,,,,,,,,"30.11","3","71","0.00",,,,"7","30.02","CLR:00","28.41","10.00","46","330",,"3",,,,,,,,,,,,,,,,,,,,,,,,,,,,,,,,,,,,,"MET10601/17/14 23:51:02 METAR KAVX 180751Z 33003KT 10SM CLR 22/M16 A3011 RMK AO2 SLP167 T02171161 402610144 TSNO","FM-15","7",,,,,,,,,,,,,,,,,,,,,,,,,,,,
"72292023191","2014-01-17T23:59:00","SOD  ","6",,,,,,,,,,,,,,,,"69s",,,"28.43",,"7.0","4s","13.8s","0s","79","58s","090","17","0.00",,,"260","13",,,,,,,,,,,,,,,,,,,,,,,,,,,,,,,,,,,,,,,,,,,,,,,,,,,,,,,,,"SOD73024 HR PRECIPITATION (IN):0.00  24 HR MAX TEMP (F):79 24 HR MAX TEMP TIME (LST):1300 24 HR MIN TEMP (F):58 24 HR MIN TEMP TIME (LST):1036 AVERAGE STATION PRESSURE:28.430 MINIMUM SEA LEVEL PRESSURE:30.02 TIME OF OCCURRENCE:2359 PEAK WIND SPEED (MPH):17  PEAK WIND DIR (DEG):90  PEAK WIND TIME (LST):1031  FASTEST 2MIN SPEED (MPH):13 FASTEST 2MIN DIR (DEG):260 FASTEST 2MIN TIME (LST):1740 AVERAGE WIND SPEED (MPH):7.0  24 HR AVG TEMP (F):69 HEATING DEGREE DAYS:0   COOLING DEGREE DAYS:4   LATEST DAY MAX TEMP (0700-1900 LST):79  LATEST NIGHT MIN TEMP(1900-0800 LST):67 HOURLY INCREMENTAL PRECIPITATION VALUES (IN):    M    M    M    M    M    M    M    M    M    0.00 0.00 0.00 0.00 0.00 0.00 0.00 0.00 0.00 0.00 0.00 0.00 0.00 0.00","SOD  ","6",,,,,,,,,,,,,,,,,,,,,,,,,"0657","1711",,
"72292023191","2014-01-18T00:51:00","FM-15","7",,,,,,,,,,,,,,,,,,,,,,,,,,,,,,,,,,,,,,"30.10","3","71","0.00",,"+0.03","7","7","30.01","CLR:00","28.40","10.00","46","320",,"3",,,,,,,,,,,,,,,,,,,,,,,,,,,,,,,,,,,,,"MET10201/18/14 00:51:02 METAR KAVX 180851Z 32003KT 10SM CLR 22/M16 A3010 RMK AO2 SLP164 T02171161 57009 TSNO","FM-15","7",,,,,,,,,,,,,,,,,,,,,,,,,,,,
"72292023191","2014-01-18T01:51:00","FM-15","7",,,,,,,,,,,,,,,,,,,,,,,,,,,,,,,,,,,,,,"30.10","2","72","0.00",,,,"6","30.03","CLR:00","28.40","10.00","46","320",,"3",,,,,,,,,,,,,,,,,,,,,,,,,,,,,,,,,,,,,"MET09601/18/14 01:51:02 METAR KAVX 180951Z 32003KT 10SM CLR 22/M17 A3010 RMK AO2 SLP168 T02221167 TSNO","FM-15","7",,,,,,,,,,,,,,,,,,,,,,,,,,,,
"72292023191","2014-01-18T02:51:00","FM-15","7",,,,,,,,,,,,,,,,,,,,,,,,,,,,,,,,,,,,,,"30.10","3","72","0.00",,,,"6","30.02","CLR:00","28.40","10.00","46","000",,"0",,,,,,,,,,,,,,,,,,,,,,,,,,,,,,,,,,,,,"MET09601/18/14 02:51:02 METAR KAVX 181051Z 00000KT 10SM CLR 22/M16 A3010 RMK AO2 SLP165 T02221161 TSNO","FM-15","7",,,,,,,,,,,,,,,,,,,,,,,,,,,,
"72292023191","2014-01-18T03:51:00","FM-15","7",,,,,,,,,,,,,,,,,,,,,,,,,,,,,,,,,,,,,,"30.09","3","73","0.00",,"+0.01","8","6","30.01","CLR:00","28.39","10.00","47","000",,"0",,,,,,,,,,,,,,,,,,,,,,,,,,,,,,,,,,,,,"MET12001/18/14 03:51:02 METAR KAVX 181151Z 00000KT 10SM CLR 23/M16 A3009 RMK AO2 SLP162 7//// T02281161 10228 20200 58004 TSNO","FM-15","7",,,,,,,,,,,,,,,,,,,,,,,,,,,,
"72292023191","2014-01-18T04:51:00","FM-15","7",,,,,,,,,,,,,,,,,,,,,,,,,,,,,,,,,,,,,,"30.08","2","72","0.00",,,,"6","30.01","CLR:00","28.38","10.00","46","000",,"0",,,,,,,,,,,,,,,,,,,,,,,,,,,,,,,,,,,,,"MET09601/18/14 04:51:02 METAR KAVX 181251Z 00000KT 10SM CLR 22/M17 A3008 RMK AO2 SLP161 T02221167 TSNO","FM-15","7",,,,,,,,,,,,,,,,,,,,,,,,,,,,
"72292023191","2014-01-18T05:51:00","FM-15","7",,,,,,,,,,,,,,,,,,,,,,,,,,,,,,,,,,,,,,"30.09","2","71","0.00",,,,"6","30.02","CLR:00","28.39","10.00","45","000",,"0",,,,,,,,,,,,,,,,,,,,,,,,,,,,,,,,,,,,,"MET09601/18/14 05:51:02 METAR KAVX 181351Z 00000KT 10SM CLR 22/M17 A3009 RMK AO2 SLP165 T02171167 TSNO","FM-15","7",,,,,,,,,,,,,,,,,,,,,,,,,,,,
"72292023191","2014-01-18T06:51:00","FM-15","7",,,,,,,,,,,,,,,,,,,,,,,,,,,,,,,,,,,,,,"30.09","2","71","0.00",,"-0.01","3","6","30.03","CLR:00","28.39","10.00","45","000",,"0",,,,,,,,,,,,,,,,,,,,,,,,,,,,,,,,,,,,,"MET10201/18/14 06:51:02 METAR KAVX 181451Z 00000KT 10SM CLR 22/M17 A3009 RMK AO2 SLP168 T02171167 53003 TSNO","FM-15","7",,,,,,,,,,,,,,,,,,,,,,,,,,,,
"72292023191","2014-01-18T07:51:00","FM-15","7",,,,,,,,,,,,,,,,,,,,,,,,,,,,,,,,,,,,,,"30.11","5","70","0.00",,,,"8","30.04","CLR:00","28.41","10.00","45","000",,"0",,,,,,,,,,,,,,,,,,,,,,,,,,,,,,,,,,,,,"MET09601/18/14 07:51:02 METAR KAVX 181551Z 00000KT 10SM CLR 21/M15 A3011 RMK AO2 SLP174 T02111150 TSNO","FM-15","7",,,,,,,,,,,,,,,,,,,,,,,,,,,,
"72292023191","2014-01-18T08:51:00","FM-15","7",,,,,,,,,,,,,,,,,,,,,,,,,,,,,,,,,,,,,,"30.13","8","73","0.00",,,,"8","30.06","CLR:00","28.43","10.00","47","000",,"0",,,,,,,,,,,,,,,,,,,,,,,,,,,,,,,,,,,,,"MET09601/18/14 08:51:02 METAR KAVX 181651Z 00000KT 10SM CLR 23/M13 A3013 RMK AO2 SLP180 T02281133 TSNO","FM-15","7",,,,,,,,,,,,,,,,,,,,,,,,,,,,
"72292023191","2014-01-18T09:51:00","FM-15","7",,,,,,,,,,,,,,,,,,,,,,,,,,,,,,,,,,,,,,"30.15","5","75","0.00",,"-0.05","2","6","30.07","CLR:00","28.45","10.00","48","000",,"0",,,,,,,,,,,,,,,,,,,,,,,,,,,,,,,,,,,,,"MET11401/18/14 09:51:02 METAR KAVX 181751Z 00000KT 10SM CLR 24/M15 A3015 RMK AO2 SLP184 T02391150 10239 20206 52017 TSNO","FM-15","7",,,,,,,,,,,,,,,,,,,,,,,,,,,,
"72292023191","2014-01-18T10:51:00","FM-15","7",,,,,,,,,,,,,,,,,,,,,,,,,,,,,,,,,,,,,,"30.14","10","75","0.00",,,,"8","30.06","CLR:00","28.44","10.00","48","270",,"3",,,,,,,,,,,,,,,,,,,,,,,,,,,,,,,,,,,,,"MET09601/18/14 10:51:02 METAR KAVX 181851Z 27003KT 10SM CLR 24/M12 A3014 RMK AO2 SLP180 T02391122 TSNO","FM-15","7",,,,,,,,,,,,,,,,,,,,,,,,,,,,
"72292023191","2014-01-18T11:51:00","FM-15","7",,,,,,,,,,,,,,,,,,,,,,,,,,,,,,,,,,,,,,"30.11","7","76","0.00",,,,"7","30.03","CLR:00","28.41","10.00","48","330",,"5",,,,,,,,,,,,,,,,,,,,,,,,,,,,,,,,,,,,,"MET09601/18/14 11:51:02 METAR KAVX 181951Z 33004KT 10SM CLR 24/M14 A3011 RMK AO2 SLP169 T02441139 TSNO","FM-15","7",,,,,,,,,,,,,,,,,,,,,,,,,,,,
"72292023191","2014-01-18T12:51:00","FM-15","7",,,,,,,,,,,,,,,,,,,,,,,,,,,,,,,,,,,,,,"30.08","12","75","0.00",,"+0.06","8","9","30.00","CLR:00","28.38","10.00","49","340",,"5",,,,,,,,,,,,,,,,,,,,,,,,,,,,,,,,,,,,,"MET10201/18/14 12:51:02 METAR KAVX 182051Z 34004KT 10SM CLR 24/M11 A3008 RMK AO2 SLP160 T02391111 58021 TSNO","FM-15","7",,,,,,,,,,,,,,,,,,,,,,,,,,,,
"72292023191","2014-01-18T13:51:00","FM-15","7",,,,,,,,,,,,,,,,,,,,,,,,,,,,,,,,,,,,,,"30.07","25","74","0.00",,,,"16","29.99","CLR:00","28.37","10.00","51","310",,"3",,,,,,,,,,,,,,,,,,,,,,,,,,,,,,,,,,,,,"MET09601/18/14 13:51:02 METAR KAVX 182151Z 31003KT 10SM CLR 23/M04 A3007 RMK AO2 SLP155 T02331039 TSNO","FM-15","7",,,,,,,,,,,,,,,,,,,,,,,,,,,,
"72292023191","2014-01-18T14:51:00","FM-15","7",,,,,,,,,,,,,,,,,,,,,,,,,,,,,,,,,,,,,,"30.06","25","73","0.00",,,,"17","29.98","CLR:00","28.36","10.00","51","250",,"6",,,,,,,,,,,,,,,,,,,,,,,,,,,,,,,,,,,,,"MET09601/18/14 14:51:02 METAR KAVX 182251Z 25005KT 10SM CLR 23/M04 A3006 RMK AO2 SLP154 T02281039 TSNO","FM-15","7",,,,,,,,,,,,,,,,,,,,,,,,,,,,
"72292023191","2014-01-18T15:51:00","FM-15","7",,,,,,,,,,,,,,,,,,,,,,,,,,,,,,,,,,,,,,"30.07","15","72","0.00",,"+0.01","5","11","29.99","CLR:00","28.37","10.00","48","250",,"8",,,,,,,,,,,,,,,,,,,,,,,,,,,,,,,,,,,,,"MET11401/18/14 15:51:02 METAR KAVX 182351Z 25007KT 10SM CLR 22/M09 A3007 RMK AO2 SLP156 T02221094 10250 20217 55004 TSNO","FM-15","7",,,,,,,,,,,,,,,,,,,,,,,,,,,,
"72292023191","2014-01-18T16:51:00","FM-15","7",,,,,,,,,,,,,,,,,,,,,,,,,,,,,,,,,,,,,,"30.08","4","71","0.00",,,,"7","30.00","CLR:00","28.38","10.00","46","260",,"7",,,,,,,,,,,,,,,,,,,,,,,,,,,,,,,,,,,,,"MET09601/18/14 16:51:01 METAR KAVX 190051Z 26006KT 10SM CLR 22/M16 A3008 RMK AO2 SLP159 T02171156 TSNO","FM-15","7",,,,,,,,,,,,,,,,,,,,,,,,,,,,
"72292023191","2014-01-18T17:51:00","FM-15","7",,,,,,,,,,,,,,,,,,,,,,,,,,,,,,,,,,,,,,"30.08","2s","70","0.00",,,,"7","30.01","CLR:00","28.38","10.00","45","290",,"6",,,,,,,,,,,,,,,,,,,,,,,,,,,,,,,,,,,,,"MET09601/18/14 17:51:01 METAR KAVX 190151Z 29005KT 10SM CLR 21/M17 A3008 RMK AO2 SLP163 T02111167 TSNO","FM-15","7",,,,,,,,,,,,,,,,,,,,,,,,,,,,
"72292023191","2014-01-18T18:51:00","FM-15","7",,,,,,,,,,,,,,,,,,,,,,,,,,,,,,,,,,,,,,"30.09","2","69","0.00",,"-0.02","1","7","30.02","CLR:00","28.39","10.00","45","330",,"5",,,,,,,,,,,,,,,,,,,,,,,,,,,,,,,,,,,,,"MET10201/18/14 18:51:01 METAR KAVX 190251Z 33004KT 10SM CLR 21/M17 A3009 RMK AO2 SLP166 T02061167 51006 TSNO","FM-15","7",,,,,,,,,,,,,,,,,,,,,,,,,,,,
"72292023191","2014-01-18T19:51:00","FM-15","7",,,,,,,,,,,,,,,,,,,,,,,,,,,,,,,,,,,,,,"30.09","2","70","0.00",,,,"7","30.02","CLR:00","28.39","10.00","45","320",,"3",,,,,,,,,,,,,,,,,,,,,,,,,,,,,,,,,,,,,"MET09601/18/14 19:51:02 METAR KAVX 190351Z 32003KT 10SM CLR 21/M17 A3009 RMK AO2 SLP166 T02111167 TSNO","FM-15","7",,,,,,,,,,,,,,,,,,,,,,,,,,,,
"72292023191","2014-01-18T20:51:00","FM-15","7",,,,,,,,,,,,,,,,,,,,,,,,,,,,,,,,,,,,,,"30.10","2","69","0.00",,,,"7","30.02","CLR:00","28.40","10.00","45","360",,"5",,,,,,,,,,,,,,,,,,,,,,,,,,,,,,,,,,,,,"MET09601/18/14 20:51:02 METAR KAVX 190451Z 36004KT 10SM CLR 21/M17 A3010 RMK AO2 SLP167 T02061167 TSNO","FM-15","7",,,,,,,,,,,,,,,,,,,,,,,,,,,,
"72292023191","2014-01-18T21:51:00","FM-15","7",,,,,,,,,,,,,,,,,,,,,,,,,,,,,,,,,,,,,,"30.10","2","68","0.00",,"-0.01","3","7","30.03","CLR:00","28.40","10.00","44","040",,"3",,,,,,,,,,,,,,,,,,,,,,,,,,,,,,,,,,,,,"MET11401/18/14 21:51:02 METAR KAVX 190551Z 04003KT 10SM CLR 20/M17 A3010 RMK AO2 SLP168 T02001167 10222 20200 53004 TSNO","FM-15","7",,,,,,,,,,,,,,,,,,,,,,,,,,,,
"72292023191","2014-01-18T22:51:00","FM-15","7",,,,,,,,,,,,,,,,,,,,,,,,,,,,,,,,,,,,,,"30.10","2","69","0.00",,,,"7","30.03","CLR:00","28.40","10.00","45","000",,"0",,,,,,,,,,,,,,,,,,,,,,,,,,,,,,,,,,,,,"MET09601/18/14 22:51:02 METAR KAVX 190651Z 00000KT 10SM CLR 21/M17 A3010 RMK AO2 SLP169 T02061167 TSNO","FM-15","7",,,,,,,,,,,,,,,,,,,,,,,,,,,,
"72292023191","2014-01-18T23:51:00","FM-15","7",,,,,,,,,,,,,,,,,,,,,,,,,,,,,,,,,,,,,,"30.10","9","68","0.00",,,,"10","30.02","CLR:00","28.40","10.00","45","000",,"0",,,,,,,,,,,,,,,,,,,,,,,,,,,,,,,,,,,,,"MET10601/18/14 23:51:02 METAR KAVX 190751Z 00000KT 10SM CLR 20/M13 A3010 RMK AO2 SLP166 T02001128 402500194 TSNO","FM-15","7",,,,,,,,,,,,,,,,,,,,,,,,,,,,
"72292023191","2014-01-18T23:59:00","SOD  ","6",,,,,,,,,,,,,,,,"72",,,"28.40",,"2.7","7","16.9","0","77","67","250","10","0.00",,,"250","9",,,,,,,,,,,,,,,,,,,,,,,,,,,,,,,,,,,,,,,,,,,,,,,,,,,,,,,,,"SOD73024 HR PRECIPITATION (IN):0.00  24 HR MAX TEMP (F):77 24 HR MAX TEMP TIME (LST):1212 24 HR MIN TEMP (F):67 24 HR MIN TEMP TIME (LST):2336 AVERAGE STATION PRESSURE:28.395 MINIMUM SEA LEVEL PRESSURE:29.98 TIME OF OCCURRENCE:1451 PEAK WIND SPEED (MPH):10  PEAK WIND DIR (DEG):250 PEAK WIND TIME (LST):1609  FASTEST 2MIN SPEED (MPH):9  FASTEST 2MIN DIR (DEG):250 FASTEST 2MIN TIME (LST):1609 AVERAGE WIND SPEED (MPH):2.7  24 HR AVG TEMP (F):72 HEATING DEGREE DAYS:0   COOLING DEGREE DAYS:7   LATEST DAY MAX TEMP (0700-1900 LST):77  LATEST NIGHT MIN TEMP(1900-0800 LST):67 HOURLY INCREMENTAL PRECIPITATION VALUES (IN):.00 0.00 0.00 0.00 0.00 0.00 0.00 0.00 0.00 0.00 0.00 0.00 0.00 0.00 0.00 0.00 0.00 0.00 0.00 0.00 0.00 0.00 0.00 0.00","SOD  ","6",,,,,,,,,,,,,,,,,,,,,,,,,"0657","1712",,
"72292023191","2014-01-19T00:51:00","FM-15","7",,,,,,,,,,,,,,,,,,,,,,,,,,,,,,,,,,,,,,"30.09","11","67","0.00",,"+0.01","8","11","30.02","CLR:00","28.39","10.00","45","220",,"3",,,,,,,,,,,,,,,,,,,,,,,,,,,,,,,,,,,,,"MET10201/19/14 00:51:02 METAR KAVX 190851Z 22003KT 10SM CLR 19/M12 A3009 RMK AO2 SLP165 T01941117 58004 TSNO","FM-15","7",,,,,,,,,,,,,,,,,,,,,,,,,,,,
"72292023191","2014-01-19T01:51:00","FM-15","7",,,,,,,,,,,,,,,,,,,,,,,,,,,,,,,,,,,,,,"30.09","7","67","0.00",,,,"9","30.02","CLR:00","28.39","10.00","44","000",,"0",,,,,,,,,,,,,,,,,,,,,,,,,,,,,,,,,,,,,"MET09601/19/14 01:51:02 METAR KAVX 190951Z 00000KT 10SM CLR 19/M14 A3009 RMK AO2 SLP165 T01941139 TSNO","FM-15","7",,,,,,,,,,,,,,,,,,,,,,,,,,,,
"72292023191","2014-01-19T02:51:00","FM-15","7",,,,,,,,,,,,,,,,,,,,,,,,,,,,,,,,,,,,,,"30.09","9","66","0.00",,,,"10","30.02","CLR:00","28.39","10.00","44","060",,"5",,,,,,,,,,,,,,,,,,,,,,,,,,,,,,,,,,,,,"MET09601/19/14 02:51:02 METAR KAVX 191051Z 06004KT 10SM CLR 19/M13 A3009 RMK AO2 SLP166 T01891128 TSNO","FM-15","7",,,,,,,,,,,,,,,,,,,,,,,,,,,,
"72292023191","2014-01-19T03:51:00","FM-15","7",,,,,,,,,,,,,,,,,,,,,,,,,,,,,,,,,,,,,,"30.09","5","68","0.00",,"+0.00","8","8","30.02","CLR:00","28.39","10.00","44","000",,"0",,,,,,,,,,,,,,,,,,,,,,,,,,,,,,,,,,,,,"MET11401/19/14 03:51:02 METAR KAVX 191151Z 00000KT 10SM CLR 20/M15 A3009 RMK AO2 SLP165 T02001150 10206 20183 58000 TSNO","FM-15","7",,,,,,,,,,,,,,,,,,,,,,,,,,,,
"72292023191","2014-01-19T04:51:00","FM-15","7",,,,,,,,,,,,,,,,,,,,,,,,,,,,,,,,,,,,,,"30.09","5","68","0.00",,,,"8","30.01","CLR:00","28.39","10.00","44","000",,"0",,,,,,,,,,,,,,,,,,,,,,,,,,,,,,,,,,,,,"MET09601/19/14 04:51:02 METAR KAVX 191251Z 00000KT 10SM CLR 20/M15 A3009 RMK AO2 SLP164 T02001150 TSNO","FM-15","7",,,,,,,,,,,,,,,,,,,,,,,,,,,,
"72292023191","2014-01-19T05:51:00","FM-15","7",,,,,,,,,,,,,,,,,,,,,,,,,,,,,,,,,,,,,,"30.09","7","67","0.00",,,,"9","30.03","CLR:00","28.39","10.00","44","150",,"3",,,,,,,,,,,,,,,,,,,,,,,,,,,,,,,,,,,,,"MET09601/19/14 05:51:02 METAR KAVX 191351Z 15003KT 10SM CLR 19/M14 A3009 RMK AO2 SLP168 T01941139 TSNO","FM-15","7",,,,,,,,,,,,,,,,,,,,,,,,,,,,
"72292023191","2014-01-19T06:51:00","FM-15","7",,,,,,,,,,,,,,,,,,,,,,,,,,,,,,,,,,,,,,"30.11","12","67","0.00",,"-0.02","3","12","30.04","CLR:00","28.41","10.00","45","140",,"3",,,,,,,,,,,,,,,,,,,,,,,,,,,,,,,,,,,,,"MET10201/19/14 06:51:02 METAR KAVX 191451Z 14003KT 10SM CLR 19/M11 A3011 RMK AO2 SLP174 T01941111 53006 TSNO","FM-15","7",,,,,,,,,,,,,,,,,,,,,,,,,,,,
"72292023191","2014-01-19T07:51:00","FM-15","7",,,,,,,,,,,,,,,,,,,,,,,,,,,,,,,,,,,,,,"30.12","9","68","0.00",,,,"10","30.06","CLR:00","28.42","10.00","45","160",,"5",,,,,,,,,,,,,,,,,,,,,,,,,,,,,,,,,,,,,"MET09601/19/14 07:51:02 METAR KAVX 191551Z 16004KT 10SM CLR 20/M13 A3012 RMK AO2 SLP178 T02001128 TSNO","FM-15","7",,,,,,,,,,,,,,,,,,,,,,,,,,,,
"72292023191","2014-01-19T08:51:00","FM-15","7",,,,,,,,,,,,,,,,,,,,,,,,,,,,,,,,,,,,,,"30.14","9","72","0.00",,,,"8","30.07","CLR:00","28.44","10.00","47","190",,"3",,,,,,,,,,,,,,,,,,,,,,,,,,,,,,,,,,,,,"MET09601/19/14 08:51:02 METAR KAVX 191651Z 19003KT 10SM CLR 22/M13 A3014 RMK AO2 SLP183 T02221128 TSNO","FM-15","7",,,,,,,,,,,,,,,,,,,,,,,,,,,,
"72292023191","2014-01-19T09:51:00","FM-15","7",,,,,,,,,,,,,,,,,,,,,,,,,,,,,,,,,,,,,,"30.16","9","71","0.00",,"-0.05","2","9","30.09","CLR:00","28.46","10.00","46","210",,"5",,,,,,,,,,,,,,,,,,,,,,,,,,,,,,,,,,,,,"MET11401/19/14 09:51:02 METAR KAVX 191751Z 21004KT 10SM CLR 22/M13 A3016 RMK AO2 SLP189 T02171128 10239 20189 52016 TSNO","FM-15","7",,,,,,,,,,,,,,,,,,,,,,,,,,,,
"72292023191","2014-01-19T10:51:00","FM-15","7",,,,,,,,,,,,,,,,,,,,,,,,,,,,,,,,,,,,,,"30.15","10","74","0.00",,,,"8","30.08","CLR:00","28.45","10.00","48","VRB",,"3",,,,,,,,,,,,,,,,,,,,,,,,,,,,,,,,,,,,,"MET09601/19/14 10:51:02 METAR KAVX 191851Z VRB03KT 10SM CLR 23/M12 A3015 RMK AO2 SLP185 T02331122 TSNO","FM-15","7",,,,,,,,,,,,,,,,,,,,,,,,,,,,
"72292023191","2014-01-19T11:51:00","FM-15","7",,,,,,,,,,,,,,,,,,,,,,,,,,,,,,,,,,,,,,"30.14","26","73","0.00",,,,"17","30.06","CLR:00","28.44","10.00","51","310",,"3",,,,,,,,,,,,,,,,,,,,,,,,,,,,,,,,,,,,,"MET09601/19/14 11:51:02 METAR KAVX 191951Z 31003KT 10SM CLR 23/M03 A3014 RMK AO2 SLP181 T02281033 TSNO","FM-15","7",,,,,,,,,,,,,,,,,,,,,,,,,,,,
"72292023191","2014-01-19T12:51:00","FM-15","7",,,,,,,,,,,,,,,,,,,,,,,,,,,,,,,,,,,,,,"30.11","25","72","0.00",,"+0.04","8","17","30.04","CLR:00","28.41","10.00","50","020",,"3",,,,,,,,,,,,,,,,,,,,,,,,,,,,,,,,,,,,,"MET10201/19/14 12:51:02 METAR KAVX 192051Z 02003KT 10SM CLR 22/M04 A3011 RMK AO2 SLP174 T02221039 58014 TSNO","FM-15","7",,,,,,,,,,,,,,,,,,,,,,,,,,,,
"72292023191","2014-01-19T13:51:00","FM-15","7",,,,,,,,,,,,,,,,,,,,,,,,,,,,,,,,,,,,,,"30.10",,"71","0.00",,,,,"30.03","CLR:00","28.40","10.00",,"280",,"3",,,,,,,,,,,,,,,,,,,,,,,,,,,,,,,,,,,,,"MET09501/19/14 13:51:02 METAR KAVX 192151Z 28003KT 10SM CLR 22/01 A3010 RMK AO2 SLP170 T02170011 TSNO","FM-15","7",,,,,,,,,,,,,,,,,,,,,,,,,,,,
"72292023191","2014-01-19T14:51:00","FM-15","7",,,,,,,,,,,,,,,,,,,,,,,,,,,,,,,,,,,,,,"30.09","32","70","0.00",,,,"25","30.03","CLR:00","28.39","10.00","51","000",,"0",,,,,,,,,,,,,,,,,,,,,,,,,,,,,,,,,,,,,"MET09501/19/14 14:51:02 METAR KAVX 192251Z 00000KT 10SM CLR 21/00 A3009 RMK AO2 SLP168 T02110000 TSNO","FM-15","7",,,,,,,,,,,,,,,,,,,,,,,,,,,,
"72292023191","2014-01-19T15:51:00","FM-15","7",,,,,,,,,,,,,,,,,,,,,,,,,,,,,,,,,,,,,,"30.09","10","72","0.00",,"+0.02","6","9","30.02","CLR:00","28.39","10.00","47","140",,"5",,,,,,,,,,,,,,,,,,,,,,,,,,,,,,,,,,,,,"MET11401/19/14 15:51:02 METAR KAVX 192351Z 14004KT 10SM CLR 22/M12 A3009 RMK AO2 SLP166 T02221122 10239 20206 56007 TSNO","FM-15","7",,,,,,,,,,,,,,,,,,,,,,,,,,,,
"72292023191","2014-01-19T16:51:00","FM-15","7",,,,,,,,,,,,,,,,,,,,,,,,,,,,,,,,,,,,,,"30.09","24","67","0.00",,,,"20","30.03","CLR:00","28.39","10.00","48","000",,"0",,,,,,,,,,,,,,,,,,,,,,,,,,,,,,,,,,,,,"MET09601/19/14 16:51:01 METAR KAVX 200051Z 00000KT 10SM CLR 19/M04 A3009 RMK AO2 SLP169 T01941044 TSNO","FM-15","7",,,,,,,,,,,,,,,,,,,,,,,,,,,,
"72292023191","2014-01-19T17:51:00","FM-15","7",,,,,,,,,,,,,,,,,,,,,,,,,,,,,,,,,,,,,,"30.10","12","67","0.00",,,,"12","30.04","CLR:00","28.40","10.00","45","130",,"6",,,,,,,,,,,,,,,,,,,,,,,,,,,,,,,,,,,,,"MET09601/19/14 17:51:01 METAR KAVX 200151Z 13005KT 10SM CLR 19/M11 A3010 RMK AO2 SLP173 T01941111 TSNO","FM-15","7",,,,,,,,,,,,,,,,,,,,,,,,,,,,
"72292023191","2014-01-19T18:51:00","FM-15","7",,,,,,,,,,,,,,,,,,,,,,,,,,,,,,,,,,,,,,"30.11","6","66","0.00",,"-0.01","3","9","30.05","CLR:00","28.41","10.00","44","130",,"6",,,,,,,,,,,,,,,,,,,,,,,,,,,,,,,,,,,,,"MET10201/19/14 18:51:01 METAR KAVX 200251Z 13005KT 10SM CLR 19/M14 A3011 RMK AO2 SLP176 T01891144 53005 TSNO","FM-15","7",,,,,,,,,,,,,,,,,,,,,,,,,,,,
"72292023191","2014-01-19T19:51:00","FM-15","7",,,,,,,,,,,,,,,,,,,,,,,,,,,,,,,,,,,,,,"30.11","5","66","0.00",,,,"9","30.06","CLR:00","28.41","10.00","43","130",,"7",,,,,,,,,,,,,,,,,,,,,,,,,,,,,,,,,,,,,"MET09601/19/14 19:51:02 METAR KAVX 200351Z 13006KT 10SM CLR 19/M15 A3011 RMK AO2 SLP178 T01891150 TSNO","FM-15","7",,,,,,,,,,,,,,,,,,,,,,,,,,,,
"72292023191","2014-01-19T20:51:00","FM-15","7",,,,,,,,,,,,,,,,,,,,,,,,,,,,,,,,,,,,,,"30.12","3","66","0.00",,,,"8","30.05","CLR:00","28.42","10.00","43","130",,"5",,,,,,,,,,,,,,,,,,,,,,,,,,,,,,,,,,,,,"MET09601/19/14 20:51:02 METAR KAVX 200451Z 13004KT 10SM CLR 19/M16 A3012 RMK AO2 SLP177 T01891161 TSNO","FM-15","7",,,,,,,,,,,,,,,,,,,,,,,,,,,,
"72292023191","2014-01-19T21:51:00","FM-15","7",,,,,,,,,,,,,,,,,,,,,,,,,,,,,,,,,,,,,,"30.13","18","63","0.00",,"-0.03","3","17","30.08","CLR:00","28.43","10.00","44","000",,"0",,,,,,,,,,,,,,,,,,,,,,,,,,,,,,,,,,,,,"MET11401/19/14 21:51:02 METAR KAVX 200551Z 00000KT 10SM CLR 17/M08 A3013 RMK AO2 SLP185 T01721078 10222 20167 53009 TSNO","FM-15","7",,,,,,,,,,,,,,,,,,,,,,,,,,,,
"72292023191","2014-01-19T22:51:00","FM-15","7",,,,,,,,,,,,,,,,,,,,,,,,,,,,,,,,,,,,,,"30.14","7","65","0.00",,,,"10","30.07","CLR:00","28.44","10.00","43","190",,"5",,,,,,,,,,,,,,,,,,,,,,,,,,,,,,,,,,,,,"MET09601/19/14 22:51:02 METAR KAVX 200651Z 19004KT 10SM CLR 18/M14 A3014 RMK AO2 SLP183 T01831139 TSNO","FM-15","7",,,,,,,,,,,,,,,,,,,,,,,,,,,,
"72292023191","2014-01-19T23:51:00","FM-15","7",,,,,,,,,,,,,,,,,,,,,,,,,,,,,,,,,,,,,,"30.13","8","65","0.00",,,,"10","30.07","CLR:00","28.43","10.00","43","130",,"3",,,,,,,,,,,,,,,,,,,,,,,,,,,,,,,,,,,,,"MET10601/19/14 23:51:02 METAR KAVX 200751Z 13003KT 10SM CLR 18/M13 A3013 RMK AO2 SLP182 T01831133 402390167 TSNO","FM-15","7",,,,,,,,,,,,,,,,,,,,,,,,,,,,
"72292023191","2014-01-19T23:59:00","SOD  ","6",,,,,,,,,,,,,,,,"69",,,"28.41",,"3.2","4","13.9","0","75","62","130","10","0.00",,,"140","7",,,,,,,,,,,,,,,,,,,,,,,,,,,,,,,,,,,,,,,,,,,,,,,,,,,,,,,,,"SOD73024 HR PRECIPITATION (IN):0.00  24 HR MAX TEMP (F):75 24 HR MAX TEMP TIME (LST):1138 24 HR MIN TEMP (F):62 24 HR MIN TEMP TIME (LST):2150 AVERAGE STATION PRESSURE:28.410 MINIMUM SEA LEVEL PRESSURE:30.01 TIME OF OCCURRENCE:0446 PEAK WIND SPEED (MPH):10  PEAK WIND DIR (DEG):130 PEAK WIND TIME (LST):1555  FASTEST 2MIN SPEED (MPH):7  FASTEST 2MIN DIR (DEG):140 FASTEST 2MIN TIME (LST):2021 AVERAGE WIND SPEED (MPH):3.2  24 HR AVG TEMP (F):69 HEATING DEGREE DAYS:0   COOLING DEGREE DAYS:4   LATEST DAY MAX TEMP (0700-1900 LST):75  LATEST NIGHT MIN TEMP(1900-0800 LST):65 HOURLY INCREMENTAL PRECIPITATION VALUES (IN):.00 0.00 0.00 0.00 0.00 0.00 0.00 0.00 0.00 0.00 0.00 0.00 0.00 0.00 0.00 0.00 0.00 0.00 0.00 0.00 0.00 0.00 0.00 0.00","SOD  ","6",,,,,,,,,,,,,,,,,,,,,,,,,"0657","1713",,
"72292023191","2014-01-20T00:51:00","FM-15","7",,,,,,,,,,,,,,,,,,,,,,,,,,,,,,,,,,,,,,"30.13","8","64","0.00",,"+0.00","8","11","30.07","CLR:00","28.43","10.00","43","000",,"0",,,,,,,,,,,,,,,,,,,,,,,,,,,,,,,,,,,,,"MET10201/20/14 00:51:02 METAR KAVX 200851Z 00000KT 10SM CLR 18/M13 A3013 RMK AO2 SLP182 T01781133 58001 TSNO","FM-15","7",,,,,,,,,,,,,,,,,,,,,,,,,,,,
"72292023191","2014-01-20T01:51:00","FM-15","7",,,,,,,,,,,,,,,,,,,,,,,,,,,,,,,,,,,,,,"30.13","9","62","0.00",,,,"12","30.07","CLR:00","28.43","10.00","42","000",,"0",,,,,,,,,,,,,,,,,,,,,,,,,,,,,,,,,,,,,"MET09601/20/14 01:51:02 METAR KAVX 200951Z 00000KT 10SM CLR 17/M13 A3013 RMK AO2 SLP183 T01671128 TSNO","FM-15","7",,,,,,,,,,,,,,,,,,,,,,,,,,,,
"72292023191","2014-01-20T02:51:00","FM-15","7",,,,,,,,,,,,,,,,,,,,,,,,,,,,,,,,,,,,,,"30.13","10","62","0.00",,,,"13","30.07","CLR:00","28.43","10.00","42","070",,"5",,,,,,,,,,,,,,,,,,,,,,,,,,,,,,,,,,,,,"MET09601/20/14 02:51:02 METAR KAVX 201051Z 07004KT 10SM CLR 17/M12 A3013 RMK AO2 SLP183 T01671122 TSNO","FM-15","7",,,,,,,,,,,,,,,,,,,,,,,,,,,,
"72292023191","2014-01-20T03:51:00","FM-15","7",,,,,,,,,,,,,,,,,,,,,,,,,,,,,,,,,,,,,,"30.12","8","61","0.00",,"+0.01","8","12","30.06","CLR:00","28.42","10.00","41","100",,"7",,,,,,,,,,,,,,,,,,,,,,,,,,,,,,,,,,,,,"MET11401/20/14 03:51:02 METAR KAVX 201151Z 10006KT 10SM CLR 16/M13 A3012 RMK AO2 SLP180 T01611133 10194 20161 58004 TSNO","FM-15","7",,,,,,,,,,,,,,,,,,,,,,,,,,,,
"72292023191","2014-01-20T04:51:00","FM-15","7",,,,,,,,,,,,,,,,,,,,,,,,,,,,,,,,,,,,,,"30.12","7","60","0.00",,,,"12","30.07","CLR:00","28.42","10.00","41","090",,"7",,,,,,,,,,,,,,,,,,,,,,,,,,,,,,,,,,,,,"MET09601/20/14 04:51:02 METAR KAVX 201251Z 09006KT 10SM CLR 16/M14 A3012 RMK AO2 SLP183 T01561139 TSNO","FM-15","7",,,,,,,,,,,,,,,,,,,,,,,,,,,,
"72292023191","2014-01-20T05:51:00","FM-15","7",,,,,,,,,,,,,,,,,,,,,,,,,,,,,,,,,,,,,,"30.14","14","63","0.00",,,,"15","30.08","CLR:00","28.44","10.00","43","110",,"5",,,,,,,,,,,,,,,,,,,,,,,,,,,,,,,,,,,,,"MET09601/20/14 05:51:02 METAR KAVX 201351Z 11004KT 10SM CLR 17/M10 A3014 RMK AO2 SLP187 T01721100 TSNO","FM-15","7",,,,,,,,,,,,,,,,,,,,,,,,,,,,
"72292023191","2014-01-20T06:51:00","FM-15","7",,,,,,,,,,,,,,,,,,,,,,,,,,,,,,,,,,,,,,"30.14","15","63","0.00",,"-0.02","3","15","30.09","CLR:00","28.44","10.00","44","110",,"5",,,,,,,,,,,,,,,,,,,,,,,,,,,,,,,,,,,,,"MET10201/20/14 06:51:02 METAR KAVX 201451Z 11004KT 10SM CLR 17/M09 A3014 RMK AO2 SLP189 T01721094 53007 TSNO","FM-15","7",,,,,,,,,,,,,,,,,,,,,,,,,,,,
"72292023191","2014-01-20T07:51:00","FM-15","7",,,,,,,,,,,,,,,,,,,,,,,,,,,,,,,,,,,,,,"30.15","16","65","0.00",,,,"15","30.10","CLR:00","28.45","10.00","45","000",,"0",,,,,,,,,,,,,,,,,,,,,,,,,,,,,,,,,,,,,"MET09601/20/14 07:51:02 METAR KAVX 201551Z 00000KT 10SM CLR 18/M09 A3015 RMK AO2 SLP192 T01831089 TSNO","FM-15","7",,,,,,,,,,,,,,,,,,,,,,,,,,,,
"72292023191","2014-01-20T08:51:00","FM-15","7",,,,,,,,,,,,,,,,,,,,,,,,,,,,,,,,,,,,,,"30.17","15","70","0.00",,,,"12","30.11","CLR:00","28.47","10.00","47","000",,"0",,,,,,,,,,,,,,,,,,,,,,,,,,,,,,,,,,,,,"MET09601/20/14 08:51:02 METAR KAVX 201651Z 00000KT 10SM CLR 21/M09 A3017 RMK AO2 SLP196 T02111094 TSNO","FM-15","7",,,,,,,,,,,,,,,,,,,,,,,,,,,,
"72292023191","2014-01-20T09:51:00","FM-15","7",,,,,,,,,,,,,,,,,,,,,,,,,,,,,,,,,,,,,,"30.19","17","71","0.00",,"-0.04","3","13","30.13","CLR:00","28.48","10.00","48","090",,"6",,,,,,,,,,,,,,,,,,,,,,,,,,,,,,,,,,,,,"MET11401/20/14 09:51:02 METAR KAVX 201751Z 09005KT 10SM CLR 22/M08 A3019 RMK AO2 SLP203 T02171083 10222 20150 53015 TSNO","FM-15","7",,,,,,,,,,,,,,,,,,,,,,,,,,,,
"72292023191","2014-01-20T10:51:00","FM-15","7",,,,,,,,,,,,,,,,,,,,,,,,,,,,,,,,,,,,,,"30.19","13","73","0.00",,,,"10","30.12","CLR:00","28.48","10.00","48","VRB",,"3",,,,,,,,,,,,,,,,,,,,,,,,,,,,,,,,,,,,,"MET09601/20/14 10:51:02 METAR KAVX 201851Z VRB03KT 10SM CLR 23/M11 A3019 RMK AO2 SLP199 T02281106 TSNO","FM-15","7",,,,,,,,,,,,,,,,,,,,,,,,,,,,
"72292023191","2014-01-20T11:51:00","FM-15","7",,,,,,,,,,,,,,,,,,,,,,,,,,,,,,,,,,,,,,"30.17","14","73","0.00",,,,"10","30.10","CLR:00","28.47","10.00","48","000",,"0",,,,,,,,,,,,,,,,,,,,,,,,,,,,,,,,,,,,,"MET09601/20/14 11:51:02 METAR KAVX 201951Z 00000KT 10SM CLR 23/M10 A3017 RMK AO2 SLP193 T02281100 TSNO","FM-15","7",,,,,,,,,,,,,,,,,,,,,,,,,,,,
"72292023191","2014-01-20T12:51:00","FM-15","7",,,,,,,,,,,,,,,,,,,,,,,,,,,,,,,,,,,,,,"30.14","10","73","0.00",,,,"9","30.07",,"28.44","10.00","47","040",,"6",,,,,,,,,,,,,,,,,,,,,,,,,,,,,,,,,,,,,"MET09401/20/14 12:51:02 METAR KAVX 202051Z 04005KT 10SM 23/M12 A3014 RMK AO2 SLP184 T02281122 TSNO $","FM-15","7",,,,,,,,,,,,,,,,,,,,,,,,,,,,
"72292023191","2014-01-20T13:51:00","FM-15","7",,,,,,,,,,,,,,,,,,,,,,,,,,,,,,,,,,,,,,"30.13","9","73","0.00",,,,"8","30.06","CLR:00","28.43","10.00","47","010",,"5",,,,,,,,,,,,,,,,,,,,,,,,,,,,,,,,,,,,,"MET09801/20/14 13:51:02 METAR KAVX 202151Z 01004KT 10SM CLR 23/M13 A3013 RMK AO2 SLP181 T02281128 TSNO $","FM-15","7",,,,,,,,,,,,,,,,,,,,,,,,,,,,
"72292023191","2014-01-20T14:51:00","FM-15","7",,,,,,,,,,,,,,,,,,,,,,,,,,,,,,,,,,,,,,"30.13","7","74","0.00",,,,"7","30.06","CLR:00","28.43","10.00","48","VRB",,"3",,,,,,,,,,,,,,,,,,,,,,,,,,,,,,,,,,,,,"MET09801/20/14 14:51:02 METAR KAVX 202251Z VRB03KT 10SM CLR 23/M14 A3013 RMK AO2 SLP181 T02331139 TSNO $","FM-15","7",,,,,,,,,,,,,,,,,,,,,,,,,,,,
"72292023191","2014-01-20T15:51:00","FM-15","7",,,,,,,,,,,,,,,,,,,,,,,,,,,,,,,,,,,,,,"30.14","17","71","0.00",,"+0.00","5","13","30.08","CLR:00","28.44","10.00","48","280",,"3",,,,,,,,,,,,,,,,,,,,,,,,,,,,,,,,,,,,,"MET11601/20/14 15:51:02 METAR KAVX 202351Z 28003KT 10SM CLR 22/M08 A3014 RMK AO2 SLP186 T02171083 10239 20211 55001 TSNO $","FM-15","7",,,,,,,,,,,,,,,,,,,,,,,,,,,,
"72292023191","2014-01-20T16:51:00","FM-15","7",,,,,,,,,,,,,,,,,,,,,,,,,,,,,,,,,,,,,,"30.14","19","68","0.00",,,,"15","30.09","CLR:00","28.44","10.00","47","260",,"6",,,,,,,,,,,,,,,,,,,,,,,,,,,,,,,,,,,,,"MET09801/20/14 16:51:01 METAR KAVX 210051Z 26005KT 10SM CLR 20/M07 A3014 RMK AO2 SLP191 T02001072 TSNO $","FM-15","7",,,,,,,,,,,,,,,,,,,,,,,,,,,,
"72292023191","2014-01-20T17:51:00","FM-15","7",,,,,,,,,,,,,,,,,,,,,,,,,,,,,,,,,,,,,,"30.16","10","66","0.00",,,,"11","30.11","CLR:00","28.46","10.00","44","270",,"7",,,,,,,,,,,,,,,,,,,,,,,,,,,,,,,,,,,,,"MET09801/20/14 17:51:01 METAR KAVX 210151Z 27006KT 10SM CLR 19/M12 A3016 RMK AO2 SLP195 T01891122 TSNO $","FM-15","7",,,,,,,,,,,,,,,,,,,,,,,,,,,,
"72292023191","2014-01-20T18:51:00","FM-15","7",,,,,,,,,,,,,,,,,,,,,,,,,,,,,,,,,,,,,,"30.17","6","68","0.00",,"-0.03","3","9","30.11","CLR:00","28.47","10.00","45","290",,"6",,,,,,,,,,,,,,,,,,,,,,,,,,,,,,,,,,,,,"MET10401/20/14 18:51:01 METAR KAVX 210251Z 29005KT 10SM CLR 20/M14 A3017 RMK AO2 SLP198 T02001144 53011 TSNO $","FM-15","7",,,,,,,,,,,,,,,,,,,,,,,,,,,,
"72292023191","2014-01-20T19:51:00","FM-15","7",,,,,,,,,,,,,,,,,,,,,,,,,,,,,,,,,,,,,,"30.18","6","67","0.00",,,,"9","30.13","CLR:00","28.48","10.00","44","300",,"5",,,,,,,,,,,,,,,,,,,,,,,,,,,,,,,,,,,,,"MET09801/20/14 19:51:02 METAR KAVX 210351Z 30004KT 10SM CLR 19/M14 A3018 RMK AO2 SLP202 T01941144 TSNO $","FM-15","7",,,,,,,,,,,,,,,,,,,,,,,,,,,,
"72292023191","2014-01-20T20:51:00","FM-15","7",,,,,,,,,,,,,,,,,,,,,,,,,,,,,,,,,,,,,,"30.20","8","64","0.00",,,,"11","30.14","CLR:00","28.50","10.00","43","320",,"7",,,,,,,,,,,,,,,,,,,,,,,,,,,,,,,,,,,,,"MET09801/20/14 20:51:02 METAR KAVX 210451Z 32006KT 10SM CLR 18/M13 A3020 RMK AO2 SLP207 T01781133 TSNO $","FM-15","7",,,,,,,,,,,,,,,,,,,,,,,,,,,,
"72292023191","2014-01-20T21:51:00","FM-15","7",,,,,,,,,,,,,,,,,,,,,,,,,,,,,,,,,,,,,,"30.22","7","65","0.00",,"-0.04","3","10","30.15","CLR:00","28.51","10.00","43","320",,"7",,,,,,,,,,,,,,,,,,,,,,,,,,,,,,,,,,,,,"MET11601/20/14 21:51:02 METAR KAVX 210551Z 32006KT 10SM CLR 18/M14 A3022 RMK AO2 SLP211 T01831139 10217 20172 53015 TSNO $","FM-15","7",,,,,,,,,,,,,,,,,,,,,,,,,,,,
"72292023191","2014-01-20T22:51:00","FM-15","7",,,,,,,,,,,,,,,,,,,,,,,,,,,,,,,,,,,,,,"30.22","6","66","0.00",,,,"9","30.15","CLR:00","28.51","10.00","44","310",,"6",,,,,,,,,,,,,,,,,,,,,,,,,,,,,,,,,,,,,"MET09601/20/14 22:51:02 METAR KAVX 210651Z 31005KT 10SM CLR 19/M14 A3022 RMK AO2 SLP211 T01891144 TSNO","FM-15","7",,,,,,,,,,,,,,,,,,,,,,,,,,,,
"72292023191","2014-01-20T23:51:00","FM-15","7",,,,,,,,,,,,,,,,,,,,,,,,,,,,,,,,,,,,,,"30.21","8","65","0.00",,,,"10","30.14","CLR:00","28.51","10.00","43","300",,"5",,,,,,,,,,,,,,,,,,,,,,,,,,,,,,,,,,,,,"MET10601/20/14 23:51:02 METAR KAVX 210751Z 30004KT 10SM CLR 18/M13 A3021 RMK AO2 SLP207 T01831133 402390150 TSNO","FM-15","7",,,,,,,,,,,,,,,,,,,,,,,,,,,,
"72292023191","2014-01-20T23:59:00","SOD  ","6",,,,,,,,,,,,,,,,"67",,,"28.46",,"4.2","2","12.0","0","75","59","320","9","0.00",,,"320","8",,,,,,,,,,,,,,,,,,,,,,,,,,,,,,,,,,,,,,,,,,,,,,,,,,,,,,,,,"SOD73024 HR PRECIPITATION (IN):0.00  24 HR MAX TEMP (F):75 24 HR MAX TEMP TIME (LST):1207 24 HR MIN TEMP (F):59 24 HR MIN TEMP TIME (LST):0422 AVERAGE STATION PRESSURE:28.455 MINIMUM SEA LEVEL PRESSURE:30.06 TIME OF OCCURRENCE:1444 PEAK WIND SPEED (MPH):9   PEAK WIND DIR (DEG):320 PEAK WIND TIME (LST):2134  FASTEST 2MIN SPEED (MPH):8  FASTEST 2MIN DIR (DEG):320 FASTEST 2MIN TIME (LST):2145 AVERAGE WIND SPEED (MPH):4.2  24 HR AVG TEMP (F):67 HEATING DEGREE DAYS:0   COOLING DEGREE DAYS:2   LATEST DAY MAX TEMP (0700-1900 LST):75  LATEST NIGHT MIN TEMP(1900-0800 LST):59 HOURLY INCREMENTAL PRECIPITATION VALUES (IN):.00 0.00 0.00 0.00 0.00 0.00 0.00 0.00 0.00 0.00 0.00 0.00 0.00 0.00 0.00 0.00 0.00 0.00 0.00 0.00 0.00 0.00 0.00 0.00","SOD  ","6",,,,,,,,,,,,,,,,,,,,,,,,,"0656","1714",,
"72292023191","2014-01-21T00:51:00","FM-15","7",,,,,,,,,,,,,,,,,,,,,,,,,,,,,,,,,,,,,,"30.20","5","66","0.00",,"+0.02","8","9","30.13","CLR:00","28.50","10.00","43","290",,"6",,,,,,,,,,,,,,,,,,,,,,,,,,,,,,,,,,,,,"MET10201/21/14 00:51:02 METAR KAVX 210851Z 29005KT 10SM CLR 19/M15 A3020 RMK AO2 SLP203 T01891150 58006 TSNO","FM-15","7",,,,,,,,,,,,,,,,,,,,,,,,,,,,
"72292023191","2014-01-21T01:51:00","FM-15","7",,,,,,,,,,,,,,,,,,,,,,,,,,,,,,,,,,,,,,"30.20","5","68","0.00",,,,"8","30.13","CLR:00","28.50","10.00","44","290",,"6",,,,,,,,,,,,,,,,,,,,,,,,,,,,,,,,,,,,,"MET09601/21/14 01:51:02 METAR KAVX 210951Z 29005KT 10SM CLR 20/M15 A3020 RMK AO2 SLP203 T02001150 TSNO","FM-15","7",,,,,,,,,,,,,,,,,,,,,,,,,,,,
"72292023191","2014-01-21T02:51:00","FM-15","7",,,,,,,,,,,,,,,,,,,,,,,,,,,,,,,,,,,,,,"30.19","8","68","0.00",,,,"9","30.11","CLR:00","28.48","10.00","45","310",,"5",,,,,,,,,,,,,,,,,,,,,,,,,,,,,,,,,,,,,"MET09601/21/14 02:51:02 METAR KAVX 211051Z 31004KT 10SM CLR 20/M13 A3019 RMK AO2 SLP198 T02001133 TSNO","FM-15","7",,,,,,,,,,,,,,,,,,,,,,,,,,,,
"72292023191","2014-01-21T03:51:00","FM-15","7",,,,,,,,,,,,,,,,,,,,,,,,,,,,,,,,,,,,,,"30.17","11","68","0.00",,"+0.02","8","11","30.10","CLR:00","28.47","10.00","45","340",,"7",,,,,,,,,,,,,,,,,,,,,,,,,,,,,,,,,,,,,"MET11401/21/14 03:51:02 METAR KAVX 211151Z 34006KT 10SM CLR 20/M12 A3017 RMK AO2 SLP194 T02001117 10200 20183 58008 TSNO","FM-15","7",,,,,,,,,,,,,,,,,,,,,,,,,,,,
"72292023191","2014-01-21T04:51:00","FM-15","7",,,,,,,,,,,,,,,,,,,,,,,,,,,,,,,,,,,,,,"30.17","12","68","0.00",,,,"11","30.11","CLR:00","28.47","10.00","45","330",,"3",,,,,,,,,,,,,,,,,,,,,,,,,,,,,,,,,,,,,"MET09601/21/14 04:51:02 METAR KAVX 211251Z 33003KT 10SM CLR 20/M11 A3017 RMK AO2 SLP195 T02001111 TSNO","FM-15","7",,,,,,,,,,,,,,,,,,,,,,,,,,,,
"72292023191","2014-01-21T05:51:00","FM-15","7",,,,,,,,,,,,,,,,,,,,,,,,,,,,,,,,,,,,,,"30.18","9","70","0.00",,,,"9","30.11","CLR:00","28.48","10.00","46","000",,"0",,,,,,,,,,,,,,,,,,,,,,,,,,,,,,,,,,,,,"MET09601/21/14 05:51:02 METAR KAVX 211351Z 00000KT 10SM CLR 21/M13 A3018 RMK AO2 SLP197 T02111128 TSNO","FM-15","7",,,,,,,,,,,,,,,,,,,,,,,,,,,,
"72292023191","2014-01-21T06:51:00","FM-15","7",,,,,,,,,,,,,,,,,,,,,,,,,,,,,,,,,,,,,,"30.18","10","69","0.00",,"-0.00","3","10","30.11","CLR:00","28.48","10.00","46","030",,"5",,,,,,,,,,,,,,,,,,,,,,,,,,,,,,,,,,,,,"MET10201/21/14 06:51:02 METAR KAVX 211451Z 03004KT 10SM CLR 21/M12 A3018 RMK AO2 SLP197 T02061122 53001 TSNO","FM-15","7",,,,,,,,,,,,,,,,,,,,,,,,,,,,
"72292023191","2014-01-21T07:51:00","FM-15","7",,,,,,,,,,,,,,,,,,,,,,,,,,,,,,,,,,,,,,"30.18","11","70","0.00",,,,"10","30.12","CLR:00","28.48","10.00","46","070",,"3",,,,,,,,,,,,,,,,,,,,,,,,,,,,,,,,,,,,,"MET09601/21/14 07:51:02 METAR KAVX 211551Z 07003KT 10SM CLR 21/M12 A3018 RMK AO2 SLP199 T02111117 TSNO","FM-15","7",,,,,,,,,,,,,,,,,,,,,,,,,,,,
"72292023191","2014-01-21T08:51:00","FM-15","7",,,,,,,,,,,,,,,,,,,,,,,,,,,,,,,,,,,,,,"30.20","13","70","0.00",,,,"11","30.14","CLR:00","28.50","10.00","47","000",,"0",,,,,,,,,,,,,,,,,,,,,,,,,,,,,,,,,,,,,"MET09601/21/14 08:51:02 METAR KAVX 211651Z 00000KT 10SM CLR 21/M11 A3020 RMK AO2 SLP207 T02111106 TSNO","FM-15","7",,,,,,,,,,,,,,,,,,,,,,,,,,,,
"72292023191","2014-01-21T09:51:00","FM-15","7",,,,,,,,,,,,,,,,,,,,,,,,,,,,,,,,,,,,,,"30.20","14","73","0.00",,"-0.02","1","10","30.14","CLR:00","28.50","10.00","48","000",,"0",,,,,,,,,,,,,,,,,,,,,,,,,,,,,,,,,,,,,"MET11401/21/14 09:51:02 METAR KAVX 211751Z 00000KT 10SM CLR 23/M10 A3020 RMK AO2 SLP205 T02281100 10228 20194 51007 TSNO","FM-15","7",,,,,,,,,,,,,,,,,,,,,,,,,,,,
"72292023191","2014-01-21T10:51:00","FM-15","7",,,,,,,,,,,,,,,,,,,,,,,,,,,,,,,,,,,,,,"30.19","13","72","0.00",,,,"10","30.12","CLR:00","28.48","10.00","48","260",,"5",,,,,,,,,,,,,,,,,,,,,,,,,,,,,,,,,,,,,"MET09601/21/14 10:51:02 METAR KAVX 211851Z 26004KT 10SM CLR 22/M11 A3019 RMK AO2 SLP201 T02221106 TSNO","FM-15","7",,,,,,,,,,,,,,,,,,,,,,,,,,,,
"72292023191","2014-01-21T11:51:00","FM-15","7",,,,,,,,,,,,,,,,,,,,,,,,,,,,,,,,,,,,,,"30.16","11","73","0.00",,,,"9","30.09","CLR:00","28.46","10.00","48","280",,"5",,,,,,,,,,,,,,,,,,,,,,,,,,,,,,,,,,,,,"MET09601/21/14 11:51:02 METAR KAVX 211951Z 28004KT 10SM CLR 23/M12 A3016 RMK AO2 SLP190 T02281117 TSNO","FM-15","7",,,,,,,,,,,,,,,,,,,,,,,,,,,,
"72292023191","2014-01-21T12:51:00","FM-15","7",,,,,,,,,,,,,,,,,,,,,,,,,,,,,,,,,,,,,,"30.14","16","73","0.00",,"+0.06","8","11","30.07","CLR:00","28.44","10.00","49","250",,"6",,,,,,,,,,,,,,,,,,,,,,,,,,,,,,,,,,,,,"MET10201/21/14 12:51:02 METAR KAVX 212051Z 25005KT 10SM CLR 23/M09 A3014 RMK AO2 SLP182 T02281089 58021 TSNO","FM-15","7",,,,,,,,,,,,,,,,,,,,,,,,,,,,
"72292023191","2014-01-21T13:51:00","FM-15","7",,,,,,,,,,,,,,,,,,,,,,,,,,,,,,,,,,,,,,"30.12","11","73","0.00",,,,"9","30.04","CLR:00","28.42","10.00","48","320",,"3",,,,,,,,,,,,,,,,,,,,,,,,,,,,,,,,,,,,,"MET09601/21/14 13:51:02 METAR KAVX 212151Z 32003KT 10SM CLR 23/M12 A3012 RMK AO2 SLP174 T02281117 TSNO","FM-15","7",,,,,,,,,,,,,,,,,,,,,,,,,,,,
"72292023191","2014-01-21T14:51:00","FM-15","7",,,,,,,,,,,,,,,,,,,,,,,,,,,,,,,,,,,,,,"30.12","12","72","0.00",,,,"10","30.05","CLR:00","28.42","10.00","47","020",,"3",,,,,,,,,,,,,,,,,,,,,,,,,,,,,,,,,,,,,"MET09601/21/14 14:51:02 METAR KAVX 212251Z 02003KT 10SM CLR 22/M11 A3012 RMK AO2 SLP175 T02221111 TSNO","FM-15","7",,,,,,,,,,,,,,,,,,,,,,,,,,,,
"72292023191","2014-01-21T15:51:00","FM-15","7",,,,,,,,,,,,,,,,,,,,,,,,,,,,,,,,,,,,,,"30.12","7","71","0.00",,"+0.01","5","8","30.06","CLR:00","28.42","10.00","46","330",,"3",,,,,,,,,,,,,,,,,,,,,,,,,,,,,,,,,,,,,"MET11401/21/14 15:51:02 METAR KAVX 212351Z 33003KT 10SM CLR 22/M14 A3012 RMK AO2 SLP178 T02171139 10228 20217 55004 TSNO","FM-15","7",,,,,,,,,,,,,,,,,,,,,,,,,,,,
"72292023191","2014-01-21T16:51:00","FM-15","7",,,,,,,,,,,,,,,,,,,,,,,,,,,,,,,,,,,,,,"30.12","7","70","0.00",,,,"8","30.06","CLR:00","28.42","10.00","46","330",,"5",,,,,,,,,,,,,,,,,,,,,,,,,,,,,,,,,,,,,"MET09601/21/14 16:51:01 METAR KAVX 220051Z 33004KT 10SM CLR 21/M14 A3012 RMK AO2 SLP178 T02111139 TSNO","FM-15","7",,,,,,,,,,,,,,,,,,,,,,,,,,,,
"72292023191","2014-01-21T17:51:00","FM-15","7",,,,,,,,,,,,,,,,,,,,,,,,,,,,,,,,,,,,,,"30.13","9","71","0.00",,,,"9","30.06","CLR:00","28.43","10.00","46","320",,"5",,,,,,,,,,,,,,,,,,,,,,,,,,,,,,,,,,,,,"MET09601/21/14 17:51:01 METAR KAVX 220151Z 32004KT 10SM CLR 22/M13 A3013 RMK AO2 SLP178 T02171128 TSNO","FM-15","7",,,,,,,,,,,,,,,,,,,,,,,,,,,,
"72292023191","2014-01-21T18:51:00","FM-15","7",,,,,,,,,,,,,,,,,,,,,,,,,,,,,,,,,,,,,,"30.12","9","70","0.00",,"+0.00","8","9","30.05","CLR:00","28.42","10.00","46","340",,"7",,,,,,,,,,,,,,,,,,,,,,,,,,,,,,,,,,,,,"MET10201/21/14 18:51:01 METAR KAVX 220251Z 34006KT 10SM CLR 21/M13 A3012 RMK AO2 SLP177 T02111128 58001 TSNO","FM-15","7",,,,,,,,,,,,,,,,,,,,,,,,,,,,
"72292023191","2014-01-21T19:51:00","FM-15","7",,,,,,,,,,,,,,,,,,,,,,,,,,,,,,,,,,,,,,"30.13","8","70","0.00",,,,"9","30.06","CLR:00","28.43","10.00","46","300",,"6",,,,,,,,,,,,,,,,,,,,,,,,,,,,,,,,,,,,,"MET09601/21/14 19:51:02 METAR KAVX 220351Z 30005KT 10SM CLR 21/M13 A3013 RMK AO2 SLP179 T02111133 TSNO","FM-15","7",,,,,,,,,,,,,,,,,,,,,,,,,,,,
"72292023191","2014-01-21T20:51:00","FM-15","7",,,,,,,,,,,,,,,,,,,,,,,,,,,,,,,,,,,,,,"30.13","7","70","0.00",,,,"8","30.06","CLR:00","28.43","10.00","46","290",,"3",,,,,,,,,,,,,,,,,,,,,,,,,,,,,,,,,,,,,"MET09601/21/14 20:51:02 METAR KAVX 220451Z 29003KT 10SM CLR 21/M14 A3013 RMK AO2 SLP178 T02111139 TSNO","FM-15","7",,,,,,,,,,,,,,,,,,,,,,,,,,,,
"72292023191","2014-01-21T21:51:00","FM-15","7",,,,,,,,,,,,,,,,,,,,,,,,,,,,,,,,,,,,,,"30.13","9","69","0.00",,"-0.00","1","9","30.05","CLR:00","28.43","10.00","45","290",,"5",,,,,,,,,,,,,,,,,,,,,,,,,,,,,,,,,,,,,"MET11401/21/14 21:51:02 METAR KAVX 220551Z 29004KT 10SM CLR 21/M13 A3013 RMK AO2 SLP177 T02061128 10222 20189 51001 TSNO","FM-15","7",,,,,,,,,,,,,,,,,,,,,,,,,,,,
"72292023191","2014-01-21T22:51:00","FM-15","7",,,,,,,,,,,,,,,,,,,,,,,,,,,,,,,,,,,,,,"30.12","6","70","0.00",,,,"8","30.05","CLR:00","28.42","10.00","45","320",,"6",,,,,,,,,,,,,,,,,,,,,,,,,,,,,,,,,,,,,"MET09601/21/14 22:51:02 METAR KAVX 220651Z 32005KT 10SM CLR 21/M14 A3012 RMK AO2 SLP176 T02111144 TSNO","FM-15","7",,,,,,,,,,,,,,,,,,,,,,,,,,,,
"72292023191","2014-01-21T23:51:00","FM-15","7",,,,,,,,,,,,,,,,,,,,,,,,,,,,,,,,,,,,,,"30.11","11","69","0.00",,,,"10","30.04","CLR:00","28.41","10.00","46","300",,"3",,,,,,,,,,,,,,,,,,,,,,,,,,,,,,,,,,,,,"MET10601/21/14 23:51:02 METAR KAVX 220751Z 30003KT 10SM CLR 21/M12 A3011 RMK AO2 SLP172 T02061117 402280189 TSNO","FM-15","7",,,,,,,,,,,,,,,,,,,,,,,,,,,,
"72292023191","2014-01-21T23:59:00","SOD  ","6",,,,,,,,,,,,,,,,"70",,,"28.45",,"4.1","5","15.0","0","73","66","340","12","0.00",,,"270","8",,,,,,,,,,,,,,,,,,,,,,,,,,,,,,,,,,,,,,,,,,,,,,,,,,,,,,,,,"SOD73024 HR PRECIPITATION (IN):0.00  24 HR MAX TEMP (F):73 24 HR MAX TEMP TIME (LST):1357 24 HR MIN TEMP (F):66 24 HR MIN TEMP TIME (LST):2116 AVERAGE STATION PRESSURE:28.450 MINIMUM SEA LEVEL PRESSURE:30.04 TIME OF OCCURRENCE:2359 PEAK WIND SPEED (MPH):12  PEAK WIND DIR (DEG):340 PEAK WIND TIME (LST):1844  FASTEST 2MIN SPEED (MPH):8  FASTEST 2MIN DIR (DEG):270 FASTEST 2MIN TIME (LST):1942 AVERAGE WIND SPEED (MPH):4.1  24 HR AVG TEMP (F):70 HEATING DEGREE DAYS:0   COOLING DEGREE DAYS:5   LATEST DAY MAX TEMP (0700-1900 LST):73  LATEST NIGHT MIN TEMP(1900-0800 LST):63 HOURLY INCREMENTAL PRECIPITATION VALUES (IN):.00 0.00 0.00 0.00 0.00 0.00 0.00 0.00 0.00 0.00 0.00 0.00 0.00 0.00 0.00 0.00 0.00 0.00 0.00 0.00 0.00 0.00 0.00 0.00","SOD  ","6",,,,,,,,,,,,,,,,,,,,,,,,,"0656","1715",,
"72292023191","2014-01-22T00:51:00","FM-15","7",,,,,,,,,,,,,,,,,,,,,,,,,,,,,,,,,,,,,,"30.10","11","69",,,"+0.02","8","10","30.03","CLR:00","28.40","10.00","46","260",,"5",,,,,,,,,,,,,,,,,,,,,,,,,,,,,,,,,,,,,"MET10201/22/14 00:51:02 METAR KAVX 220851Z 26004KT 10SM CLR 21/M12 A3010 RMK AO2 SLP168 T02061117 58008 TSNO","FM-15","7",,,,,,,,,,,,,,,,,,,,,,,,,,,,
"72292023191","2014-01-22T01:51:00","FM-15","7",,,,,,,,,,,,,,,,,,,,,,,,,,,,,,,,,,,,,,"30.08","9","69",,,,,"9","30.01","CLR:00","28.38","10.00","45","000",,"0",,,,,,,,,,,,,,,,,,,,,,,,,,,,,,,,,,,,,"MET09601/22/14 01:51:02 METAR KAVX 220951Z 00000KT 10SM CLR 21/M13 A3008 RMK AO2 SLP162 T02061128 TSNO","FM-15","7",,,,,,,,,,,,,,,,,,,,,,,,,,,,
"72292023191","2014-01-22T02:51:00","FM-15","7",,,,,,,,,,,,,,,,,,,,,,,,,,,,,,,,,,,,,,"30.06","10","68",,,,,"10","29.99","CLR:00","28.36","10.00","45","000",,"0",,,,,,,,,,,,,,,,,,,,,,,,,,,,,,,,,,,,,"MET09601/22/14 02:51:02 METAR KAVX 221051Z 00000KT 10SM CLR 20/M12 A3006 RMK AO2 SLP157 T02001122 TSNO","FM-15","7",,,,,,,,,,,,,,,,,,,,,,,,,,,,
"72292023191","2014-01-22T03:51:00","FM-15","7",,,,,,,,,,,,,,,,,,,,,,,,,,,,,,,,,,,,,,"30.05","10","68",,,"+0.04","6","10","29.98","CLR:00","28.35","10.00","45","000",,"0",,,,,,,,,,,,,,,,,,,,,,,,,,,,,,,,,,,,,"MET11401/22/14 03:51:02 METAR KAVX 221151Z 00000KT 10SM CLR 20/M12 A3005 RMK AO2 SLP154 T02001122 10222 20189 56015 TSNO","FM-15","7",,,,,,,,,,,,,,,,,,,,,,,,,,,,
"72292023191","2014-01-22T04:51:00","FM-15","7",,,,,,,,,,,,,,,,,,,,,,,,,,,,,,,,,,,,,,"30.03","9","65",,,,,"11","29.97","CLR:00","28.33","10.00","43","230",,"6",,,,,,,,,,,,,,,,,,,,,,,,,,,,,,,,,,,,,"MET09601/22/14 04:51:02 METAR KAVX 221251Z 23005KT 10SM CLR 18/M13 A3003 RMK AO2 SLP148 T01831128 TSNO","FM-15","7",,,,,,,,,,,,,,,,,,,,,,,,,,,,
"72292023191","2014-01-22T05:51:00","FM-15","7",,,,,,,,,,,,,,,,,,,,,,,,,,,,,,,,,,,,,,"30.03","10","65",,,,,"11","29.97","CLR:00","28.33","10.00","44","270",,"7",,,,,,,,,,,,,,,,,,,,,,,,,,,,,,,,,,,,,"MET09601/22/14 05:51:02 METAR KAVX 221351Z 27006KT 10SM CLR 18/M12 A3003 RMK AO2 SLP148 T01831122 TSNO","FM-15","7",,,,,,,,,,,,,,,,,,,,,,,,,,,,
"72292023191","2014-01-22T06:51:00","FM-15","7",,,,,,,,,,,,,,,,,,,,,,,,,,,,,,,,,,,,,,"30.03","11","66",,,"+0.02","5","11","29.97","CLR:00","28.33","10.00","44","310",,"3",,,,,,,,,,,,,,,,,,,,,,,,,,,,,,,,,,,,,"MET10201/22/14 06:51:02 METAR KAVX 221451Z 31003KT 10SM CLR 19/M12 A3003 RMK AO2 SLP149 T01891117 55006 TSNO","FM-15","7",,,,,,,,,,,,,,,,,,,,,,,,,,,,
"72292023191","2014-01-22T07:51:00","FM-15","7",,,,,,,,,,,,,,,,,,,,,,,,,,,,,,,,,,,,,,"30.04","10","68",,,,,"10","29.97","CLR:00","28.34","10.00","45","260",,"5",,,,,,,,,,,,,,,,,,,,,,,,,,,,,,,,,,,,,"MET09601/22/14 07:51:02 METAR KAVX 221551Z 26004KT 10SM CLR 20/M12 A3004 RMK AO2 SLP150 T02001122 TSNO","FM-15","7",,,,,,,,,,,,,,,,,,,,,,,,,,,,
"72292023191","2014-01-22T08:51:00","FM-15","7",,,,,,,,,,,,,,,,,,,,,,,,,,,,,,,,,,,,,,"30.05","13","69",,,,,"11","29.98","CLR:00","28.35","10.00","46","000",,"0",,,,,,,,,,,,,,,,,,,,,,,,,,,,,,,,,,,,,"MET09601/22/14 08:51:02 METAR KAVX 221651Z 00000KT 10SM CLR 21/M11 A3005 RMK AO2 SLP152 T02061106 TSNO","FM-15","7",,,,,,,,,,,,,,,,,,,,,,,,,,,,
"72292023191","2014-01-22T09:51:00","FM-15","7",,,,,,,,,,,,,,,,,,,,,,,,,,,,,,,,,,,,,,"30.05","26","70",,,"-0.01","0","19","29.98","CLR:00","28.35","10.00","50","000",,"0",,,,,,,,,,,,,,,,,,,,,,,,,,,,,,,,,,,,,"MET11401/22/14 09:51:02 METAR KAVX 221751Z 00000KT 10SM CLR 21/M03 A3005 RMK AO2 SLP151 T02111033 10217 20178 50004 TSNO","FM-15","7",,,,,,,,,,,,,,,,,,,,,,,,,,,,
"72292023191","2014-01-22T10:51:00","FM-15","7",,,,,,,,,,,,,,,,,,,,,,,,,,,,,,,,,,,,,,"30.04","33","71",,,,,"25","29.96","CLR:00","28.34","10.00","52","000",,"0",,,,,,,,,,,,,,,,,,,,,,,,,,,,,,,,,,,,,"MET09501/22/14 10:51:02 METAR KAVX 221851Z 00000KT 10SM CLR 22/01 A3004 RMK AO2 SLP146 T02170006 TSNO","FM-15","7",,,,,,,,,,,,,,,,,,,,,,,,,,,,
"72292023191","2014-01-22T11:51:00","FM-15","7",,,,,,,,,,,,,,,,,,,,,,,,,,,,,,,,,,,,,,"30.00","47","70",,,,,"44","29.93","CLR:00","28.30","10.00","57","280",,"5",,,,,,,,,,,,,,,,,,,,,,,,,,,,,,,,,,,,,"MET09501/22/14 11:51:02 METAR KAVX 221951Z 28004KT 10SM CLR 21/08 A3000 RMK AO2 SLP135 T02110083 TSNO","FM-15","7",,,,,,,,,,,,,,,,,,,,,,,,,,,,
"72292023191","2014-01-22T12:51:00","FM-15","7",,,,,,,,,,,,,,,,,,,,,,,,,,,,,,,,,,,,,,"29.97",,"68",,,"+0.07","8",,"29.90","CLR:00","28.27","10.00",,"290",,"5",,,,,,,,,,,,,,,,,,,,,,,,,,,,,,,,,,,,,"MET10301/22/14 12:51:02 METAR KAVX 222051Z 29004KT 10SM CLR 20/09 A2997 RMK AO2 SLP126 T02000089 58025 TSNO $","FM-15","7",,,,,,,,,,,,,,,,,,,,,,,,,,,,
"72292023191","2014-01-22T13:52:00","FM-15","7",,,,,,,,,,,,,,,,,,,,,,,,,,,,,,,,,,,,,,"29.96","43","70",,,,,"38",,,"28.27",,"55","340",,"3",,,,,,,,,,,,,,,,,,,,,,,,,,,,,,,,,,,,,"MET08701/22/14 13:52:02 METAR KAVX 222152Z 34003KT 21/06 A2996 RMK AO2 SLPNO T02110061 TSNO $","FM-15","7",,,,,,,,,,,,,,,,,,,,,,,,,,,,
"72292023191","2014-01-22T14:51:00","FM-15","7",,,,,,,,,,,,,,,,,,,,,,,,,,,,,,,,,,,,,,"29.94",,"68","0.00",,,,,,"CLR:00","28.25","10.00",,"230",,"6",,,,,,,,,,,,,,,,,,,,,,,,,,,,,,,,,,,,,"MET09601/22/14 14:51:02 METAR KAVX 222251Z 23005KT 10SM CLR 20/08 A2994 RMK AO2 SLPNO T02000078 TSNO $","FM-15","7",,,,,,,,,,,,,,,,,,,,,,,,,,,,
"72292023191","2014-01-22T15:51:00","FM-15","7",,,,,,,,,,,,,,,,,,,,,,,,,,,,,,,,,,,,,,"29.94","40","67","0.00",,,,"37",,"CLR:00","28.25","10.00","53","270",,"5",,,,,,,,,,,,,,,,,,,,,,,,,,,,,,,,,,,,,"MET10001/22/14 15:51:02 METAR KAVX 222351Z 27004KT 10SM CLR 19/04 A2994 RMK AO2 SLPNO 6//// T01940044 TSNO","FM-15","7",,,,,,,,,,,,,,,,,,,,,,,,,,,,
"72292023191","2014-01-22T16:51:00","FM-15","7",,,,,,,,,,,,,,,,,,,,,,,,,,,,,,,,,,,,,,"29.94","38","64","0.00",,,,"38",,"CLR:00","28.25","10.00","51","000",,"0",,,,,,,,,,,,,,,,,,,,,,,,,,,,,,,,,,,,,"MET09401/22/14 16:51:01 METAR KAVX 230051Z 00000KT 10SM CLR 18/03 A2994 RMK AO2 SLPNO T01780033 TSNO","FM-15","7",,,,,,,,,,,,,,,,,,,,,,,,,,,,
"72292023191","2014-01-22T17:51:00","FM-15","7",,,,,,,,,,,,,,,,,,,,,,,,,,,,,,,,,,,,,,"29.94","17","64","0.00",,,,"16",,"CLR:00","28.25","10.00","44","300",,"6",,,,,,,,,,,,,,,,,,,,,,,,,,,,,,,,,,,,,"MET09501/22/14 17:51:01 METAR KAVX 230151Z 30005KT 10SM CLR 18/M08 A2994 RMK AO2 SLPNO T01781083 TSNO","FM-15","7",,,,,,,,,,,,,,,,,,,,,,,,,,,,
"72292023191","2014-01-22T18:51:00","FM-15","7",,,,,,,,,,,,,,,,,,,,,,,,,,,,,,,,,,,,,,"29.94","17","65","0.00",,"+0.00","5","16",,"CLR:00","28.25","10.00","45","300",,"6",,,,,,,,,,,,,,,,,,,,,,,,,,,,,,,,,,,,,"MET10101/22/14 18:51:01 METAR KAVX 230251Z 30005KT 10SM CLR 18/M08 A2994 RMK AO2 SLPNO T01831083 55000 TSNO","FM-15","7",,,,,,,,,,,,,,,,,,,,,,,,,,,,
"72292023191","2014-01-22T19:51:00","FM-15","7",,,,,,,,,,,,,,,,,,,,,,,,,,,,,,,,,,,,,,"29.95","20","62","0.00",,,,"20",,"CLR:00","28.26","10.00","44","280",,"6",,,,,,,,,,,,,,,,,,,,,,,,,,,,,,,,,,,,,"MET09501/22/14 19:51:02 METAR KAVX 230351Z 28005KT 10SM CLR 17/M07 A2995 RMK AO2 SLPNO T01671067 TSNO","FM-15","7",,,,,,,,,,,,,,,,,,,,,,,,,,,,
"72292023191","2014-01-22T20:51:00","FM-15","7",,,,,,,,,,,,,,,,,,,,,,,,,,,,,,,,,,,,,,"29.95","12","63","0.00",,,,"13",,"CLR:00","28.26","10.00","43","310",,"5",,,,,,,,,,,,,,,,,,,,,,,,,,,,,,,,,,,,,"MET09501/22/14 20:51:02 METAR KAVX 230451Z 31004KT 10SM CLR 17/M11 A2995 RMK AO2 SLPNO T01721111 TSNO","FM-15","7",,,,,,,,,,,,,,,,,,,,,,,,,,,,
"72292023191","2014-01-22T21:51:00","FM-15","7",,,,,,,,,,,,,,,,,,,,,,,,,,,,,,,,,,,,,,"29.95","11","63","0.00",,"-0.01","0","13",,"CLR:00","28.26","10.00","43","290",,"3",,,,,,,,,,,,,,,,,,,,,,,,,,,,,,,,,,,,,"MET11301/22/14 21:51:02 METAR KAVX 230551Z 29003KT 10SM CLR 17/M12 A2995 RMK AO2 SLPNO T01721117 10194 20139 50003 TSNO","FM-15","7",,,,,,,,,,,,,,,,,,,,,,,,,,,,
"72292023191","2014-01-22T22:51:00","FM-15","7",,,,,,,,,,,,,,,,,,,,,,,,,,,,,,,,,,,,,,"29.96","10","64","0.00",,,,"12",,"CLR:00","28.27","10.00","43","330",,"5",,,,,,,,,,,,,,,,,,,,,,,,,,,,,,,,,,,,,"MET09501/22/14 22:51:02 METAR KAVX 230651Z 33004KT 10SM CLR 18/M12 A2996 RMK AO2 SLPNO T01781122 TSNO","FM-15","7",,,,,,,,,,,,,,,,,,,,,,,,,,,,
"72292023191","2014-01-22T23:51:00","FM-15","7",,,,,,,,,,,,,,,,,,,,,,,,,,,,,,,,,,,,,,"29.95","12","64","0.00",,,,"13",,"CLR:00","28.26","10.00","43","000",,"0",,,,,,,,,,,,,,,,,,,,,,,,,,,,,,,,,,,,,"MET10501/22/14 23:51:02 METAR KAVX 230751Z 00000KT 10SM CLR 18/M11 A2995 RMK AO2 SLPNO T01781111 402220139 TSNO","FM-15","7",,,,,,,,,,,,,,,,,,,,,,,,,,,,
"72292023191","2014-01-22T23:59:00","SOD  ","6",,,,,,,,,,,,,,,,"65",,,,,,"0","10.1","0","72","57","330","10",,,,"010","7",,,,,,,,,,,,,,,,,,,,,,,,,,,,,,,,,,,,,,,,,,,,,,,,,,,,,,,,,"SOD50024 HR MAX TEMP (F):72 24 HR MAX TEMP TIME (LST):1408 24 HR MIN TEMP (F):57 24 HR MIN TEMP TIME (LST):1934 PEAK WIND SPEED (MPH):10  PEAK WIND DIR (DEG):330 PEAK WIND TIME (LST):1359  FASTEST 2MIN SPEED (MPH):7  FASTEST 2MIN DIR (DEG):10  FASTEST 2MIN TIME (LST):2124 24 HR AVG TEMP (F):65 HEATING DEGREE DAYS:0   COOLING DEGREE DAYS:0   HOURLY INCREMENTAL PRECIPITATION VALUES (IN):    M    M    M    M    M    M    M    M    M    M    M    M    M    0.00 0.00 0.00 0.00 0.00 0.00 0.00 0.00 0.00 0.00","SOD  ","6",,,,,,,,,,,,,,,,,,,,,,,,,"0655","1716",,
"72292023191","2014-01-23T00:51:00","FM-15","7",,,,,,,,,,,,,,,,,,,,,,,,,,,,,,,,,,,,,,"29.93","17","59","0.00",,"+0.02","8","19",,"CLR:00","28.24","10.00","42","070",,"5",,,,,,,,,,,,,,,,,,,,,,,,,,,,,,,,,,,,,"MET10101/23/14 00:51:02 METAR KAVX 230851Z 07004KT 10SM CLR 15/M08 A2993 RMK AO2 SLPNO T01501083 58007 TSNO","FM-15","7",,,,,,,,,,,,,,,,,,,,,,,,,,,,
"72292023191","2014-01-23T01:51:00","FM-15","7",,,,,,,,,,,,,,,,,,,,,,,,,,,,,,,,,,,,,,"29.92","17","60","0.00",,,,"19","29.86","CLR:00","28.23","10.00","43","070",,"3",,,,,,,,,,,,,,,,,,,,,,,,,,,,,,,,,,,,,"MET09601/23/14 01:51:02 METAR KAVX 230951Z 07003KT 10SM CLR 16/M08 A2992 RMK AO2 SLP113 T01561083 TSNO","FM-15","7",,,,,,,,,,,,,,,,,,,,,,,,,,,,
"72292023191","2014-01-23T02:51:00","FM-15","7",,,,,,,,,,,,,,,,,,,,,,,,,,,,,,,,,,,,,,"29.91","13","62","0.00",,,,"14","29.86","CLR:00","28.22","10.00","43","100",,"3",,,,,,,,,,,,,,,,,,,,,,,,,,,,,,,,,,,,,"MET09601/23/14 02:51:02 METAR KAVX 231051Z 10003KT 10SM CLR 17/M11 A2991 RMK AO2 SLP112 T01671106 TSNO","FM-15","7",,,,,,,,,,,,,,,,,,,,,,,,,,,,
"72292023191","2014-01-23T03:51:00","FM-15","7",,,,,,,,,,,,,,,,,,,,,,,,,,,,,,,,,,,,,,"29.91","20","61","0.00",,"+0.02","6","20","29.86","CLR:00","28.22","10.00","44","130",,"5",,,,,,,,,,,,,,,,,,,,,,,,,,,,,,,,,,,,,"MET12001/23/14 03:51:02 METAR KAVX 231151Z 13004KT 10SM CLR 16/M07 A2991 RMK AO2 SLP111 7//// T01611067 10189 20144 56006 TSNO","FM-15","7",,,,,,,,,,,,,,,,,,,,,,,,,,,,
"72292023191","2014-01-23T04:51:00","FM-15","7",,,,,,,,,,,,,,,,,,,,,,,,,,,,,,,,,,,,,,"29.91","15","61","0.00",,,,"17","29.87","CLR:00","28.22","10.00","43","000",,"0",,,,,,,,,,,,,,,,,,,,,,,,,,,,,,,,,,,,,"MET09601/23/14 04:51:02 METAR KAVX 231251Z 00000KT 10SM CLR 16/M09 A2991 RMK AO2 SLP114 T01611094 TSNO","FM-15","7",,,,,,,,,,,,,,,,,,,,,,,,,,,,
"72292023191","2014-01-23T05:51:00","FM-15","7",,,,,,,,,,,,,,,,,,,,,,,,,,,,,,,,,,,,,,"29.93","17","58","0.00",,,,"20","29.89","CLR:00","28.24","10.00","42","160",,"6",,,,,,,,,,,,,,,,,,,,,,,,,,,,,,,,,,,,,"MET09601/23/14 05:51:02 METAR KAVX 231351Z 16005KT 10SM CLR 14/M08 A2993 RMK AO2 SLP121 T01441083 TSNO","FM-15","7",,,,,,,,,,,,,,,,,,,,,,,,,,,,
"72292023191","2014-01-23T06:51:00","FM-15","7",,,,,,,,,,,,,,,,,,,,,,,,,,,,,,,,,,,,,,"29.95","22","57","0.00",,"-0.04","3","26","29.91","CLR:00","28.26","10.00","42","130",,"3",,,,,,,,,,,,,,,,,,,,,,,,,,,,,,,,,,,,,"MET10201/23/14 06:51:02 METAR KAVX 231451Z 13003KT 10SM CLR 14/M06 A2995 RMK AO2 SLP128 T01391056 53012 TSNO","FM-15","7",,,,,,,,,,,,,,,,,,,,,,,,,,,,
"72292023191","2014-01-23T07:51:00","FM-15","7",,,,,,,,,,,,,,,,,,,,,,,,,,,,,,,,,,,,,,"29.95","28","58","0.00",,,,"32","29.92","CLR:00","28.26","10.00","45","150",,"5",,,,,,,,,,,,,,,,,,,,,,,,,,,,,,,,,,,,,"MET09601/23/14 07:51:02 METAR KAVX 231551Z 15004KT 10SM CLR 14/M02 A2995 RMK AO2 SLP132 T01441022 TSNO","FM-15","7",,,,,,,,,,,,,,,,,,,,,,,,,,,,
"72292023191","2014-01-23T08:51:00","FM-15","7",,,,,,,,,,,,,,,,,,,,,,,,,,,,,,,,,,,,,,"29.97","24","62","0.00",,,,"23","29.92","CLR:00","28.27","10.00","45","120",,"9",,,,,,,,,,,,,,,,,,,,,,,,,,,,,,,,,,,,,"MET09601/23/14 08:51:02 METAR KAVX 231651Z 12008KT 10SM CLR 17/M04 A2997 RMK AO2 SLP132 T01671044 TSNO","FM-15","7",,,,,,,,,,,,,,,,,,,,,,,,,,,,
"72292023191","2014-01-23T09:51:00","FM-15","7",,,,,,,,,,,,,,,,,,,,,,,,,,,,,,,,,,,,,,"29.99","38","58","0.00",,"-0.04","3","48","29.95","CLR:00","28.30","10.00","48","130",,"9",,,,,,,,,,,,,,,,,,,,,,,,,,,,,,,,,,,,,"MET11301/23/14 09:51:02 METAR KAVX 231751Z 13008KT 10SM CLR 14/03 A2999 RMK AO2 SLP141 T01440033 10172 20133 53012 TSNO","FM-15","7",,,,,,,,,,,,,,,,,,,,,,,,,,,,
"72292023191","2014-01-23T10:51:00","FM-15","7",,,,,,,,,,,,,,,,,,,,,,,,,,,,,,,,,,,,,,"29.99","30","63","0.00",,,,"29","29.94","CLR:00","28.30","10.00","48","VRB",,"8",,,,,,,,,,,,,,,,,,,,,,,,,,,,,,,,,,,,,"MET09601/23/14 10:51:02 METAR KAVX 231851Z 15007KT 10SM CLR 17/M01 A2999 RMK AO2 SLP138 T01721011 TSNO","FM-15","7",,,,,,,,,,,,,,,,,,,,,,,,,,,,
"72292023191","2014-01-23T11:51:00","FM-15","7",,,,,,,,,,,,,,,,,,,,,,,,,,,,,,,,,,,,,,"29.98","36","66","0.00",,,,"33","29.92","CLR:00","28.28","10.00","51","180",,"6",,,,,,,,,,,,,,,,,,,,,,,,,,,,,,,,,,,,,"MET09501/23/14 11:51:02 METAR KAVX 231951Z 18005KT 10SM CLR 19/02 A2998 RMK AO2 SLP133 T01890022 TSNO","FM-15","7",,,,,,,,,,,,,,,,,,,,,,,,,,,,
"72292023191","2014-01-23T12:51:00","FM-15","7",,,,,,,,,,,,,,,,,,,,,,,,,,,,,,,,,,,,,,"29.95","36","66","0.00",,"+0.04","8","33","29.90","CLR:00","28.26","10.00","51","120",,"8",,,,,,,,,,,,,,,,,,,,,,,,,,,,,,,,,,,,,"MET10101/23/14 12:51:02 METAR KAVX 232051Z 12007KT 10SM CLR 19/02 A2995 RMK AO2 SLP126 T01890022 58012 TSNO","FM-15","7",,,,,,,,,,,,,,,,,,,,,,,,,,,,
"72292023191","2014-01-23T13:51:00","FM-15","7",,,,,,,,,,,,,,,,,,,,,,,,,,,,,,,,,,,,,,"29.94","36","67","0.00",,,,"32","29.88","CLR:00","28.25","10.00","51","150",,"6",,,,,,,,,,,,,,,,,,,,,,,,,,,,,,,,,,,,,"MET09501/23/14 13:51:02 METAR KAVX 232151Z 15005KT 10SM CLR 19/02 A2994 RMK AO2 SLP120 T01940022 TSNO","FM-15","7",,,,,,,,,,,,,,,,,,,,,,,,,,,,
"72292023191","2014-01-23T14:51:00","FM-15","7",,,,,,,,,,,,,,,,,,,,,,,,,,,,,,,,,,,,,,"29.95","48","63","0.00",,,,"58","29.90","CLR:00","28.26","10.00","55","000",,"0",,,,,,,,,,,,,,,,,,,,,,,,,,,,,,,,,,,,,"MET09501/23/14 14:51:02 METAR KAVX 232251Z 00000KT 10SM CLR 17/09 A2995 RMK AO2 SLP125 T01720089 TSNO","FM-15","7",,,,,,,,,,,,,,,,,,,,,,,,,,,,
"72292023191","2014-01-23T15:51:00","FM-15","7",,,,,,,,,,,,,,,,,,,,,,,,,,,,,,,,,,,,,,"29.95","41","63","0.00",,"-0.01","3","45","29.91","CLR:00","28.26","10.00","52","130",,"3",,,,,,,,,,,,,,,,,,,,,,,,,,,,,,,,,,,,,"MET11301/23/14 15:51:02 METAR KAVX 232351Z 13003KT 10SM CLR 17/05 A2995 RMK AO2 SLP129 T01720050 10200 20139 53002 TSNO","FM-15","7",,,,,,,,,,,,,,,,,,,,,,,,,,,,
"72292023191","2014-01-23T16:51:00","FM-15","7",,,,,,,,,,,,,,,,,,,,,,,,,,,,,,,,,,,,,,"29.96","23","61","0.00",,,,"23","29.92","CLR:00","28.27","10.00","45","150",,"8",,,,,,,,,,,,,,,,,,,,,,,,,,,,,,,,,,,,,"MET09601/23/14 16:51:01 METAR KAVX 240051Z 15007KT 10SM CLR 16/M05 A2996 RMK AO2 SLP133 T01611050 TSNO","FM-15","7",,,,,,,,,,,,,,,,,,,,,,,,,,,,
"72292023191","2014-01-23T17:51:00","FM-15","7",,,,,,,,,,,,,,,,,,,,,,,,,,,,,,,,,,,,,,"29.99","21","58","0.00",,,,"24","29.96","CLR:00","28.30","10.00","43","130",,"7",,,,,,,,,,,,,,,,,,,,,,,,,,,,,,,,,,,,,"MET09601/23/14 17:51:01 METAR KAVX 240151Z 13006KT 10SM CLR 14/M06 A2999 RMK AO2 SLP144 T01441061 TSNO","FM-15","7",,,,,,,,,,,,,,,,,,,,,,,,,,,,
"72292023191","2014-01-23T18:51:00","FM-15","7",,,,,,,,,,,,,,,,,,,,,,,,,,,,,,,,,,,,,,"30.01","16s","59","0.00",,"-0.05","3","18","29.98","CLR:00","28.31","10.00","42","130",,"10",,,,,,,,,,,,,,,,,,,,,,,,,,,,,,,,,,,,,"MET10201/23/14 18:51:01 METAR KAVX 240251Z 13009KT 10SM CLR 15/M09 A3001 RMK AO2 SLP152 T01501089 53017 TSNO","FM-15","7",,,,,,,,,,,,,,,,,,,,,,,,,,,,
"72292023191","2014-01-23T19:51:00","FM-15","7",,,,,,,,,,,,,,,,,,,,,,,,,,,,,,,,,,,,,,"30.03","21","59","0.00",,,,"23","30.00","CLR:00","28.33","10.00","43","130",,"13",,,,,,,,,,,,,,,,,,,,,,,,,,,,,,,,,,,,,"MET09601/23/14 19:51:02 METAR KAVX 240351Z 13011KT 10SM CLR 15/M06 A3003 RMK AO2 SLP158 T01501061 TSNO","FM-15","7",,,,,,,,,,,,,,,,,,,,,,,,,,,,
"72292023191","2014-01-23T20:51:00","FM-15","7",,,,,,,,,,,,,,,,,,,,,,,,,,,,,,,,,,,,,,"30.05","30","57","0.00",,,,"36","30.02","CLR:00","28.35","10.00","45","130",,"11",,,,,,,,,,,,,,,,,,,,,,,,,,,,,,,,,,,,,"MET09601/23/14 20:51:02 METAR KAVX 240451Z 13010KT 10SM CLR 14/M01 A3005 RMK AO2 SLP165 T01391011 TSNO","FM-15","7",,,,,,,,,,,,,,,,,,,,,,,,,,,,
"72292023191","2014-01-23T21:51:00","FM-15","7",,,,,,,,,,,,,,,,,,,,,,,,,,,,,,,,,,,,,,"30.07","35","56","0.00",,"-0.06","2","46","30.05","CLR:00","28.37","10.00","46","140",,"14",,,,,,,,,,,,,,,,,,,,,,,,,,,,,,,,,,,,,"MET11301/23/14 21:51:02 METAR KAVX 240551Z 14012KT 10SM CLR 13/02 A3007 RMK AO2 SLP175 T01330017 10172 20133 52021 TSNO","FM-15","7",,,,,,,,,,,,,,,,,,,,,,,,,,,,
"72292023191","2014-01-23T22:51:00","FM-15","7",,,,,,,,,,,,,,,,,,,,,,,,,,,,,,,,,,,,,,"30.08","38","55","0.00",,,,"53","30.06","CLR:00","28.38","10.00","47","130","23","16",,,,,,,,,,,,,,,,,,,,,,,,,,,,,,,,,,,,,"MET09801/23/14 22:51:02 METAR KAVX 240651Z 13014G20KT 10SM CLR 13/03 A3008 RMK AO2 SLP178 T01280033 TSNO","FM-15","7",,,,,,,,,,,,,,,,,,,,,,,,,,,,
"72292023191","2014-01-23T23:51:00","FM-15","7",,,,,,,,,,,,,,,,,,,,,,,,,,,,,,,,,,,,,,"30.10","38","56","0.00",,,,"51","30.06","CLR:00","28.40","10.00","47","130","23","14",,,,,,,,,,,,,,,,,,,,,,,,,,,,,,,,,,,,,"MET10801/23/14 23:51:02 METAR KAVX 240751Z 13012G20KT 10SM CLR 13/03 A3010 RMK AO2 SLP178 T01330033 402000122 TSNO","FM-15","7",,,,,,,,,,,,,,,,,,,,,,,,,,,,
"72292023191","2014-01-23T23:59:00","SOD  ","6",,,,,,,,,,,,,,,,"61",,,"28.28",,"7.2","0","6.1","4","68","54","140","23","0.00",,,"130","18",,,,,,,,,,,,,,,,,,,,,,,,,,,,,,,,,,,,,,,,,,,,,,,,,,,,,,,,,"SOD73024 HR PRECIPITATION (IN):0.00  24 HR MAX TEMP (F):68 24 HR MAX TEMP TIME (LST):1418 24 HR MIN TEMP (F):54 24 HR MIN TEMP TIME (LST):2344 AVERAGE STATION PRESSURE:28.280 MINIMUM SEA LEVEL PRESSURE:29.86 TIME OF OCCURRENCE:0432 PEAK WIND SPEED (MPH):23  PEAK WIND DIR (DEG):140 PEAK WIND TIME (LST):2243  FASTEST 2MIN SPEED (MPH):18 FASTEST 2MIN DIR (DEG):130 FASTEST 2MIN TIME (LST):2310 AVERAGE WIND SPEED (MPH):7.2  24 HR AVG TEMP (F):61 HEATING DEGREE DAYS:4   COOLING DEGREE DAYS:0   LATEST DAY MAX TEMP (0700-1900 LST):68  LATEST NIGHT MIN TEMP(1900-0800 LST):56 HOURLY INCREMENTAL PRECIPITATION VALUES (IN):.00 0.00 0.00 0.00 0.00 0.00 0.00 0.00 0.00 0.00 0.00 0.00 0.00 0.00 0.00 0.00 0.00 0.00 0.00 0.00 0.00 0.00 0.00 0.00","SOD  ","6",,,,,,,,,,,,,,,,,,,,,,,,,"0655","1717",,
"72292023191","2014-01-24T00:51:00","FM-15","7",,,,,,,,,,,,,,,,,,,,,,,,,,,,,,,,,,,,,,"30.10","43","54","0.00",,"-0.03","1","67","30.07","CLR:00","28.40","10.00","48","130",,"11",,,,,,,,,,,,,,,,,,,,,,,,,,,,,,,,,,,,,"MET10101/24/14 00:51:02 METAR KAVX 240851Z 13010KT 10SM CLR 12/06 A3010 RMK AO2 SLP183 T01220061 51010 TSNO","FM-15","7",,,,,,,,,,,,,,,,,,,,,,,,,,,,
"72292023191","2014-01-24T01:51:00","FM-15","7",,,,,,,,,,,,,,,,,,,,,,,,,,,,,,,,,,,,,,"30.11","36","57","0.00",,,,"45","30.06","CLR:00","28.41","10.00","47","140",,"10",,,,,,,,,,,,,,,,,,,,,,,,,,,,,,,,,,,,,"MET09701/24/14 01:51:02 METAR KAVX 240951Z 14009KT 10SM CLR 14/02 A3011 RMK AO2 SLP181 T01390022 TSNO $","FM-15","7",,,,,,,,,,,,,,,,,,,,,,,,,,,,
"72292023191","2014-01-24T02:51:00","FM-15","7",,,,,,,,,,,,,,,,,,,,,,,,,,,,,,,,,,,,,,"30.12","29","60","0.00",,,,"31","30.07","CLR:00","28.42","10.00","46","150",,"7",,,,,,,,,,,,,,,,,,,,,,,,,,,,,,,,,,,,,"MET09801/24/14 02:51:02 METAR KAVX 241051Z 15006KT 10SM CLR 16/M02 A3012 RMK AO2 SLP184 T01561017 TSNO $","FM-15","7",,,,,,,,,,,,,,,,,,,,,,,,,,,,
"72292023191","2014-01-24T03:51:00","FM-15","7",,,,,,,,,,,,,,,,,,,,,,,,,,,,,,,,,,,,,,"30.11","21","61","0.00",,"-0.01","0","21","30.07","CLR:00","28.41","10.00","44","130",,"14",,,,,,,,,,,,,,,,,,,,,,,,,,,,,,,,,,,,,"MET11601/24/14 03:51:02 METAR KAVX 241151Z 13012KT 10SM CLR 16/M06 A3011 RMK AO2 SLP184 T01611061 10161 20117 50004 TSNO $","FM-15","7",,,,,,,,,,,,,,,,,,,,,,,,,,,,
"72292023191","2014-01-24T04:51:00","FM-15","7",,,,,,,,,,,,,,,,,,,,,,,,,,,,,,,,,,,,,,"30.12","24","61","0.00",,,,"24","30.09","CLR:00","28.42","10.00","45","140",,"11",,,,,,,,,,,,,,,,,,,,,,,,,,,,,,,,,,,,,"MET09801/24/14 04:51:02 METAR KAVX 241251Z 14010KT 10SM CLR 16/M04 A3012 RMK AO2 SLP188 T01611044 TSNO $","FM-15","7",,,,,,,,,,,,,,,,,,,,,,,,,,,,
"72292023191","2014-01-24T05:51:00","FM-15","7",,,,,,,,,,,,,,,,,,,,,,,,,,,,,,,,,,,,,,"30.13","25","61","0.00",,,,"25","30.10","CLR:00","28.43","10.00","45","130",,"13",,,,,,,,,,,,,,,,,,,,,,,,,,,,,,,,,,,,,"MET09801/24/14 05:51:02 METAR KAVX 241351Z 13011KT 10SM CLR 16/M04 A3013 RMK AO2 SLP193 T01611039 TSNO $","FM-15","7",,,,,,,,,,,,,,,,,,,,,,,,,,,,
"72292023191","2014-01-24T06:51:00","FM-15","7",,,,,,,,,,,,,,,,,,,,,,,,,,,,,,,,,,,,,,"30.15","24","62","0.00",,"-0.04","3","23","30.11","CLR:00","28.45","10.00","45","130",,"15",,,,,,,,,,,,,,,,,,,,,,,,,,,,,,,,,,,,,"MET10401/24/14 06:51:02 METAR KAVX 241451Z 13013KT 10SM CLR 17/M04 A3015 RMK AO2 SLP198 T01671044 53013 TSNO $","FM-15","7",,,,,,,,,,,,,,,,,,,,,,,,,,,,
"72292023191","2014-01-24T07:51:00","FM-15","7",,,,,,,,,,,,,,,,,,,,,,,,,,,,,,,,,,,,,,"30.17","24","62","0.00",,,,"23","30.14","CLR:00","28.47","10.00","45","130",,"13",,,,,,,,,,,,,,,,,,,,,,,,,,,,,,,,,,,,,"MET09801/24/14 07:51:02 METAR KAVX 241551Z 13011KT 10SM CLR 17/M04 A3017 RMK AO2 SLP205 T01671044 TSNO $","FM-15","7",,,,,,,,,,,,,,,,,,,,,,,,,,,,
"72292023191","2014-01-24T08:51:00","FM-15","7",,,,,,,,,,,,,,,,,,,,,,,,,,,,,,,,,,,,,,"30.20","23","64","0.00",,,,"21","30.16","CLR:00","28.50","10.00","46","140","24","14",,,,,,,,,,,,,,,,,,,,,,,,,,,,,,,,,,,,,"MET09901/24/14 08:51:02 METAR KAVX 241651Z 14012G21KT 10SM CLR 18/M05 A3020 RMK AO2 SLP215 T01781050 TSNO","FM-15","7",,,,,,,,,,,,,,,,,,,,,,,,,,,,
"72292023191","2014-01-24T09:51:00","FM-15","7",,,,,,,,,,,,,,,,,,,,,,,,,,,,,,,,,,,,,,"30.23","25","64","0.00",,"-0.07","3","23","30.19","CLR:00","28.52","10.00","47","140",,"13",,,,,,,,,,,,,,,,,,,,,,,,,,,,,,,,,,,,,"MET11401/24/14 09:51:02 METAR KAVX 241751Z 14011KT 10SM CLR 18/M04 A3023 RMK AO2 SLP225 T01781039 10178 20161 53024 TSNO","FM-15","7",,,,,,,,,,,,,,,,,,,,,,,,,,,,
"72292023191","2014-01-24T10:51:00","FM-15","7",,,,,,,,,,,,,,,,,,,,,,,,,,,,,,,,,,,,,,"30.24","26","65","0.00",,,,"23","30.21","CLR:00","28.53","10.00","47","130","24","16",,,,,,,,,,,,,,,,,,,,,,,,,,,,,,,,,,,,,"MET09901/24/14 10:51:02 METAR KAVX 241851Z 13014G21KT 10SM CLR 18/M03 A3024 RMK AO2 SLP230 T01831033 TSNO","FM-15","7",,,,,,,,,,,,,,,,,,,,,,,,,,,,
"72292023191","2014-01-24T11:51:00","FM-15","7",,,,,,,,,,,,,,,,,,,,,,,,,,,,,,,,,,,,,,"30.24","29","65","0.00",,,,"26","30.20","FEW:02 120","28.53","10.00","48","VRB",,"8",,,,,,,,,,,,,,,,,,,,,,,,,,,,,,,,,,,,,"MET09901/24/14 11:51:02 METAR KAVX 241951Z 15007KT 10SM FEW120 18/M02 A3024 RMK AO2 SLP228 T01831017 TSNO","FM-15","7",,,,,,,,,,,,,,,,,,,,,,,,,,,,
"72292023191","2014-01-24T12:51:00","FM-15","7",,,,,,,,,,,,,,,,,,,,,,,,,,,,,,,,,,,,,,"30.22","28","65","0.00",,"+0.01","8","25","30.19","CLR:00","28.51","10.00","48","VRB",,"6",,,,,,,,,,,,,,,,,,,,,,,,,,,,,,,,,,,,,"MET10201/24/14 12:51:02 METAR KAVX 242051Z VRB05KT 10SM CLR 18/M02 A3022 RMK AO2 SLP223 T01831022 58003 TSNO","FM-15","7",,,,,,,,,,,,,,,,,,,,,,,,,,,,
"72292023191","2014-01-24T13:51:00","FM-15","7",,,,,,,,,,,,,,,,,,,,,,,,,,,,,,,,,,,,,,"30.21","33","62","0.00",,,,"34","30.18","SCT:04 120","28.51","10.00","48","290",,"3",,,,,,,,,,,,,,,,,,,,,,,,,,,,,,,,,,,,,"MET10001/24/14 13:51:02 METAR KAVX 242151Z 29003KT 10SM SCT120 17/01 A3021 RMK AO2 SLP220 T01670006 TSNO $","FM-15","7",,,,,,,,,,,,,,,,,,,,,,,,,,,,
"72292023191","2014-01-24T14:51:00","FM-15","7",,,,,,,,,,,,,,,,,,,,,,,,,,,,,,,,,,,,,,"30.20","37","61","0.00",,,,"41","30.17","OVC:08 120","28.50","10.00","49","240",,"7",,,,,,,,,,,,,,,,,,,,,,,,,,,,,,,,,,,,,"MET10001/24/14 14:51:02 METAR KAVX 242251Z 24006KT 10SM OVC120 16/03 A3020 RMK AO2 SLP216 T01610028 TSNO $","FM-15","7",,,,,,,,,,,,,,,,,,,,,,,,,,,,
"72292023191","2014-01-24T15:51:00","FM-15","7",,,,,,,,,,,,,,,,,,,,,,,,,,,,,,,,,,,,,,"30.20","33","61","0.00",,"+0.02","6","35","30.16","OVC:08 110","28.50","10.00","48","250",,"8",,,,,,,,,,,,,,,,,,,,,,,,,,,,,,,,,,,,,"MET11801/24/14 15:51:02 METAR KAVX 242351Z 25007KT 10SM OVC110 16/01 A3020 RMK AO2 SLP215 T01610006 10189 20156 56006 TSNO $","FM-15","7",,,,,,,,,,,,,,,,,,,,,,,,,,,,
"72292023191","2014-01-24T16:51:00","FM-15","7",,,,,,,,,,,,,,,,,,,,,,,,,,,,,,,,,,,,,,"30.21","40","59","0.00",,,,"49","30.18","OVC:08 100","28.51","10.00","49","000",,"0",,,,,,,,,,,,,,,,,,,,,,,,,,,,,,,,,,,,,"MET10001/24/14 16:51:01 METAR KAVX 250051Z 00000KT 10SM OVC100 15/04 A3021 RMK AO2 SLP219 T01500044 TSNO $","FM-15","7",,,,,,,,,,,,,,,,,,,,,,,,,,,,
"72292023191","2014-01-24T17:51:00","FM-15","7",,,,,,,,,,,,,,,,,,,,,,,,,,,,,,,,,,,,,,"30.22","38","59","0.00",,,,"46","30.19","OVC:08 110","28.51","10.00","49","360",,"7",,,,,,,,,,,,,,,,,,,,,,,,,,,,,,,,,,,,,"MET10001/24/14 17:51:01 METAR KAVX 250151Z 36006KT 10SM OVC110 15/03 A3022 RMK AO2 SLP222 T01500033 TSNO $","FM-15","7",,,,,,,,,,,,,,,,,,,,,,,,,,,,
"72292023191","2014-01-24T18:51:00","FM-15","7",,,,,,,,,,,,,,,,,,,,,,,,,,,,,,,,,,,,,,"30.23","27","60","0.00",,"-0.03","3","28","30.19","OVC:08 100","28.52","10.00","45","360",,"7",,,,,,,,,,,,,,,,,,,,,,,,,,,,,,,,,,,,,"MET10701/24/14 18:51:01 METAR KAVX 250251Z 36006KT 10SM OVC100 16/M03 A3023 RMK AO2 SLP225 T01561028 53010 TSNO $","FM-15","7",,,,,,,,,,,,,,,,,,,,,,,,,,,,
"72292023191","2014-01-24T19:51:00","FM-15","7",,,,,,,,,,,,,,,,,,,,,,,,,,,,,,,,,,,,,,"30.23","28","61","0.00",,,,"29","30.19","FEW:02 100","28.52","10.00","46","030",,"7",,,,,,,,,,,,,,,,,,,,,,,,,,,,,,,,,,,,,"MET10101/24/14 19:51:02 METAR KAVX 250351Z 03006KT 10SM FEW100 16/M02 A3023 RMK AO2 SLP222 T01611022 TSNO $","FM-15","7",,,,,,,,,,,,,,,,,,,,,,,,,,,,
"72292023191","2014-01-24T20:51:00","FM-15","7",,,,,,,,,,,,,,,,,,,,,,,,,,,,,,,,,,,,,,"30.23","22","62","0.00",,,,"21","30.19","BKN:07 90","28.52","10.00","45","050",,"6",,,,,,,,,,,,,,,,,,,,,,,,,,,,,,,,,,,,,"MET10101/24/14 20:51:02 METAR KAVX 250451Z 05005KT 10SM BKN090 17/M06 A3023 RMK AO2 SLP222 T01671056 TSNO $","FM-15","7",,,,,,,,,,,,,,,,,,,,,,,,,,,,
"72292023191","2014-01-24T21:51:00","FM-15","7",,,,,,,,,,,,,,,,,,,,,,,,,,,,,,,,,,,,,,"30.23","11","62","0.00",,"+0.00","5","13","30.19","OVC:08 85","28.52","10.00","42","100",,"5",,,,,,,,,,,,,,,,,,,,,,,,,,,,,,,,,,,,,"MET11901/24/14 21:51:02 METAR KAVX 250551Z 10004KT 10SM OVC085 17/M12 A3023 RMK AO2 SLP223 T01671117 10167 20128 55001 TSNO $","FM-15","7",,,,,,,,,,,,,,,,,,,,,,,,,,,,
"72292023191","2014-01-24T22:51:00","FM-15","7",,,,,,,,,,,,,,,,,,,,,,,,,,,,,,,,,,,,,,"30.22","24","60","0.00",,,,"25","30.18","SCT:04 75 OVC:08 90","28.51","10.00","44","080",,"8",,,,,,,,,,,,,,,,,,,,,,,,,,,,,,,,,,,,,"MET10801/24/14 22:51:02 METAR KAVX 250651Z 08007KT 10SM SCT075 OVC090 16/M04 A3022 RMK AO2 SLP220 T01561044 TSNO $","FM-15","7",,,,,,,,,,,,,,,,,,,,,,,,,,,,
"72292023191","2014-01-24T23:51:00","FM-15","7",,,,,,,,,,,,,,,,,,,,,,,,,,,,,,,,,,,,,,"30.22","14","64","0.00",,,,"14","30.16","BKN:07 65","28.51","10.00","44","050",,"7",,,,,,,,,,,,,,,,,,,,,,,,,,,,,,,,,,,,,"MET11101/24/14 23:51:02 METAR KAVX 250751Z 05006KT 10SM BKN065 18/M10 A3022 RMK AO2 SLP215 T01781100 401890117 TSNO $","FM-15","7",,,,,,,,,,,,,,,,,,,,,,,,,,,,
"72292023191","2014-01-24T23:59:00","SOD  ","6",,,,,,,,,,,,,,,,"60",,,"28.48",,"9.0","0","5.2","5","66","53","140","25","0.00",,,"140","18",,,,,,,,,,,,,,,,,,,,,,,,,,,,,,,,,,,,,,,,,,,,,,,,,,,,,,,,,"SOD73024 HR PRECIPITATION (IN):0.00  24 HR MAX TEMP (F):66 24 HR MAX TEMP TIME (LST):1245 24 HR MIN TEMP (F):53 24 HR MIN TEMP TIME (LST):0108 AVERAGE STATION PRESSURE:28.485 MINIMUM SEA LEVEL PRESSURE:30.05 TIME OF OCCURRENCE:0031 PEAK WIND SPEED (MPH):25  PEAK WIND DIR (DEG):140 PEAK WIND TIME (LST):0834  FASTEST 2MIN SPEED (MPH):18 FASTEST 2MIN DIR (DEG):140 FASTEST 2MIN TIME (LST):0936 AVERAGE WIND SPEED (MPH):9.0  24 HR AVG TEMP (F):60 HEATING DEGREE DAYS:5   COOLING DEGREE DAYS:0   LATEST DAY MAX TEMP (0700-1900 LST):66  LATEST NIGHT MIN TEMP(1900-0800 LST):53 HOURLY INCREMENTAL PRECIPITATION VALUES (IN):.00 0.00 0.00 0.00 0.00 0.00 0.00 0.00 0.00 0.00 0.00 0.00 0.00 0.00 0.00 0.00 0.00 0.00 0.00 0.00 0.00 0.00 0.00 0.00","SOD  ","6",,,,,,,,,,,,,,,,,,,,,,,,,"0655","1718",,
"72292023191","2014-01-25T00:51:00","FM-15","7",,,,,,,,,,,,,,,,,,,,,,,,,,,,,,,,,,,,,,"30.21","19","63","0.00",,"+0.02","8","18","30.16","OVC:08 70","28.51","10.00","45","080",,"8",,,,,,,,,,,,,,,,,,,,,,,,,,,,,,,,,,,,,"MET10701/25/14 00:51:02 METAR KAVX 250851Z 08007KT 10SM OVC070 17/M07 A3021 RMK AO2 SLP212 T01721072 58008 TSNO $","FM-15","7",,,,,,,,,,,,,,,,,,,,,,,,,,,,
"72292023191","2014-01-25T01:51:00","FM-15","7",,,,,,,,,,,,,,,,,,,,,,,,,,,,,,,,,,,,,,"30.21","21","64","0.00",,,,"19","30.16","OVC:08 70","28.51","10.00","46","120",,"8",,,,,,,,,,,,,,,,,,,,,,,,,,,,,,,,,,,,,"MET10101/25/14 01:51:02 METAR KAVX 250951Z 12007KT 10SM OVC070 18/M06 A3021 RMK AO2 SLP214 T01781061 TSNO $","FM-15","7",,,,,,,,,,,,,,,,,,,,,,,,,,,,
"72292023191","2014-01-25T02:51:00","FM-15","7",,,,,,,,,,,,,,,,,,,,,,,,,,,,,,,,,,,,,,"30.21","23","62","0.00",,,,"22","30.16","OVC:08 75","28.51","10.00","45","130",,"6",,,,,,,,,,,,,,,,,,,,,,,,,,,,,,,,,,,,,"MET10101/25/14 02:51:02 METAR KAVX 251051Z 13005KT 10SM OVC075 17/M05 A3021 RMK AO2 SLP215 T01671050 TSNO $","FM-15","7",,,,,,,,,,,,,,,,,,,,,,,,,,,,
"72292023191","2014-01-25T03:51:00","FM-15","7",,,,,,,,,,,,,,,,,,,,,,,,,,,,,,,,,,,,,,"30.21","24","63","0.00",,"-0.00","3","23","30.17","OVC:08 80","28.51","10.00","46","190",,"6",,,,,,,,,,,,,,,,,,,,,,,,,,,,,,,,,,,,,"MET11901/25/14 03:51:02 METAR KAVX 251151Z 19005KT 10SM OVC080 17/M04 A3021 RMK AO2 SLP216 T01721044 10178 20156 53001 TSNO $","FM-15","7",,,,,,,,,,,,,,,,,,,,,,,,,,,,
"72292023191","2014-01-25T04:51:00","FM-15","7",,,,,,,,,,,,,,,,,,,,,,,,,,,,,,,,,,,,,,"30.21","25","62","0.00",,,,"24","30.17","OVC:08 80","28.51","10.00","46","000",,"0",,,,,,,,,,,,,,,,,,,,,,,,,,,,,,,,,,,,,"MET10101/25/14 04:51:02 METAR KAVX 251251Z 00000KT 10SM OVC080 17/M04 A3021 RMK AO2 SLP218 T01671039 TSNO $","FM-15","7",,,,,,,,,,,,,,,,,,,,,,,,,,,,
"72292023191","2014-01-25T05:51:00","FM-15","7",,,,,,,,,,,,,,,,,,,,,,,,,,,,,,,,,,,,,,"30.22","23","62","0.00",,,,"22","30.18","CLR:00","28.51","10.00","45","150",,"3",,,,,,,,,,,,,,,,,,,,,,,,,,,,,,,,,,,,,"MET09801/25/14 05:51:02 METAR KAVX 251351Z 15003KT 10SM CLR 17/M05 A3022 RMK AO2 SLP220 T01671050 TSNO $","FM-15","7",,,,,,,,,,,,,,,,,,,,,,,,,,,,
"72292023191","2014-01-25T06:51:00","FM-15","7",,,,,,,,,,,,,,,,,,,,,,,,,,,,,,,,,,,,,,"30.23","24","62","0.00",,"-0.02","3","23","30.19","SCT:04 70","28.52","10.00","45","140",,"6",,,,,,,,,,,,,,,,,,,,,,,,,,,,,,,,,,,,,"MET10701/25/14 06:51:02 METAR KAVX 251451Z 14005KT 10SM SCT070 17/M04 A3023 RMK AO2 SLP223 T01671044 53006 TSNO $","FM-15","7",,,,,,,,,,,,,,,,,,,,,,,,,,,,
"72292023191","2014-01-25T07:51:00","FM-15","7",,,,,,,,,,,,,,,,,,,,,,,,,,,,,,,,,,,,,,"30.23","26","61","0.00",,,,"26","30.19","BKN:07 70","28.52","10.00","45","120",,"3",,,,,,,,,,,,,,,,,,,,,,,,,,,,,,,,,,,,,"MET10101/25/14 07:51:02 METAR KAVX 251551Z 12003KT 10SM BKN070 16/M03 A3023 RMK AO2 SLP225 T01611033 TSNO $","FM-15","7",,,,,,,,,,,,,,,,,,,,,,,,,,,,
"72292023191","2014-01-25T08:51:00","FM-15","7",,,,,,,,,,,,,,,,,,,,,,,,,,,,,,,,,,,,,,"30.24","35","65","0.00",,,,"33","30.19","BKN:07 65","28.53","10.00","50","VRB",,"3",,,,,,,,,,,,,,,,,,,,,,,,,,,,,,,,,,,,,"MET10001/25/14 08:51:02 METAR KAVX 251651Z VRB03KT 10SM BKN065 18/02 A3024 RMK AO2 SLP222 T01830017 TSNO $","FM-15","7",,,,,,,,,,,,,,,,,,,,,,,,,,,,
"72292023191","2014-01-25T09:51:00","FM-15","7",,,,,,,,,,,,,,,,,,,,,,,,,,,,,,,,,,,,,,"30.24","34","66","0.00",,"-0.02","3","30","30.19","CLR:00","28.53","10.00","50","VRB",,"3",,,,,,,,,,,,,,,,,,,,,,,,,,,,,,,,,,,,,"MET11501/25/14 09:51:02 METAR KAVX 251751Z VRB03KT 10SM CLR 19/01 A3024 RMK AO2 SLP225 T01890011 10189 20161 53006 TSNO $","FM-15","7",,,,,,,,,,,,,,,,,,,,,,,,,,,,
"72292023191","2014-01-25T10:51:00","FM-15","7",,,,,,,,,,,,,,,,,,,,,,,,,,,,,,,,,,,,,,"30.24","45","65","0.00",,,,"49","30.20","CLR:00","28.53","10.00","54","310",,"3",,,,,,,,,,,,,,,,,,,,,,,,,,,,,,,,,,,,,"MET09701/25/14 10:51:02 METAR KAVX 251851Z 31003KT 10SM CLR 18/07 A3024 RMK AO2 SLP226 T01830072 TSNO $","FM-15","7",,,,,,,,,,,,,,,,,,,,,,,,,,,,
"72292023191","2014-01-25T11:51:00","FM-15","7",,,,,,,,,,,,,,,,,,,,,,,,,,,,,,,,,,,,,,"30.21","37","68","0.00",,,,"32","30.15","CLR:00","28.51","10.00","52","010",,"6",,,,,,,,,,,,,,,,,,,,,,,,,,,,,,,,,,,,,"MET09701/25/14 11:51:02 METAR KAVX 251951Z 01005KT 10SM CLR 20/03 A3021 RMK AO2 SLP211 T02000028 TSNO $","FM-15","7",,,,,,,,,,,,,,,,,,,,,,,,,,,,
"72292023191","2014-01-25T12:51:00","FM-15","7",,,,,,,,,,,,,,,,,,,,,,,,,,,,,,,,,,,,,,"30.19","45","66","0.00",,"+0.05","8","47","30.14","CLR:00","28.48","10.00","55","VRB",,"5",,,,,,,,,,,,,,,,,,,,,,,,,,,,,,,,,,,,,"MET10301/25/14 12:51:02 METAR KAVX 252051Z VRB04KT 10SM CLR 19/07 A3019 RMK AO2 SLP205 T01890072 58018 TSNO $","FM-15","7",,,,,,,,,,,,,,,,,,,,,,,,,,,,
"72292023191","2014-01-25T13:51:00","FM-15","7",,,,,,,,,,,,,,,,,,,,,,,,,,,,,,,,,,,,,,"30.17","40","68","0.00",,,,"36","30.11","CLR:00","28.47","10.00","53","020",,"5",,,,,,,,,,,,,,,,,,,,,,,,,,,,,,,,,,,,,"MET09701/25/14 13:51:02 METAR KAVX 252151Z 02004KT 10SM CLR 20/04 A3017 RMK AO2 SLP198 T02000044 TSNO $","FM-15","7",,,,,,,,,,,,,,,,,,,,,,,,,,,,
"72292023191","2014-01-25T14:51:00","FM-15","7",,,,,,,,,,,,,,,,,,,,,,,,,,,,,,,,,,,,,,"30.16","41","66","0.00",,,,"40","30.11","CLR:00","28.46","10.00","53","330",,"5",,,,,,,,,,,,,,,,,,,,,,,,,,,,,,,,,,,,,"MET09701/25/14 14:51:02 METAR KAVX 252251Z 33004KT 10SM CLR 19/05 A3016 RMK AO2 SLP198 T01890050 TSNO $","FM-15","7",,,,,,,,,,,,,,,,,,,,,,,,,,,,
"72292023191","2014-01-25T15:51:00","FM-15","7",,,,,,,,,,,,,,,,,,,,,,,,,,,,,,,,,,,,,,"30.16","40","64","0.00",,"+0.03","6","41","30.11","CLR:00","28.46","10.00","52","250",,"5",,,,,,,,,,,,,,,,,,,,,,,,,,,,,,,,,,,,,"MET11501/25/14 15:51:02 METAR KAVX 252351Z 25004KT 10SM CLR 18/04 A3016 RMK AO2 SLP196 T01780044 10200 20178 56010 TSNO $","FM-15","7",,,,,,,,,,,,,,,,,,,,,,,,,,,,
"72292023191","2014-01-25T16:51:00","FM-15","7",,,,,,,,,,,,,,,,,,,,,,,,,,,,,,,,,,,,,,"30.15","39","63","0.00",,,,"41","30.11","CLR:00","28.45","10.00","51","000",,"0",,,,,,,,,,,,,,,,,,,,,,,,,,,,,,,,,,,,,"MET09701/25/14 16:51:01 METAR KAVX 260051Z 00000KT 10SM CLR 17/04 A3015 RMK AO2 SLP195 T01720039 TSNO $","FM-15","7",,,,,,,,,,,,,,,,,,,,,,,,,,,,
"72292023191","2014-01-25T17:51:00","FM-15","7",,,,,,,,,,,,,,,,,,,,,,,,,,,,,,,,,,,,,,"30.15","37","62","0.00",,,,"40","30.11","CLR:00","28.45","10.00","50","010",,"3",,,,,,,,,,,,,,,,,,,,,,,,,,,,,,,,,,,,,"MET09701/25/14 17:51:01 METAR KAVX 260151Z 01003KT 10SM CLR 17/03 A3015 RMK AO2 SLP195 T01670028 TSNO $","FM-15","7",,,,,,,,,,,,,,,,,,,,,,,,,,,,
"72292023191","2014-01-25T18:51:00","FM-15","7",,,,,,,,,,,,,,,,,,,,,,,,,,,,,,,,,,,,,,"30.16","39","62","0.00",,"-0.01","3","43","30.12","CLR:00","28.46","10.00","50","220",,"5",,,,,,,,,,,,,,,,,,,,,,,,,,,,,,,,,,,,,"MET10301/25/14 18:51:01 METAR KAVX 260251Z 22004KT 10SM CLR 17/04 A3016 RMK AO2 SLP201 T01670039 53002 TSNO $","FM-15","7",,,,,,,,,,,,,,,,,,,,,,,,,,,,
"72292023191","2014-01-25T19:51:00","FM-15","7",,,,,,,,,,,,,,,,,,,,,,,,,,,,,,,,,,,,,,"30.16","35","62","0.00",,,,"37","30.12","CLR:00","28.46","10.00","49","000",,"0",,,,,,,,,,,,,,,,,,,,,,,,,,,,,,,,,,,,,"MET09701/25/14 19:51:02 METAR KAVX 260351Z 00000KT 10SM CLR 17/02 A3016 RMK AO2 SLP199 T01670017 TSNO $","FM-15","7",,,,,,,,,,,,,,,,,,,,,,,,,,,,
"72292023191","2014-01-25T20:51:00","FM-15","7",,,,,,,,,,,,,,,,,,,,,,,,,,,,,,,,,,,,,,"30.16","36","60","0.00",,,,"41","30.12","CLR:00","28.46","10.00","48","170",,"3",,,,,,,,,,,,,,,,,,,,,,,,,,,,,,,,,,,,,"MET09701/25/14 20:51:02 METAR KAVX 260451Z 17003KT 10SM CLR 16/02 A3016 RMK AO2 SLP199 T01560022 TSNO $","FM-15","7",,,,,,,,,,,,,,,,,,,,,,,,,,,,
"72292023191","2014-01-25T21:51:00","FM-15","7",,,,,,,,,,,,,,,,,,,,,,,,,,,,,,,,,,,,,,"30.16","36","61","0.00",,"+0.00","6","39","30.11","CLR:00","28.46","10.00","49","000",,"0",,,,,,,,,,,,,,,,,,,,,,,,,,,,,,,,,,,,,"MET11501/25/14 21:51:02 METAR KAVX 260551Z 00000KT 10SM CLR 16/02 A3016 RMK AO2 SLP197 T01610022 10178 20150 56001 TSNO $","FM-15","7",,,,,,,,,,,,,,,,,,,,,,,,,,,,
"72292023191","2014-01-25T22:51:00","FM-15","7",,,,,,,,,,,,,,,,,,,,,,,,,,,,,,,,,,,,,,"30.18","35","60","0.00",,,,"39","30.14","CLR:00","28.48","10.00","48","240",,"8",,,,,,,,,,,,,,,,,,,,,,,,,,,,,,,,,,,,,"MET09701/25/14 22:51:02 METAR KAVX 260651Z 24007KT 10SM CLR 16/02 A3018 RMK AO2 SLP205 T01560017 TSNO $","FM-15","7",,,,,,,,,,,,,,,,,,,,,,,,,,,,
"72292023191","2014-01-25T23:51:00","FM-15","7",,,,,,,,,,,,,,,,,,,,,,,,,,,,,,,,,,,,,,"30.16","33","57","0.00",,,,"41","30.12","CLR:00","28.46","10.00","46","000",,"0",,,,,,,,,,,,,,,,,,,,,,,,,,,,,,,,,,,,,"MET10701/25/14 23:51:02 METAR KAVX 260751Z 00000KT 10SM CLR 14/01 A3016 RMK AO2 SLP200 T01390006 402000133 TSNO $","FM-15","7",,,,,,,,,,,,,,,,,,,,,,,,,,,,
"72292023191","2014-01-25T23:59:00","SOD  ","6",,,,,,,,,,,,,,,,"62",,,"28.48",,"3.9","0","7.3","3","68","56","260","11","0.00",,,"260","10",,,,,,,,,,,,,,,,,,,,,,,,,,,,,,,,,,,,,,,,,,,,,,,,,,,,,,,,,"SOD73024 HR PRECIPITATION (IN):0.00  24 HR MAX TEMP (F):68 24 HR MAX TEMP TIME (LST):1355 24 HR MIN TEMP (F):56 24 HR MIN TEMP TIME (LST):2326 AVERAGE STATION PRESSURE:28.485 MINIMUM SEA LEVEL PRESSURE:30.10 TIME OF OCCURRENCE:1751 PEAK WIND SPEED (MPH):11  PEAK WIND DIR (DEG):260 PEAK WIND TIME (LST):2254  FASTEST 2MIN SPEED (MPH):10 FASTEST 2MIN DIR (DEG):260 FASTEST 2MIN TIME (LST):2256 AVERAGE WIND SPEED (MPH):3.9  24 HR AVG TEMP (F):62 HEATING DEGREE DAYS:3   COOLING DEGREE DAYS:0   LATEST DAY MAX TEMP (0700-1900 LST):68  LATEST NIGHT MIN TEMP(1900-0800 LST):60 HOURLY INCREMENTAL PRECIPITATION VALUES (IN):.00 0.00 0.00 0.00 0.00 0.00 0.00 0.00 0.00 0.00 0.00 0.00 0.00 0.00 0.00 0.00 0.00 0.00 0.00 0.00 0.00 0.00 0.00 0.00","SOD  ","6",,,,,,,,,,,,,,,,,,,,,,,,,"0654","1718",,
"72292023191","2014-01-26T00:51:00","FM-15","7",,,,,,,,,,,,,,,,,,,,,,,,,,,,,,,,,,,,,,"30.15","38","57","0.00",,"+0.01","8","49","30.11","CLR:00","28.45","10.00","48","060",,"3",,,,,,,,,,,,,,,,,,,,,,,,,,,,,,,,,,,,,"MET10301/26/14 00:51:02 METAR KAVX 260851Z 06003KT 10SM CLR 14/03 A3015 RMK AO2 SLP196 T01390033 58004 TSNO $","FM-15","7",,,,,,,,,,,,,,,,,,,,,,,,,,,,
"72292023191","2014-01-26T01:51:00","FM-15","7",,,,,,,,,,,,,,,,,,,,,,,,,,,,,,,,,,,,,,"30.14","35","58","0.00",,,,"42","30.10","CLR:00","28.44","10.00","47","000",,"0",,,,,,,,,,,,,,,,,,,,,,,,,,,,,,,,,,,,,"MET09701/26/14 01:51:02 METAR KAVX 260951Z 00000KT 10SM CLR 14/02 A3014 RMK AO2 SLP193 T01440017 TSNO $","FM-15","7",,,,,,,,,,,,,,,,,,,,,,,,,,,,
"72292023191","2014-01-26T02:51:00","FM-15","7",,,,,,,,,,,,,,,,,,,,,,,,,,,,,,,,,,,,,,"30.15","36","58","0.00",,,,"44","30.11","CLR:00","28.45","10.00","47","000",,"0",,,,,,,,,,,,,,,,,,,,,,,,,,,,,,,,,,,,,"MET09701/26/14 02:51:02 METAR KAVX 261051Z 00000KT 10SM CLR 14/02 A3015 RMK AO2 SLP195 T01440022 TSNO $","FM-15","7",,,,,,,,,,,,,,,,,,,,,,,,,,,,
"72292023191","2014-01-26T03:51:00","FM-15","7",,,,,,,,,,,,,,,,,,,,,,,,,,,,,,,,,,,,,,"30.13","34","58","0.00",,"+0.02","8","41","30.09","CLR:00","28.43","10.00","47","260",,"3",,,,,,,,,,,,,,,,,,,,,,,,,,,,,,,,,,,,,"MET11501/26/14 03:51:02 METAR KAVX 261151Z 26003KT 10SM CLR 14/01 A3013 RMK AO2 SLP190 T01440011 10161 20133 58007 TSNO $","FM-15","7",,,,,,,,,,,,,,,,,,,,,,,,,,,,
"72292023191","2014-01-26T04:51:00","FM-15","7",,,,,,,,,,,,,,,,,,,,,,,,,,,,,,,,,,,,,,"30.13","32","58","0.00",,,,"38","30.09","CLR:00","28.43","10.00","46","290",,"3",,,,,,,,,,,,,,,,,,,,,,,,,,,,,,,,,,,,,"MET09701/26/14 04:51:02 METAR KAVX 261251Z 29003KT 10SM CLR 14/00 A3013 RMK AO2 SLP189 T01440000 TSNO $","FM-15","7",,,,,,,,,,,,,,,,,,,,,,,,,,,,
"72292023191","2014-01-26T05:51:00","FM-15","7",,,,,,,,,,,,,,,,,,,,,,,,,,,,,,,,,,,,,,"30.13","34","58","0.00",,,,"41","30.10","CLR:00","28.43","10.00","47","260",,"5",,,,,,,,,,,,,,,,,,,,,,,,,,,,,,,,,,,,,"MET09701/26/14 05:51:02 METAR KAVX 261351Z 26004KT 10SM CLR 14/01 A3013 RMK AO2 SLP194 T01440011 TSNO $","FM-15","7",,,,,,,,,,,,,,,,,,,,,,,,,,,,
"72292023191","2014-01-26T06:51:00","FM-15","7",,,,,,,,,,,,,,,,,,,,,,,,,,,,,,,,,,,,,,"30.15","34","57","0.00",,"-0.01","3","42","30.11","CLR:00","28.45","10.00","46","000",,"0",,,,,,,,,,,,,,,,,,,,,,,,,,,,,,,,,,,,,"MET10301/26/14 06:51:02 METAR KAVX 261451Z 00000KT 10SM CLR 14/01 A3015 RMK AO2 SLP197 T01390011 53005 TSNO $","FM-15","7",,,,,,,,,,,,,,,,,,,,,,,,,,,,
"72292023191","2014-01-26T07:51:00","FM-15","7",,,,,,,,,,,,,,,,,,,,,,,,,,,,,,,,,,,,,,"30.15","32","59","0.00",,,,"36","30.11","BKN:07 75","28.45","10.00","46","340",,"5",,,,,,,,,,,,,,,,,,,,,,,,,,,,,,,,,,,,,"MET10001/26/14 07:51:02 METAR KAVX 261551Z 34004KT 10SM BKN075 15/00 A3015 RMK AO2 SLP198 T01500000 TSNO $","FM-15","7",,,,,,,,,,,,,,,,,,,,,,,,,,,,
"72292023191","2014-01-26T08:51:00","FM-15","7",,,,,,,,,,,,,,,,,,,,,,,,,,,,,,,,,,,,,,"30.16","33","60","0.00",,,,"36","30.12","BKN:07 46 BKN:07 65","28.46","10.00","47","330",,"5",,,,,,,,,,,,,,,,,,,,,,,,,,,,,,,,,,,,,"MET10701/26/14 08:51:02 METAR KAVX 261651Z 33004KT 10SM BKN046 BKN065 16/01 A3016 RMK AO2 SLP201 T01560006 TSNO $","FM-15","7",,,,,,,,,,,,,,,,,,,,,,,,,,,,
"72292023191","2014-01-26T09:51:00","FM-15","7",,,,,,,,,,,,,,,,,,,,,,,,,,,,,,,,,,,,,,"30.17","36","61","0.00",,"-0.02","3","39","30.13","OVC:08 41","28.47","10.00","49","270",,"5",,,,,,,,,,,,,,,,,,,,,,,,,,,,,,,,,,,,,"MET11801/26/14 09:51:02 METAR KAVX 261751Z 27004KT 10SM OVC041 16/02 A3017 RMK AO2 SLP202 T01610022 10167 20122 53007 TSNO $","FM-15","7",,,,,,,,,,,,,,,,,,,,,,,,,,,,
"72292023191","2014-01-26T10:51:00","FM-15","7",,,,,,,,,,,,,,,,,,,,,,,,,,,,,,,,,,,,,,"30.16","41","61","0.00",,,,"48","30.12","BKN:07 40 BKN:07 47 OVC:08 55","28.46","10.00","51","230",,"5",,,,,,,,,,,,,,,,,,,,,,,,,,,,,,,,,,,,,"MET11401/26/14 10:51:02 METAR KAVX 261851Z 23004KT 10SM BKN040 BKN047 OVC055 16/05 A3016 RMK AO2 SLP201 T01610050 TSNO $","FM-15","7",,,,,,,,,,,,,,,,,,,,,,,,,,,,
"72292023191","2014-01-26T11:51:00","FM-15","7",,,,,,,,,,,,,,,,,,,,,,,,,,,,,,,,,,,,,,"30.13","40","61","0.00",,,,"46","30.11","SCT:04 37 BKN:07 46 OVC:08 55","28.43","10.00","50","310",,"3",,,,,,,,,,,,,,,,,,,,,,,,,,,,,,,,,,,,,"MET11401/26/14 11:51:02 METAR KAVX 261951Z 31003KT 10SM SCT037 BKN046 OVC055 16/04 A3013 RMK AO2 SLP195 T01610044 TSNO $","FM-15","7",,,,,,,,,,,,,,,,,,,,,,,,,,,,
"72292023191","2014-01-26T12:51:00","FM-15","7",,,,,,,,,,,,,,,,,,,,,,,,,,,,,,,,,,,,,,"30.10","46","60","0.00",,"+0.06","8","60","30.07","BKN:07 31 OVC:08 50","28.40","10.00","53","270",,"5",,,,,,,,,,,,,,,,,,,,,,,,,,,,,,,,,,,,,"MET11301/26/14 12:51:02 METAR KAVX 262051Z 27004KT 10SM BKN031 OVC050 16/08 A3010 RMK AO2 SLP184 T01560078 58020 TSNO $","FM-15","7",,,,,,,,,,,,,,,,,,,,,,,,,,,,
"72292023191","2014-01-26T13:22:00","FM-16","7",,,,,,,,,,,,,,,,,,,,,,,,,,,,,,,,,,,,,,"30.09","50","58",,,,,"75",,"OVC:08 29","28.39","10.00","54","VRB",,"7",,,,,,,,,,,,,,,,,,,,,,,,,,,,,,,,,,,,,"MET09301/26/14 13:22:02 SPECI KAVX 262122Z VRB06KT 10SM OVC029 14/10 A3009 RMK AO2 T01440100 TSNO $","FM-16","7",,,,,,,,,,,,,,,,,,,,,,,,,,,,
"72292023191","2014-01-26T13:51:00","FM-15","7",,,,,,,,,,,,,,,,,,,,,,,,,,,,,,,,,,,,,,"30.08","51","57","0.00",,,,"81","30.06","OVC:08 27","28.38","10.00","54","310",,"3",,,,,,,,,,,,,,,,,,,,,,,,,,,,,,,,,,,,,"MET10001/26/14 13:51:02 METAR KAVX 262151Z 31003KT 10SM OVC027 14/11 A3008 RMK AO2 SLP178 T01390106 TSNO $","FM-15","7",,,,,,,,,,,,,,,,,,,,,,,,,,,,
"72292023191","2014-01-26T14:24:00","FM-16","7",,,,,,,,,,,,,,,,,,,,,,,,,,,,,,,,,,,,,,"30.07","42","60",,,,,"52",,"SCT:04 26 OVC:08 90","28.37","10.00","51","000",,"0",,,,,,,,,,,,,,,,,,,,,,,,,,,,,,,,,,,,,"MET10001/26/14 14:24:02 SPECI KAVX 262224Z 00000KT 10SM SCT026 OVC090 16/06 A3007 RMK AO2 T01560056 TSNO $","FM-16","7",,,,,,,,,,,,,,,,,,,,,,,,,,,,
"72292023191","2014-01-26T14:51:00","FM-15","7",,,,,,,,,,,,,,,,,,,,,,,,,,,,,,,,,,,,,,"30.06","45","60","0.00",,,,"58","30.03","OVC:08 90","28.36","10.00","52","010",,"3",,,,,,,,,,,,,,,,,,,,,,,,,,,,,,,,,,,,,"MET10001/26/14 14:51:02 METAR KAVX 262251Z 01003KT 10SM OVC090 16/07 A3006 RMK AO2 SLP171 T01560072 TSNO $","FM-15","7",,,,,,,,,,,,,,,,,,,,,,,,,,,,
"72292023191","2014-01-26T15:51:00","FM-15","7",,,,,,,,,,,,,,,,,,,,,,,,,,,,,,,,,,,,,,"30.05","50","57","0.00",,"+0.05","6","78","30.03","FEW:02 95","28.35","10.00","53","290",,"3",,,,,,,,,,,,,,,,,,,,,,,,,,,,,,,,,,,,,"MET11801/26/14 15:51:02 METAR KAVX 262351Z 29003KT 10SM FEW095 14/10 A3005 RMK AO2 SLP168 T01390100 10167 20139 56016 TSNO $","FM-15","7",,,,,,,,,,,,,,,,,,,,,,,,,,,,
"72292023191","2014-01-26T16:51:00","FM-15","7",,,,,,,,,,,,,,,,,,,,,,,,,,,,,,,,,,,,,,"30.06","50","55","0.00",,,,"83","30.03","SCT:04 38","28.36","10.00","52","000",,"0",,,,,,,,,,,,,,,,,,,,,,,,,,,,,,,,,,,,,"MET10001/26/14 16:51:01 METAR KAVX 270051Z 00000KT 10SM SCT038 13/10 A3006 RMK AO2 SLP170 T01280100 TSNO $","FM-15","7",,,,,,,,,,,,,,,,,,,,,,,,,,,,
"72292023191","2014-01-26T17:51:00","FM-15","7",,,,,,,,,,,,,,,,,,,,,,,,,,,,,,,,,,,,,,"30.07","46","57","0.00",,,,"67","30.04","CLR:00","28.37","10.00","51","290",,"6",,,,,,,,,,,,,,,,,,,,,,,,,,,,,,,,,,,,,"MET09701/26/14 17:51:01 METAR KAVX 270151Z 29005KT 10SM CLR 14/08 A3007 RMK AO2 SLP172 T01390078 TSNO $","FM-15","7",,,,,,,,,,,,,,,,,,,,,,,,,,,,
"72292023191","2014-01-26T18:51:00","FM-15","7",,,,,,,,,,,,,,,,,,,,,,,,,,,,,,,,,,,,,,"30.07","48","54","0.00",,"-0.01","1","80","30.05","CLR:00","28.37","10.00","51","240",,"3",,,,,,,,,,,,,,,,,,,,,,,,,,,,,,,,,,,,,"MET10301/26/14 18:51:01 METAR KAVX 270251Z 24003KT 10SM CLR 12/09 A3007 RMK AO2 SLP175 T01220089 51003 TSNO $","FM-15","7",,,,,,,,,,,,,,,,,,,,,,,,,,,,
"72292023191","2014-01-26T19:44:00","FM-16","7",,,,,,,,,,,,,,,,,,,,,,,,,,,,,,,,,,,,,,"30.06","47","55",,,,,"74",,"FEW:02 8","28.36","10.00","51","270",,"5",,,,,,,,,,,,,,,,,,,,,,,,,,,,,,,,,,,,,"MET09301/26/14 19:44:02 SPECI KAVX 270344Z 27004KT 10SM FEW008 13/08 A3006 RMK AO2 T01280083 TSNO $","FM-16","7",,,,,,,,,,,,,,,,,,,,,,,,,,,,
"72292023191","2014-01-26T19:51:00","FM-15","7",,,,,,,,,,,,,,,,,,,,,,,,,,,,,,,,,,,,,,"30.06","47","54","0.00",,,,"77","30.04","CLR:00","28.36","10.00","50","270",,"6",,,,,,,,,,,,,,,,,,,,,,,,,,,,,,,,,,,,,"MET09701/26/14 19:51:02 METAR KAVX 270351Z 27005KT 10SM CLR 12/08 A3006 RMK AO2 SLP172 T01220083 TSNO $","FM-15","7",,,,,,,,,,,,,,,,,,,,,,,,,,,,
"72292023191","2014-01-26T20:15:00","FM-16","7",,,,,,,,,,,,,,,,,,,,,,,,,,,,,,,,,,,,,,"30.07","48","54",,,,,"80",,"SCT:04 8","28.37","10.00","51","260",,"3",,,,,,,,,,,,,,,,,,,,,,,,,,,,,,,,,,,,,"MET09301/26/14 20:15:02 SPECI KAVX 270415Z 26003KT 10SM SCT008 12/09 A3007 RMK AO2 T01220089 TSNO $","FM-16","7",,,,,,,,,,,,,,,,,,,,,,,,,,,,
"72292023191","2014-01-26T20:36:00","FM-16","7",,,,,,,,,,,,,,,,,,,,,,,,,,,,,,,,,,,,,,"30.07","47","53",,,,,"80",,"BKN:07 8","28.37","10.00","50","300",,"6",,,,,,,,,,,,,,,,,,,,,,,,,,,,,,,,,,,,,"MET09301/26/14 20:36:02 SPECI KAVX 270436Z 30005KT 10SM BKN008 12/08 A3007 RMK AO2 T01170083 TSNO $","FM-16","7",,,,,,,,,,,,,,,,,,,,,,,,,,,,
"72292023191","2014-01-26T20:44:00","FM-16","7",,,,,,,,,,,,,,,,,,,,,,,,,,,,,,,,,,,,,,"30.07","45","53",,,,,"74",,"SCT:04 8","28.37","10.00","49","300",,"6",,,,,,,,,,,,,,,,,,,,,,,,,,,,,,,,,,,,,"MET09301/26/14 20:44:02 SPECI KAVX 270444Z 30005KT 10SM SCT008 12/07 A3007 RMK AO2 T01170072 TSNO $","FM-16","7",,,,,,,,,,,,,,,,,,,,,,,,,,,,
"72292023191","2014-01-26T20:49:00","FM-16","6",,,,,,,,,,,,,,,,,,,,,,,,,,,,,,,,,,,,,,"30.07","45","54",,,,,"72",,"BKN:07 8","28.37","10.00","49","310",,"8",,,,,,,,,,,,,,,,,,,,,,,,,,,,,,,,,,,,,"MET08801/26/14 20:49:03 SPECI KAVX 270449Z 31007KT 10SM BKN008 12/07 A3007 RMK AO2 TSNO $ FIBI","FM-16","6",,,,,,,,,,,,,,,,,,,,,,,,,,,,
"72292023191","2014-01-26T20:51:00","FM-15","7",,,,,,,,,,,,,,,,,,,,,,,,,,,,,,,,,,,,,,"30.07","45","53","0.00",,,,"74","30.04","BKN:07 8","28.37","10.00","49","300",,"8",,,,,,,,,,,,,,,,,,,,,,,,,,,,,,,,,,,,,"MET10001/26/14 20:51:02 METAR KAVX 270451Z 30007KT 10SM BKN008 12/07 A3007 RMK AO2 SLP174 T01170072 TSNO $","FM-15","7",,,,,,,,,,,,,,,,,,,,,,,,,,,,
"72292023191","2014-01-26T21:49:00","FM-16","6",,,,,,,,,,,,,,,,,,,,,,,,,,,,,,,,,,,,,,"30.08","48","54",,,,,"82",,"OVC:08 4","28.38","10.00","51","270",,"9",,,,,,,,,,,,,,,,,,,,,,,,,,,,,,,,,,,,,"MET08801/26/14 21:49:03 SPECI KAVX 270549Z 27008KT 10SM OVC004 12/09 A3008 RMK AO2 TSNO $ FIBI","FM-16","6",,,,,,,,,,,,,,,,,,,,,,,,,,,,
"72292023191","2014-01-26T21:51:00","FM-15","7",,,,,,,,,,,,,,,,,,,,,,,,,,,,,,,,,,,,,,"30.08","50","54","0.00",,"-0.02","1","87","30.05","OVC:08 4","28.38","10.00","52","270",,"9",,,,,,,,,,,,,,,,,,,,,,,,,,,,,,,,,,,,,"MET11801/26/14 21:51:02 METAR KAVX 270551Z 27008KT 10SM OVC004 12/10 A3008 RMK AO2 SLP177 T01220100 10144 20117 51006 TSNO $","FM-15","7",,,,,,,,,,,,,,,,,,,,,,,,,,,,
"72292023191","2014-01-26T22:04:00","FM-16","7",,,,,,,,,,,,,,,,,,,,,,,,,,,,,,,,,,,,,,"30.09","49","54",,,,,"83",,"OVC:08 5","28.39","10.00","51","280",,"10",,,,,,,,,,,,,,,,,,,,,,,,,,,,,,,,,,,,,"MET09301/26/14 22:04:02 SPECI KAVX 270604Z 28009KT 10SM OVC005 12/09 A3009 RMK AO2 T01220094 TSNO $","FM-16","7",,,,,,,,,,,,,,,,,,,,,,,,,,,,
"72292023191","2014-01-26T22:46:00","FM-16","7",,,,,,,,,,,,,,,,,,,,,,,,,,,,,,,,,,,,,,"30.10","48","54",,,,,"82",,"SCT:04 6 OVC:08 11","28.40","10.00","51","280",,"9",,,,,,,,,,,,,,,,,,,,,,,,,,,,,,,,,,,,,"MET09001/26/14 22:46:02 SPECI KAVX 270646Z 28008KT 10SM SCT006 OVC011 12/09 A3010 RMK AO2 TSNO $","FM-16","7",,,,,,,,,,,,,,,,,,,,,,,,,,,,
"72292023191","2014-01-26T22:51:00","FM-15","7",,,,,,,,,,,,,,,,,,,,,,,,,,,,,,,,,,,,,,"30.10","48","54","T",,,,"80","30.07","FEW:02 6 OVC:08 11","28.40","10.00","51","280",,"9",,,,,,,,,,,,,,,,,,,,,,,,,,,,,,,,,,,,,"MET10701/26/14 22:51:02 METAR KAVX 270651Z 28008KT 10SM FEW006 OVC011 12/09 A3010 RMK AO2 SLP184 T01220089 TSNO $","FM-15","7",,,,,,,,,,,,,,,,,,,,,,,,,,,,
"72292023191","2014-01-26T23:34:00","FM-16","7",,,,,,,,,,,,,,,,,,,,,,,,,,,,,,,,,,,,,,"30.10","48","52","0.01","-RA:02 BR:1 |RA |",,,"86",,"FEW:02 10 OVC:08 16","28.40","2.50","50","270",,"9",,,,,,,,,,,,,,,,,,,,,,,,,,,,,,,,,,,,,"MET12401/26/14 23:34:02 SPECI KAVX 270734Z 27008KT 2 1/2SM -RA BR FEW010 OVC016 11/09 A3010 RMK AO2 RAB0659 P0001 T01110089 TSNO $","FM-16","7",,,,,,,,,,,,,,,,,,,,,,,,,,,,
"72292023191","2014-01-26T23:43:00","FM-16","7",,,,,,,,,,,,,,,,,,,,,,,,,,,,,,,,,,,,,,"30.10","48","52","0.02","-RA:02 BR:1 |RA |",,,"86",,"BKN:07 16 OVC:08 33","28.40","3.00","50","260",,"9",,,,,,,,,,,,,,,,,,,,,,,,,,,,,,,,,,,,,"MET12001/26/14 23:43:02 SPECI KAVX 270743Z 26008KT 3SM -RA BR BKN016 OVC033 11/09 A3010 RMK AO2 RAB0659 P0002 T01110089 TSNO $","FM-16","7",,,,,,,,,,,,,,,,,,,,,,,,,,,,
"72292023191","2014-01-26T23:51:00","FM-15","7",,,,,,,,,,,,,,,,,,,,,,,,,,,,,,,,,,,,,,"30.09","49","52","0.02","-RA:02 BR:1 |RA |",,,"89","30.07","BKN:07 18 BKN:07 25 OVC:08 33","28.39","4.00","50","260",,"9",,,,,,,,,,,,,,,,,,,,,,,,,,,,,,,,,,,,,"MET14401/26/14 23:51:02 METAR KAVX 270751Z 26008KT 4SM -RA BR BKN018 BKN025 OVC033 11/09 A3009 RMK AO2 RAB0659 SLP183 P0002 T01110094 401670111 TSNO $","FM-15","7",,,,,,,,,,,,,,,,,,,,,,,,,,,,
"72292023191","2014-01-26T23:59:00","SOD  ","6",,,,,,,,,,,,,,,,"57",,,"28.40",,"4.3","0","2.4","8","62","52","280","16","0.02",,,"280","13","RA BR",,,,,,,,,,,,,,,,,,,,,,,,,,,,,,,,,,,,,,,,,,,,,,,,,,,,,,,,"SOD73024 HR PRECIPITATION (IN):0.02  24 HR MAX TEMP (F):62 24 HR MAX TEMP TIME (LST):1440 24 HR MIN TEMP (F):52 24 HR MIN TEMP TIME (LST):2359 AVERAGE STATION PRESSURE:28.400 MINIMUM SEA LEVEL PRESSURE:30.03 TIME OF OCCURRENCE:1740 PEAK WIND SPEED (MPH):16  PEAK WIND DIR (DEG):280 PEAK WIND TIME (LST):2312  FASTEST 2MIN SPEED (MPH):13 FASTEST 2MIN DIR (DEG):280 FASTEST 2MIN TIME (LST):2313 AVERAGE WIND SPEED (MPH):4.3  24 HR AVG TEMP (F):57 HEATING DEGREE DAYS:8   COOLING DEGREE DAYS:0   LATEST DAY MAX TEMP (0700-1900 LST):62  LATEST NIGHT MIN TEMP(1900-0800 LST):54 HOURLY INCREMENTAL PRECIPITATION VALUES (IN):.00 0.00 0.00 0.00 0.00 0.00 0.00 0.00 0.00 0.00 0.00 0.00 0.00 0.00 0.00 0.00 0.00 0.00 0.00 0.00 0.00 0.00 T    0.02","SOD  ","6",,,,,,,,,,,,,,,,,,,,,,,,,"0654","1719",,
"72292023191","2014-01-27T00:31:00","FM-16","7",,,,,,,,,,,,,,,,,,,,,,,,,,,,,,,,,,,,,,"30.09","50","53","T","-RA:02 BR:1 |RA |",,,"89",,"SCT:04 4 BKN:07 19 OVC:08 23","28.39","5.00","51","270",,"7",,,,,,,,,,,,,,,,,,,,,,,,,,,,,,,,,,,,,"MET11901/27/14 00:31:02 SPECI KAVX 270831Z 27006KT 5SM -RA BR SCT004 BKN019 OVC023 12/10 A3009 RMK AO2 P0000 T01170100 TSNO $","FM-16","7",,,,,,,,,,,,,,,,,,,,,,,,,,,,
"72292023191","2014-01-27T00:49:00","FM-16","6",,,,,,,,,,,,,,,,,,,,,,,,,,,,,,,,,,,,,,"30.08","50","54",,,,,"88",,"FEW:02 4 SCT:04 21 BKN:07 30","28.38","10.00","52","250",,"5",,,,,,,,,,,,,,,,,,,,,,,,,,,,,,,,,,,,,"MET11401/27/14 00:49:02 SPECI KAVX 270849Z 25004KT 10SM FEW004 SCT021 BKN030 12/10 A3008 RMK AO2 RAE37 P0000 TSNO $ FIBI","FM-16","6",,,,,,,,,,,,,,,,,,,,,,,,,,,,
"72292023191","2014-01-27T00:51:00","FM-15","7",,,,,,,,,,,,,,,,,,,,,,,,,,,,,,,,,,,,,,"30.08","50","53","T",,"+0.01","8","89","30.06","FEW:02 4 SCT:04 23 BKN:07 30","28.38","10.00","51","250",,"3",,,,,,,,,,,,,,,,,,,,,,,,,,,,,,,,,,,,,"MET13801/27/14 00:51:02 METAR KAVX 270851Z 25003KT 10SM FEW004 SCT023 BKN030 12/10 A3008 RMK AO2 RAE37 SLP179 P0000 60002 T01170100 58005 TSNO $","FM-15","7",,,,,,,,,,,,,,,,,,,,,,,,,,,,
"72292023191","2014-01-27T01:51:00","FM-15","7",,,,,,,,,,,,,,,,,,,,,,,,,,,,,,,,,,,,,,"30.06","51","55","0.00",,,,"87","30.04","CLR:00","28.36","10.00","53","090",,"3",,,,,,,,,,,,,,,,,,,,,,,,,,,,,,,,,,,,,"MET09701/27/14 01:51:02 METAR KAVX 270951Z 09003KT 10SM CLR 13/11 A3006 RMK AO2 SLP173 T01280106 TSNO $","FM-15","7",,,,,,,,,,,,,,,,,,,,,,,,,,,,
"72292023191","2014-01-27T02:51:00","FM-15","7",,,,,,,,,,,,,,,,,,,,,,,,,,,,,,,,,,,,,,"30.04","50","56","0.00",,,,"81","30.02","CLR:00","28.34","10.00","53","140",,"5",,,,,,,,,,,,,,,,,,,,,,,,,,,,,,,,,,,,,"MET09701/27/14 02:51:02 METAR KAVX 271051Z 14004KT 10SM CLR 13/10 A3004 RMK AO2 SLP165 T01330100 TSNO $","FM-15","7",,,,,,,,,,,,,,,,,,,,,,,,,,,,
"72292023191","2014-01-27T03:51:00","FM-15","7",,,,,,,,,,,,,,,,,,,,,,,,,,,,,,,,,,,,,,"30.04","46","55","0.00",,"+0.04","6","72","30.03","CLR:00","28.34","10.00","50","000",,"0",,,,,,,,,,,,,,,,,,,,,,,,,,,,,,,,,,,,,"MET12701/27/14 03:51:02 METAR KAVX 271151Z 00000KT 10SM CLR 13/08 A3004 RMK AO2 SLP168 60002 70002 T01280078 10133 20111 56013 TSNO $","FM-15","7",,,,,,,,,,,,,,,,,,,,,,,,,,,,
"72292023191","2014-01-27T04:25:00","FM-16","7",,,,,,,,,,,,,,,,,,,,,,,,,,,,,,,,,,,,,,"30.05","48","52",,"BR:1 ||",,,"86",,"FEW:02 2","28.35","1.50","50","250",,"9",,,,,,,,,,,,,,,,,,,,,,,,,,,,,,,,,,,,,"MET09901/27/14 04:25:02 SPECI KAVX 271225Z 25008KT 1 1/2SM BR FEW002 11/09 A3005 RMK AO2 T01110089 TSNO $","FM-16","7",,,,,,,,,,,,,,,,,,,,,,,,,,,,
"72292023191","2014-01-27T04:32:00","FM-16","7",,,,,,,,,,,,,,,,,,,,,,,,,,,,,,,,,,,,,,"30.05","49","51",,"FG:2 |FG |",,,"92",,"VV:09 1","28.35","0.25","50","270",,"11",,,,,,,,,,,,,,,,,,,,,,,,,,,,,,,,,,,,,"MET09601/27/14 04:32:02 SPECI KAVX 271232Z 27010KT 1/4SM FG VV001 11/09 A3005 RMK AO2 T01060094 TSNO $","FM-16","7",,,,,,,,,,,,,,,,,,,,,,,,,,,,
"72292023191","2014-01-27T04:51:00","FM-15","7",,,,,,,,,,,,,,,,,,,,,,,,,,,,,,,,,,,,,,"30.05","50","52","0.00","FG:2 |FG |",,,"93","30.03","VV:09 1","28.35","0.00","51","250",,"11",,,,,,,,,,,,,,,,,,,,,,,,,,,,,,,,,,,,,"MET10401/27/14 04:51:02 METAR KAVX 271251Z 25010KT M1/4SM FG VV001 11/10 A3005 RMK AO2 SLP170 T01110100 TSNO $","FM-15","7",,,,,,,,,,,,,,,,,,,,,,,,,,,,
"72292023191","2014-01-27T05:51:00","FM-15","7",,,,,,,,,,,,,,,,,,,,,,,,,,,,,,,,,,,,,,"30.06","51","52","0.00","FG:2 |FG |",,,"97","30.04","VV:09 1","28.36","0.00","51","240",,"11",,,,,,,,,,,,,,,,,,,,,,,,,,,,,,,,,,,,,"MET10401/27/14 05:51:02 METAR KAVX 271351Z 24010KT M1/4SM FG VV001 11/11 A3006 RMK AO2 SLP173 T01110106 TSNO $","FM-15","7",,,,,,,,,,,,,,,,,,,,,,,,,,,,
"72292023191","2014-01-27T06:51:00","FM-15","7",,,,,,,,,,,,,,,,,,,,,,,,,,,,,,,,,,,,,,"30.08","50","52","0.00","FG:2 |FG |","-0.04","3","93","30.07","VV:09 2","28.38","0.25","51","270",,"10",,,,,,,,,,,,,,,,,,,,,,,,,,,,,,,,,,,,,"MET10901/27/14 06:51:02 METAR KAVX 271451Z 27009KT 1/4SM FG VV002 11/10 A3008 RMK AO2 SLP184 T01110100 53012 TSNO $","FM-15","7",,,,,,,,,,,,,,,,,,,,,,,,,,,,
"72292023191","2014-01-27T07:51:00","FM-15","7",,,,,,,,,,,,,,,,,,,,,,,,,,,,,,,,,,,,,,"30.10","51","52","0.00","FG:2 |FG |",,,"97","30.09","VV:09 1","28.40","0.00","51","270",,"6",,,,,,,,,,,,,,,,,,,,,,,,,,,,,,,,,,,,,"MET10201/27/14 07:51:02 METAR KAVX 271551Z 27005KT M1/4SM FG VV001 11/11 A3010 RMK AO2 SLP191 T01110106 TSNO","FM-15","7",,,,,,,,,,,,,,,,,,,,,,,,,,,,
"72292023191","2014-01-27T08:51:00","FM-15","7",,,,,,,,,,,,,,,,,,,,,,,,,,,,,,,,,,,,,,"30.12","52","52","0.00","FG:2 |FG |",,,"100","30.11","VV:09 2","28.42","0.00","52","250",,"5",,,,,,,,,,,,,,,,,,,,,,,,,,,,,,,,,,,,,"MET10201/27/14 08:51:02 METAR KAVX 271651Z 25004KT M1/4SM FG VV002 11/11 A3012 RMK AO2 SLP197 T01110111 TSNO","FM-15","7",,,,,,,,,,,,,,,,,,,,,,,,,,,,
"72292023191","2014-01-27T09:45:00","FM-16","7",,,,,,,,,,,,,,,,,,,,,,,,,,,,,,,,,,,,,,"30.12","55","55",,"BR:1 ||",,,"100",,"BKN:07 2","28.42","3.00","55","000",,"0",,,,,,,,,,,,,,,,,,,,,,,,,,,,,,,,,,,,,"MET08301/27/14 09:45:02 SPECI KAVX 271745Z 00000KT 3SM BR BKN002 13/13 A3012 RMK AO2 TSNO","FM-16","7",,,,,,,,,,,,,,,,,,,,,,,,,,,,
"72292023191","2014-01-27T09:51:00","FM-15","7",,,,,,,,,,,,,,,,,,,,,,,,,,,,,,,,,,,,,,"30.11","56","56","0.00",,"-0.03","0","100","30.10","SCT:04 2","28.41","10.00","56","000",,"0",,,,,,,,,,,,,,,,,,,,,,,,,,,,,,,,,,,,,"MET11601/27/14 09:51:02 METAR KAVX 271751Z 00000KT 10SM SCT002 13/13 A3011 RMK AO2 SLP192 T01330133 10133 20106 50010 TSNO","FM-15","7",,,,,,,,,,,,,,,,,,,,,,,,,,,,
"72292023191","2014-01-27T10:51:00","FM-15","7",,,,,,,,,,,,,,,,,,,,,,,,,,,,,,,,,,,,,,"30.11","53","59","0.00",,,,"81","30.09","CLR:00","28.41","10.00","56","VRB",,"6",,,,,,,,,,,,,,,,,,,,,,,,,,,,,,,,,,,,,"MET09501/27/14 10:51:02 METAR KAVX 271851Z VRB05KT 10SM CLR 15/12 A3011 RMK AO2 SLP190 T01500117 TSNO","FM-15","7",,,,,,,,,,,,,,,,,,,,,,,,,,,,
"72292023191","2014-01-27T11:51:00","FM-15","7",,,,,,,,,,,,,,,,,,,,,,,,,,,,,,,,,,,,,,"30.10","53","60","0.00",,,,"78","30.08","CLR:00","28.40","10.00","56","000",,"0",,,,,,,,,,,,,,,,,,,,,,,,,,,,,,,,,,,,,"MET09501/27/14 11:51:02 METAR KAVX 271951Z 00000KT 10SM CLR 16/12 A3010 RMK AO2 SLP187 T01560117 TSNO","FM-15","7",,,,,,,,,,,,,,,,,,,,,,,,,,,,
"72292023191","2014-01-27T12:51:00","FM-15","7",,,,,,,,,,,,,,,,,,,,,,,,,,,,,,,,,,,,,,"30.07","53","62","0.00",,"+0.04","8","73","30.05","CLR:00","28.37","10.00","57","000",,"0",,,,,,,,,,,,,,,,,,,,,,,,,,,,,,,,,,,,,"MET10101/27/14 12:51:02 METAR KAVX 272051Z 00000KT 10SM CLR 17/12 A3007 RMK AO2 SLP175 T01670117 58013 TSNO","FM-15","7",,,,,,,,,,,,,,,,,,,,,,,,,,,,
"72292023191","2014-01-27T13:51:00","FM-15","7",,,,,,,,,,,,,,,,,,,,,,,,,,,,,,,,,,,,,,"30.05","50","60","0.00",,,,"70","30.02","CLR:00","28.35","10.00","55","240",,"9",,,,,,,,,,,,,,,,,,,,,,,,,,,,,,,,,,,,,"MET09501/27/14 13:51:02 METAR KAVX 272151Z 24008KT 10SM CLR 16/10 A3005 RMK AO2 SLP167 T01560100 TSNO","FM-15","7",,,,,,,,,,,,,,,,,,,,,,,,,,,,
"72292023191","2014-01-27T14:51:00","FM-15","7",,,,,,,,,,,,,,,,,,,,,,,,,,,,,,,,,,,,,,"30.04","50","57","0.00",,,,"78","30.02","CLR:00","28.34","10.00","53","250",,"10",,,,,,,,,,,,,,,,,,,,,,,,,,,,,,,,,,,,,"MET09501/27/14 14:51:02 METAR KAVX 272251Z 25009KT 10SM CLR 14/10 A3004 RMK AO2 SLP166 T01390100 TSNO","FM-15","7",,,,,,,,,,,,,,,,,,,,,,,,,,,,
"72292023191","2014-01-27T15:22:00","FM-16","7",,,,,,,,,,,,,,,,,,,,,,,,,,,,,,,,,,,,,,"30.05","49","56",,,,,"77",,"FEW:02 3","28.35","9.00","52","250",,"10",,,,,,,,,,,,,,,,,,,,,,,,,,,,,,,,,,,,,"MET09001/27/14 15:22:02 SPECI KAVX 272322Z 25009KT 9SM FEW003 13/09 A3005 RMK AO2 T01330094 TSNO","FM-16","7",,,,,,,,,,,,,,,,,,,,,,,,,,,,
"72292023191","2014-01-27T15:51:00","FM-15","7",,,,,,,,,,,,,,,,,,,,,,,,,,,,,,,,,,,,,,"30.05","49","54","0.00","HZ:7 |FU |HZ","+0.02","5","83","30.03","FEW:02 2","28.35","6.00","51","240",,"10",,,,,,,,,,,,,,,,,,,,,,,,,,,,,,,,,,,,,"MET11801/27/14 15:51:02 METAR KAVX 272351Z 24009KT 6SM HZ FEW002 12/09 A3005 RMK AO2 SLP170 T01220094 10172 20122 55008 TSNO","FM-15","7",,,,,,,,,,,,,,,,,,,,,,,,,,,,
"72292023191","2014-01-27T15:54:00","FM-16","7",,,,,,,,,,,,,,,,,,,,,,,,,,,,,,,,,,,,,,"30.05","50","54",,"BR:1 ||",,,"87",,"VV:09 2","28.35","1.00","52","240",,"9",,,,,,,,,,,,,,,,,,,,,,,,,,,,,,,,,,,,,"MET09201/27/14 15:54:02 SPECI KAVX 272354Z 24008KT 1SM BR VV002 12/10 A3005 RMK AO2 T01220100 TSNO","FM-16","7",,,,,,,,,,,,,,,,,,,,,,,,,,,,
"72292023191","2014-01-27T16:01:00","FM-16","7",,,,,,,,,,,,,,,,,,,,,,,,,,,,,,,,,,,,,,"30.05","51","53",,"FG:2 |FG |",,,"93",,"VV:09 2","28.35","0.25","52","230",,"7",,,,,,,,,,,,,,,,,,,,,,,,,,,,,,,,,,,,,"MET09401/27/14 16:01:01 SPECI KAVX 280001Z 23006KT 1/4SM FG VV002 12/11 A3005 RMK AO2 T01170106 TSNO","FM-16","7",,,,,,,,,,,,,,,,,,,,,,,,,,,,
"72292023191","2014-01-27T16:14:00","FM-16","7",,,,,,,,,,,,,,,,,,,,,,,,,,,,,,,,,,,,,,"30.05","52","54",,"BR:1 ||",,,"93",,"BKN:07 2","28.35","1.50V","53","000",,"0",,,,,,,,,,,,,,,,,,,,,,,,,,,,,,,,,,,,,"MET10701/27/14 16:14:01 SPECI KAVX 280014Z 00000KT 1 1/2SM BR BKN002 12/11 A3005 RMK AO2 VIS 1/2V5 T01220111 TSNO","FM-16","7",,,,,,,,,,,,,,,,,,,,,,,,,,,,
"72292023191","2014-01-27T16:16:00","FM-16","7",,,,,,,,,,,,,,,,,,,,,,,,,,,,,,,,,,,,,,"30.05","52","54",,"BR:1 ||",,,"93",,"BKN:07 2","28.35","3.00","53","000",,"0",,,,,,,,,,,,,,,,,,,,,,,,,,,,,,,,,,,,,"MET09301/27/14 16:16:01 SPECI KAVX 280016Z 00000KT 3SM BR BKN002 12/11 A3005 RMK AO2 T01220111 TSNO","FM-16","7",,,,,,,,,,,,,,,,,,,,,,,,,,,,
"72292023191","2014-01-27T16:29:00","FM-16","7",,,,,,,,,,,,,,,,,,,,,,,,,,,,,,,,,,,,,,"30.05","51","58",,,,,"78",,"SCT:04 2","28.35","10.00","54","330",,"3",,,,,,,,,,,,,,,,,,,,,,,,,,,,,,,,,,,,,"MET09101/27/14 16:29:01 SPECI KAVX 280029Z 33003KT 10SM SCT002 14/11 A3005 RMK AO2 T01440106 TSNO","FM-16","7",,,,,,,,,,,,,,,,,,,,,,,,,,,,
"72292023191","2014-01-27T16:51:00","FM-15","7",,,,,,,,,,,,,,,,,,,,,,,,,,,,,,,,,,,,,,"30.05","47","58","0.00",,,,"67","30.03","CLR:00","28.35","10.00","52","300",,"3",,,,,,,,,,,,,,,,,,,,,,,,,,,,,,,,,,,,,"MET09501/27/14 16:51:01 METAR KAVX 280051Z 30003KT 10SM CLR 14/08 A3005 RMK AO2 SLP169 T01440083 TSNO","FM-15","7",,,,,,,,,,,,,,,,,,,,,,,,,,,,
"72292023191","2014-01-27T17:51:00","FM-15","7",,,,,,,,,,,,,,,,,,,,,,,,,,,,,,,,,,,,,,"30.06","48","56","0.00",,,,"75","30.05","CLR:00","28.36","10.00","52","260",,"6",,,,,,,,,,,,,,,,,,,,,,,,,,,,,,,,,,,,,"MET09501/27/14 17:51:01 METAR KAVX 280151Z 26005KT 10SM CLR 13/09 A3006 RMK AO2 SLP176 T01330089 TSNO","FM-15","7",,,,,,,,,,,,,,,,,,,,,,,,,,,,
"72292023191","2014-01-27T18:51:00","FM-15","7",,,,,,,,,,,,,,,,,,,,,,,,,,,,,,,,,,,,,,"30.08","48","57","0.00",,"-0.03","3","72","30.06","CLR:00","28.38","10.00","52","290",,"5",,,,,,,,,,,,,,,,,,,,,,,,,,,,,,,,,,,,,"MET10101/27/14 18:51:02 METAR KAVX 280251Z 29004KT 10SM CLR 14/09 A3008 RMK AO2 SLP180 T01390089 53009 TSNO","FM-15","7",,,,,,,,,,,,,,,,,,,,,,,,,,,,
"72292023191","2014-01-27T19:51:00","FM-15","7",,,,,,,,,,,,,,,,,,,,,,,,,,,,,,,,,,,,,,"30.09","42","58","0.00",,,,"56","30.07","CLR:00","28.39","10.00","50","270",,"5",,,,,,,,,,,,,,,,,,,,,,,,,,,,,,,,,,,,,"MET09501/27/14 19:51:02 METAR KAVX 280351Z 27004KT 10SM CLR 14/06 A3009 RMK AO2 SLP183 T01440056 TSNO","FM-15","7",,,,,,,,,,,,,,,,,,,,,,,,,,,,
"72292023191","2014-01-27T20:51:00","FM-15","7",,,,,,,,,,,,,,,,,,,,,,,,,,,,,,,,,,,,,,"30.09","40","59","0.00",,,,"49","30.07","CLR:00","28.39","10.00","49","000",,"0",,,,,,,,,,,,,,,,,,,,,,,,,,,,,,,,,,,,,"MET09501/27/14 20:51:02 METAR KAVX 280451Z 00000KT 10SM CLR 15/04 A3009 RMK AO2 SLP183 T01500044 TSNO","FM-15","7",,,,,,,,,,,,,,,,,,,,,,,,,,,,
"72292023191","2014-01-27T21:51:00","FM-15","7",,,,,,,,,,,,,,,,,,,,,,,,,,,,,,,,,,,,,,"30.09","43","57","0.00",,"-0.01","0","60","30.06","CLR:00","28.39","10.00","50","260",,"3",,,,,,,,,,,,,,,,,,,,,,,,,,,,,,,,,,,,,"MET11301/27/14 21:51:02 METAR KAVX 280551Z 26003KT 10SM CLR 14/06 A3009 RMK AO2 SLP181 T01390061 10150 20117 50003 TSNO","FM-15","7",,,,,,,,,,,,,,,,,,,,,,,,,,,,
"72292023191","2014-01-27T22:51:00","FM-15","7",,,,,,,,,,,,,,,,,,,,,,,,,,,,,,,,,,,,,,"30.09","40","56","0.00",,,,"55","30.06","CLR:00","28.39","10.00","48","010",,"5",,,,,,,,,,,,,,,,,,,,,,,,,,,,,,,,,,,,,"MET09501/27/14 22:51:02 METAR KAVX 280651Z 01004KT 10SM CLR 13/04 A3009 RMK AO2 SLP181 T01330044 TSNO","FM-15","7",,,,,,,,,,,,,,,,,,,,,,,,,,,,
"72292023191","2014-01-27T23:51:00","FM-15","7",,,,,,,,,,,,,,,,,,,,,,,,,,,,,,,,,,,,,,"30.09","40","57","0.00",,,,"53","30.06","CLR:00","28.39","10.00","49","000",,"0",,,,,,,,,,,,,,,,,,,,,,,,,,,,,,,,,,,,,"MET10501/27/14 23:51:02 METAR KAVX 280751Z 00000KT 10SM CLR 14/04 A3009 RMK AO2 SLP181 T01390044 401720106 TSNO","FM-15","7",,,,,,,,,,,,,,,,,,,,,,,,,,,,
"72292023191","2014-01-27T23:59:00","SOD  ","6",,,,,,,,,,,,,,,,"57",,,"28.37",,"4.9","0","2.4","8","63","51","250","17","T",,,"250","14","RA FG BR HZ",,,,,,,,,,,,,,,,,,,,,,,,,,,,,,,,,,,,,,,,,,,,,,,,,,,,,,,,"SOD73024 HR PRECIPITATION (IN):T     24 HR MAX TEMP (F):63 24 HR MAX TEMP TIME (LST):1215 24 HR MIN TEMP (F):51 24 HR MIN TEMP TIME (LST):0432 AVERAGE STATION PRESSURE:28.370 MINIMUM SEA LEVEL PRESSURE:30.01 TIME OF OCCURRENCE:1439 PEAK WIND SPEED (MPH):17  PEAK WIND DIR (DEG):250 PEAK WIND TIME (LST):1513  FASTEST 2MIN SPEED (MPH):14 FASTEST 2MIN DIR (DEG):250 FASTEST 2MIN TIME (LST):1511 AVERAGE WIND SPEED (MPH):4.9  24 HR AVG TEMP (F):57 HEATING DEGREE DAYS:8   COOLING DEGREE DAYS:0   LATEST DAY MAX TEMP (0700-1900 LST):63  LATEST NIGHT MIN TEMP(1900-0800 LST):51 HOURLY INCREMENTAL PRECIPITATION VALUES (IN):    0.00 0.00 0.00 0.00 0.00 0.00 0.00 0.00 0.00 0.00 0.00 0.00 0.00 0.00 0.00 0.00 0.00 0.00 0.00 0.00 0.00 0.00 0.00","SOD  ","6",,,,,,,,,,,,,,,,,,,,,,,,,"0653","1720",,
"72292023191","2014-01-28T00:51:00","FM-15","7",,,,,,,,,,,,,,,,,,,,,,,,,,,,,,,,,,,,,,"30.08","34","58","0.00",,"+0.01","8","41","30.05","CLR:00","28.38","10.00","47","250",,"3",,,,,,,,,,,,,,,,,,,,,,,,,,,,,,,,,,,,,"MET10101/28/14 00:51:02 METAR KAVX 280851Z 25003KT 10SM CLR 14/01 A3008 RMK AO2 SLP176 T01440011 58002 TSNO","FM-15","7",,,,,,,,,,,,,,,,,,,,,,,,,,,,
"72292023191","2014-01-28T01:51:00","FM-15","7",,,,,,,,,,,,,,,,,,,,,,,,,,,,,,,,,,,,,,"30.09","41","55","0.00",,,,"59","30.06","CLR:00","28.39","10.00","48","000",,"0",,,,,,,,,,,,,,,,,,,,,,,,,,,,,,,,,,,,,"MET09501/28/14 01:51:02 METAR KAVX 280951Z 00000KT 10SM CLR 13/05 A3009 RMK AO2 SLP179 T01280050 TSNO","FM-15","7",,,,,,,,,,,,,,,,,,,,,,,,,,,,
"72292023191","2014-01-28T02:51:00","FM-15","7",,,,,,,,,,,,,,,,,,,,,,,,,,,,,,,,,,,,,,"30.08","39","56","0.00",,,,"53","30.06","CLR:00","28.38","10.00","48","270",,"5",,,,,,,,,,,,,,,,,,,,,,,,,,,,,,,,,,,,,"MET09501/28/14 02:51:02 METAR KAVX 281051Z 27004KT 10SM CLR 13/04 A3008 RMK AO2 SLP179 T01330039 TSNO","FM-15","7",,,,,,,,,,,,,,,,,,,,,,,,,,,,
"72292023191","2014-01-28T03:51:00","FM-15","7",,,,,,,,,,,,,,,,,,,,,,,,,,,,,,,,,,,,,,"30.09","41","56","0.00",,"-0.00","1","57","30.07","CLR:00","28.39","10.00","49","030",,"3",,,,,,,,,,,,,,,,,,,,,,,,,,,,,,,,,,,,,"MET11301/28/14 03:51:02 METAR KAVX 281151Z 03003KT 10SM CLR 13/05 A3009 RMK AO2 SLP183 T01330050 10150 20122 51001 TSNO","FM-15","7",,,,,,,,,,,,,,,,,,,,,,,,,,,,
"72292023191","2014-01-28T04:51:00","FM-15","7",,,,,,,,,,,,,,,,,,,,,,,,,,,,,,,,,,,,,,"30.07","44","56","0.00",,,,"65","30.05","CLR:00","28.37","10.00","50","000",,"0",,,,,,,,,,,,,,,,,,,,,,,,,,,,,,,,,,,,,"MET09501/28/14 04:51:02 METAR KAVX 281251Z 00000KT 10SM CLR 13/07 A3007 RMK AO2 SLP176 T01330067 TSNO","FM-15","7",,,,,,,,,,,,,,,,,,,,,,,,,,,,
"72292023191","2014-01-28T05:51:00","FM-15","7",,,,,,,,,,,,,,,,,,,,,,,,,,,,,,,,,,,,,,"30.08","43","57","0.00",,,,"60","30.06","CLR:00","28.38","8.00","50","000",,"0",,,,,,,,,,,,,,,,,,,,,,,,,,,,,,,,,,,,,"MET09401/28/14 05:51:02 METAR KAVX 281351Z 00000KT 8SM CLR 14/06 A3008 RMK AO2 SLP178 T01390061 TSNO","FM-15","7",,,,,,,,,,,,,,,,,,,,,,,,,,,,
"72292023191","2014-01-28T06:51:00","FM-15","7",,,,,,,,,,,,,,,,,,,,,,,,,,,,,,,,,,,,,,"30.11","41","56","0.00",,"-0.03","3","57","30.09","CLR:00","28.41","8.00","49","290",,"5",,,,,,,,,,,,,,,,,,,,,,,,,,,,,,,,,,,,,"MET10001/28/14 06:51:02 METAR KAVX 281451Z 29004KT 8SM CLR 13/05 A3011 RMK AO2 SLP190 T01330050 53009 TSNO","FM-15","7",,,,,,,,,,,,,,,,,,,,,,,,,,,,
"72292023191","2014-01-28T07:51:00","FM-15","7",,,,,,,,,,,,,,,,,,,,,,,,,,,,,,,,,,,,,,"30.12","41","57","0.00",,,,"55","30.09","CLR:00","28.42","10.00","49","250",,"6",,,,,,,,,,,,,,,,,,,,,,,,,,,,,,,,,,,,,"MET09501/28/14 07:51:02 METAR KAVX 281551Z 25005KT 10SM CLR 14/05 A3012 RMK AO2 SLP191 T01390050 TSNO","FM-15","7",,,,,,,,,,,,,,,,,,,,,,,,,,,,
"72292023191","2014-01-28T08:51:00","FM-15","7",,,,,,,,,,,,,,,,,,,,,,,,,,,,,,,,,,,,,,"30.12","43","60","0.00",,,,"53","30.09","CLR:00","28.42","10.00","51","000",,"0",,,,,,,,,,,,,,,,,,,,,,,,,,,,,,,,,,,,,"MET09501/28/14 08:51:02 METAR KAVX 281651Z 00000KT 10SM CLR 16/06 A3012 RMK AO2 SLP189 T01560061 TSNO","FM-15","7",,,,,,,,,,,,,,,,,,,,,,,,,,,,
"72292023191","2014-01-28T09:51:00","FM-15","7",,,,,,,,,,,,,,,,,,,,,,,,,,,,,,,,,,,,,,"30.14","45","61","0.00",,"-0.03","3","56","30.11","CLR:00","28.44","10.00","53","280",,"5",,,,,,,,,,,,,,,,,,,,,,,,,,,,,,,,,,,,,"MET11301/28/14 09:51:02 METAR KAVX 281751Z 28004KT 10SM CLR 16/07 A3014 RMK AO2 SLP198 T01610072 10161 20106 53009 TSNO","FM-15","7",,,,,,,,,,,,,,,,,,,,,,,,,,,,
"72292023191","2014-01-28T10:51:00","FM-15","7",,,,,,,,,,,,,,,,,,,,,,,,,,,,,,,,,,,,,,"30.16","45","63","0.00",,,,"52","30.13","CLR:00","28.46","10.00","53","310",,"5",,,,,,,,,,,,,,,,,,,,,,,,,,,,,,,,,,,,,"MET09501/28/14 10:51:02 METAR KAVX 281851Z 31004KT 10SM CLR 17/07 A3016 RMK AO2 SLP202 T01720072 TSNO","FM-15","7",,,,,,,,,,,,,,,,,,,,,,,,,,,,
"72292023191","2014-01-28T11:51:00","FM-15","7",,,,,,,,,,,,,,,,,,,,,,,,,,,,,,,,,,,,,,"30.11","48","64","0.00",,,,"56","30.07","CLR:00","28.41","10.00","55","240",,"6",,,,,,,,,,,,,,,,,,,,,,,,,,,,,,,,,,,,,"MET09501/28/14 11:51:02 METAR KAVX 281951Z 24005KT 10SM CLR 18/09 A3011 RMK AO2 SLP182 T01780089 TSNO","FM-15","7",,,,,,,,,,,,,,,,,,,,,,,,,,,,
"72292023191","2014-01-28T12:51:00","FM-15","7",,,,,,,,,,,,,,,,,,,,,,,,,,,,,,,,,,,,,,"30.09","51","63","0.00",,"+0.05","8","65","30.05","CLR:00","28.39","10.00","56","300",,"5",,,,,,,,,,,,,,,,,,,,,,,,,,,,,,,,,,,,,"MET10101/28/14 12:51:02 METAR KAVX 282051Z 30004KT 10SM CLR 17/11 A3009 RMK AO2 SLP177 T01720106 58017 TSNO","FM-15","7",,,,,,,,,,,,,,,,,,,,,,,,,,,,
"72292023191","2014-01-28T13:51:00","FM-15","7",,,,,,,,,,,,,,,,,,,,,,,,,,,,,,,,,,,,,,"30.07","49","64","0.00",,,,"58","30.04","CLR:00","28.37","10.00","56","260",,"10",,,,,,,,,,,,,,,,,,,,,,,,,,,,,,,,,,,,,"MET09501/28/14 13:51:02 METAR KAVX 282151Z 26009KT 10SM CLR 18/09 A3007 RMK AO2 SLP173 T01780094 TSNO","FM-15","7",,,,,,,,,,,,,,,,,,,,,,,,,,,,
"72292023191","2014-01-28T14:51:00","FM-15","7",,,,,,,,,,,,,,,,,,,,,,,,,,,,,,,,,,,,,,"30.06","42","63","0.00",,,,"47","30.03",,"28.36","10.00","52","240",,"7",,,,,,,,,,,,,,,,,,,,,,,,,,,,,,,,,,,,,"MET09301/28/14 14:51:02 METAR KAVX 282251Z 24006KT 10SM 17/06 A3006 RMK AO2 SLP169 T01720056 TSNO $","FM-15","7",,,,,,,,,,,,,,,,,,,,,,,,,,,,
"72292023191","2014-01-28T15:51:00","FM-15","7",,,,,,,,,,,,,,,,,,,,,,,,,,,,,,,,,,,,,,"30.07","45","61","0.00",,,,"56","30.04","CLR:00","28.37","10.00","53","240",,"3",,,,,,,,,,,,,,,,,,,,,,,,,,,,,,,,,,,,,"MET10701/28/14 15:51:02 METAR KAVX 282351Z 24003KT 10SM CLR 16/07 A3007 RMK AO2 SLP174 T01610072 10194 20156 TSNO","FM-15","7",,,,,,,,,,,,,,,,,,,,,,,,,,,,
"72292023191","2014-01-28T16:51:00","FM-15","7",,,,,,,,,,,,,,,,,,,,,,,,,,,,,,,,,,,,,,"30.08","32","63","0.00",,,,"31","30.05","CLR:00","28.38","10.00","48","290",,"6",,,,,,,,,,,,,,,,,,,,,,,,,,,,,,,,,,,,,"MET09501/28/14 16:51:01 METAR KAVX 290051Z 29005KT 10SM CLR 17/00 A3008 RMK AO2 SLP175 T01720000 TSNO","FM-15","7",,,,,,,,,,,,,,,,,,,,,,,,,,,,
"72292023191","2014-01-28T17:51:00","FM-15","7",,,,,,,,,,,,,,,,,,,,,,,,,,,,,,,,,,,,,,"30.08","28","61","0.00",,,,"29","30.05","CLR:00","28.38","10.00","46","010",,"7",,,,,,,,,,,,,,,,,,,,,,,,,,,,,,,,,,,,,"MET09601/28/14 17:51:01 METAR KAVX 290151Z 01006KT 10SM CLR 16/M02 A3008 RMK AO2 SLP177 T01611022 TSNO","FM-15","7",,,,,,,,,,,,,,,,,,,,,,,,,,,,
"72292023191","2014-01-28T18:51:00","FM-15","7",,,,,,,,,,,,,,,,,,,,,,,,,,,,,,,,,,,,,,"30.09","20s","63","0.00",,"-0.01","3","19","30.06","CLR:00","28.39","10.00","45","310",,"5",,,,,,,,,,,,,,,,,,,,,,,,,,,,,,,,,,,,,"MET10201/28/14 18:51:02 METAR KAVX 290251Z 31004KT 10SM CLR 17/M07 A3009 RMK AO2 SLP179 T01721067 53005 TSNO","FM-15","7",,,,,,,,,,,,,,,,,,,,,,,,,,,,
"72292023191","2014-01-28T19:51:00","FM-15","7",,,,,,,,,,,,,,,,,,,,,,,,,,,,,,,,,,,,,,"30.10","23","60","0.00",,,,"24","30.08","CLR:00","28.40","10.00","44","050",,"3",,,,,,,,,,,,,,,,,,,,,,,,,,,,,,,,,,,,,"MET09601/28/14 19:51:02 METAR KAVX 290351Z 05003KT 10SM CLR 16/M05 A3010 RMK AO2 SLP185 T01561050 TSNO","FM-15","7",,,,,,,,,,,,,,,,,,,,,,,,,,,,
"72292023191","2014-01-28T20:51:00","FM-15","7",,,,,,,,,,,,,,,,,,,,,,,,,,,,,,,,,,,,,,"30.12","25","64","0.00",,,,"23","30.08","CLR:00","28.42","10.00","47","340",,"3",,,,,,,,,,,,,,,,,,,,,,,,,,,,,,,,,,,,,"MET09601/28/14 20:51:02 METAR KAVX 290451Z 34003KT 10SM CLR 18/M04 A3012 RMK AO2 SLP185 T01781039 TSNO","FM-15","7",,,,,,,,,,,,,,,,,,,,,,,,,,,,
"72292023191","2014-01-28T21:51:00","FM-15","7",,,,,,,,,,,,,,,,,,,,,,,,,,,,,,,,,,,,,,"30.12","25","63","0.00",,"-0.02","0","24","30.08","CLR:00","28.42","10.00","46","050",,"6",,,,,,,,,,,,,,,,,,,,,,,,,,,,,,,,,,,,,"MET11401/28/14 21:51:02 METAR KAVX 290551Z 05005KT 10SM CLR 17/M04 A3012 RMK AO2 SLP185 T01721039 10183 20156 50008 TSNO","FM-15","7",,,,,,,,,,,,,,,,,,,,,,,,,,,,
"72292023191","2014-01-28T22:51:00","FM-15","7",,,,,,,,,,,,,,,,,,,,,,,,,,,,,,,,,,,,,,"30.11","28","64","0.00",,,,"26","30.06","CLR:00","28.41","10.00","47","340",,"5",,,,,,,,,,,,,,,,,,,,,,,,,,,,,,,,,,,,,"MET09601/28/14 22:51:02 METAR KAVX 290651Z 34004KT 10SM CLR 18/M02 A3011 RMK AO2 SLP181 T01781022 TSNO","FM-15","7",,,,,,,,,,,,,,,,,,,,,,,,,,,,
"72292023191","2014-01-28T23:51:00","FM-15","7",,,,,,,,,,,,,,,,,,,,,,,,,,,,,,,,,,,,,,"30.12","26","62","0.00",,,,"25","30.07","CLR:00","28.42","10.00","46","350",,"5",,,,,,,,,,,,,,,,,,,,,,,,,,,,,,,,,,,,,"MET10601/28/14 23:51:02 METAR KAVX 290751Z 35004KT 10SM CLR 17/M03 A3012 RMK AO2 SLP183 T01671033 401940106 TSNO","FM-15","7",,,,,,,,,,,,,,,,,,,,,,,,,,,,
"72292023191","2014-01-28T23:59:00","SOD  ","6",,,,,,,,,,,,,,,,"59",,,"28.40",,"4.2","0","4.5","6","67","51","260","13","0.00",,,"260","10",,,,,,,,,,,,,,,,,,,,,,,,,,,,,,,,,,,,,,,,,,,,,,,,,,,,,,,,,"SOD73024 HR PRECIPITATION (IN):0.00  24 HR MAX TEMP (F):67 24 HR MAX TEMP TIME (LST):1343 24 HR MIN TEMP (F):51 24 HR MIN TEMP TIME (LST):0429 AVERAGE STATION PRESSURE:28.400 MINIMUM SEA LEVEL PRESSURE:30.03 TIME OF OCCURRENCE:1454 PEAK WIND SPEED (MPH):13  PEAK WIND DIR (DEG):260 PEAK WIND TIME (LST):1347  FASTEST 2MIN SPEED (MPH):10 FASTEST 2MIN DIR (DEG):260 FASTEST 2MIN TIME (LST):1350 AVERAGE WIND SPEED (MPH):4.2  24 HR AVG TEMP (F):59 HEATING DEGREE DAYS:6   COOLING DEGREE DAYS:0   LATEST DAY MAX TEMP (0700-1900 LST):67  LATEST NIGHT MIN TEMP(1900-0800 LST):51 HOURLY INCREMENTAL PRECIPITATION VALUES (IN):.00 0.00 0.00 0.00 0.00 0.00 0.00 0.00 0.00 0.00 0.00 0.00 0.00 0.00 0.00 0.00 0.00 0.00 0.00 0.00 0.00 0.00 0.00 0.00","SOD  ","6",,,,,,,,,,,,,,,,,,,,,,,,,"0652","1721",,
"72292023191","2014-01-29T00:51:00","FM-15","7",,,,,,,,,,,,,,,,,,,,,,,,,,,,,,,,,,,,,,"30.11","29","61","0.00",,"+0.01","8","30","30.06","CLR:00","28.41","10.00","46","360",,"5",,,,,,,,,,,,,,,,,,,,,,,,,,,,,,,,,,,,,"MET10201/29/14 00:51:02 METAR KAVX 290851Z 36004KT 10SM CLR 16/M02 A3011 RMK AO2 SLP181 T01611017 58003 TSNO","FM-15","7",,,,,,,,,,,,,,,,,,,,,,,,,,,,
"72292023191","2014-01-29T01:51:00","FM-15","7",,,,,,,,,,,,,,,,,,,,,,,,,,,,,,,,,,,,,,"30.10","32","62","0.00",,,,"32","30.05","CLR:00","28.40","10.00","48","000",,"0",,,,,,,,,,,,,,,,,,,,,,,,,,,,,,,,,,,,,"MET09501/29/14 01:51:02 METAR KAVX 290951Z 00000KT 10SM CLR 17/00 A3010 RMK AO2 SLP177 T01670000 TSNO","FM-15","7",,,,,,,,,,,,,,,,,,,,,,,,,,,,
"72292023191","2014-01-29T02:51:00","FM-15","7",,,,,,,,,,,,,,,,,,,,,,,,,,,,,,,,,,,,,,"30.09","32","62","0.00",,,,"32","30.04","CLR:00","28.39","10.00","48","060",,"5",,,,,,,,,,,,,,,,,,,,,,,,,,,,,,,,,,,,,"MET09501/29/14 02:51:02 METAR KAVX 291051Z 06004KT 10SM CLR 17/00 A3009 RMK AO2 SLP174 T01670000 TSNO","FM-15","7",,,,,,,,,,,,,,,,,,,,,,,,,,,,
"72292023191","2014-01-29T03:51:00","FM-15","7",,,,,,,,,,,,,,,,,,,,,,,,,,,,,,,,,,,,,,"30.08","33","61","0.00",,"+0.03","8","35","30.04","CLR:00","28.38","10.00","48","300",,"5",,,,,,,,,,,,,,,,,,,,,,,,,,,,,,,,,,,,,"MET11301/29/14 03:51:02 METAR KAVX 291151Z 30004KT 10SM CLR 16/01 A3008 RMK AO2 SLP172 T01610006 10178 20144 58009 TSNO","FM-15","7",,,,,,,,,,,,,,,,,,,,,,,,,,,,
"72292023191","2014-01-29T04:51:00","FM-15","7",,,,,,,,,,,,,,,,,,,,,,,,,,,,,,,,,,,,,,"30.08","33","59","0.00",,,,"38","30.04","CLR:00","28.38","10.00","47","330",,"5",,,,,,,,,,,,,,,,,,,,,,,,,,,,,,,,,,,,,"MET09501/29/14 04:51:02 METAR KAVX 291251Z 33004KT 10SM CLR 15/01 A3008 RMK AO2 SLP172 T01500006 TSNO","FM-15","7",,,,,,,,,,,,,,,,,,,,,,,,,,,,
"72292023191","2014-01-29T05:51:00","FM-15","7",,,,,,,,,,,,,,,,,,,,,,,,,,,,,,,,,,,,,,"30.08","35","59","0.00",,,,"41","30.05","CLR:00","28.38","10.00","47","360",,"7",,,,,,,,,,,,,,,,,,,,,,,,,,,,,,,,,,,,,"MET09501/29/14 05:51:02 METAR KAVX 291351Z 36006KT 10SM CLR 15/02 A3008 RMK AO2 SLP177 T01500017 TSNO","FM-15","7",,,,,,,,,,,,,,,,,,,,,,,,,,,,
"72292023191","2014-01-29T06:51:00","FM-15","7",,,,,,,,,,,,,,,,,,,,,,,,,,,,,,,,,,,,,,"30.08","36","60","0.00",,"-0.00","0","41","30.03","CLR:00","28.38","7.00","48","050",,"7",,,,,,,,,,,,,,,,,,,,,,,,,,,,,,,,,,,,,"MET10001/29/14 06:51:02 METAR KAVX 291451Z 05006KT 7SM CLR 16/02 A3008 RMK AO2 SLP171 T01560022 50000 TSNO","FM-15","7",,,,,,,,,,,,,,,,,,,,,,,,,,,,
"72292023191","2014-01-29T07:51:00","FM-15","7",,,,,,,,,,,,,,,,,,,,,,,,,,,,,,,,,,,,,,"30.09","37","61","0.00",,,,"41","30.05","CLR:00","28.39","7.00","49","000",,"0",,,,,,,,,,,,,,,,,,,,,,,,,,,,,,,,,,,,,"MET09401/29/14 07:51:02 METAR KAVX 291551Z 00000KT 7SM CLR 16/03 A3009 RMK AO2 SLP177 T01610028 TSNO","FM-15","7",,,,,,,,,,,,,,,,,,,,,,,,,,,,
"72292023191","2014-01-29T08:51:00","FM-15","7",,,,,,,,,,,,,,,,,,,,,,,,,,,,,,,,,,,,,,"30.10","33","66","0.00",,,,"29","30.05","CLR:00","28.40","10.00","50","000",,"0",,,,,,,,,,,,,,,,,,,,,,,,,,,,,,,,,,,,,"MET09501/29/14 08:51:02 METAR KAVX 291651Z 00000KT 10SM CLR 19/01 A3010 RMK AO2 SLP176 T01890006 TSNO","FM-15","7",,,,,,,,,,,,,,,,,,,,,,,,,,,,
"72292023191","2014-01-29T09:51:00","FM-15","7",,,,,,,,,,,,,,,,,,,,,,,,,,,,,,,,,,,,,,"30.11","38","70","0.00",,"-0.03","1","31","30.05","CLR:00","28.41","10.00","53","VRB",,"3",,,,,,,,,,,,,,,,,,,,,,,,,,,,,,,,,,,,,"MET11301/29/14 09:51:02 METAR KAVX 291751Z VRB03KT 10SM CLR 21/03 A3011 RMK AO2 SLP176 T02110033 10211 20144 51010 TSNO","FM-15","7",,,,,,,,,,,,,,,,,,,,,,,,,,,,
"72292023191","2014-01-29T10:51:00","FM-15","7",,,,,,,,,,,,,,,,,,,,,,,,,,,,,,,,,,,,,,"30.09","49","67","0.00",,,,"53","30.04","CLR:00","28.39","10.00","57","320",,"5",,,,,,,,,,,,,,,,,,,,,,,,,,,,,,,,,,,,,"MET09501/29/14 10:51:02 METAR KAVX 291851Z 32004KT 10SM CLR 19/09 A3009 RMK AO2 SLP172 T01940094 TSNO","FM-15","7",,,,,,,,,,,,,,,,,,,,,,,,,,,,
"72292023191","2014-01-29T11:51:00","FM-15","7",,,,,,,,,,,,,,,,,,,,,,,,,,,,,,,,,,,,,,"30.07","38","69","0.00",,,,"32","30.02","CLR:00","28.37","10.00","53","310",,"6",,,,,,,,,,,,,,,,,,,,,,,,,,,,,,,,,,,,,"MET09501/29/14 11:51:02 METAR KAVX 291951Z 31005KT 10SM CLR 21/03 A3007 RMK AO2 SLP165 T02060033 TSNO","FM-15","7",,,,,,,,,,,,,,,,,,,,,,,,,,,,
"72292023191","2014-01-29T12:51:00","FM-15","7",,,,,,,,,,,,,,,,,,,,,,,,,,,,,,,,,,,,,,"30.04","47","70","0.00",,"+0.07","8","44","29.98","CLR:00","28.34","10.00","57","000",,"0",,,,,,,,,,,,,,,,,,,,,,,,,,,,,,,,,,,,,"MET10101/29/14 12:51:02 METAR KAVX 292051Z 00000KT 10SM CLR 21/08 A3004 RMK AO2 SLP152 T02110083 58024 TSNO","FM-15","7",,,,,,,,,,,,,,,,,,,,,,,,,,,,
"72292023191","2014-01-29T13:51:00","FM-15","7",,,,,,,,,,,,,,,,,,,,,,,,,,,,,,,,,,,,,,"30.02","50","70","0.00",,,,"49","29.96","CLR:00","28.32","10.00","59","290",,"5",,,,,,,,,,,,,,,,,,,,,,,,,,,,,,,,,,,,,"MET09501/29/14 13:51:02 METAR KAVX 292151Z 29004KT 10SM CLR 21/10 A3002 RMK AO2 SLP147 T02110100 TSNO","FM-15","7",,,,,,,,,,,,,,,,,,,,,,,,,,,,
"72292023191","2014-01-29T14:51:00","FM-15","7",,,,,,,,,,,,,,,,,,,,,,,,,,,,,,,,,,,,,,"30.01","44","69","0.00",,,,"41","29.95","CLR:00","28.31","10.00","55","240",,"9",,,,,,,,,,,,,,,,,,,,,,,,,,,,,,,,,,,,,"MET09501/29/14 14:51:02 METAR KAVX 292251Z 24008KT 10SM CLR 21/07 A3001 RMK AO2 SLP143 T02060067 TSNO","FM-15","7",,,,,,,,,,,,,,,,,,,,,,,,,,,,
"72292023191","2014-01-29T15:51:00","FM-15","7",,,,,,,,,,,,,,,,,,,,,,,,,,,,,,,,,,,,,,"29.99","36","69","0.00",,"+0.04","6","30","29.94","CLR:00","28.30","10.00","52","240",,"7",,,,,,,,,,,,,,,,,,,,,,,,,,,,,,,,,,,,,"MET11301/29/14 15:51:02 METAR KAVX 292351Z 24006KT 10SM CLR 21/02 A2999 RMK AO2 SLP139 T02060022 10222 20183 56014 TSNO","FM-15","7",,,,,,,,,,,,,,,,,,,,,,,,,,,,
"72292023191","2014-01-29T16:51:00","FM-15","7",,,,,,,,,,,,,,,,,,,,,,,,,,,,,,,,,,,,,,"29.99","38","68","0.00",,,,"33","29.93","CLR:00","28.30","10.00","53","240",,"7",,,,,,,,,,,,,,,,,,,,,,,,,,,,,,,,,,,,,"MET09501/29/14 16:51:01 METAR KAVX 300051Z 24006KT 10SM CLR 20/03 A2999 RMK AO2 SLP137 T02000033 TSNO","FM-15","7",,,,,,,,,,,,,,,,,,,,,,,,,,,,
"72292023191","2014-01-29T17:51:00","FM-15","7",,,,,,,,,,,,,,,,,,,,,,,,,,,,,,,,,,,,,,"29.98","34","64","0.00",,,,"33","29.93","CLR:00","28.28","10.00","49","220",,"3",,,,,,,,,,,,,,,,,,,,,,,,,,,,,,,,,,,,,"MET09501/29/14 17:51:01 METAR KAVX 300151Z 22003KT 10SM CLR 18/01 A2998 RMK AO2 SLP136 T01780011 TSNO","FM-15","7",,,,,,,,,,,,,,,,,,,,,,,,,,,,
"72292023191","2014-01-29T18:51:00","FM-15","7",,,,,,,,,,,,,,,,,,,,,,,,,,,,,,,,,,,,,,"29.98","39","64","0.00",,"+0.01","5","40","29.94","CLR:00","28.28","10.00","51","220",,"7",,,,,,,,,,,,,,,,,,,,,,,,,,,,,,,,,,,,,"MET10101/29/14 18:51:02 METAR KAVX 300251Z 22006KT 10SM CLR 18/04 A2998 RMK AO2 SLP138 T01780039 55004 TSNO","FM-15","7",,,,,,,,,,,,,,,,,,,,,,,,,,,,
"72292023191","2014-01-29T19:51:00","FM-15","7",,,,,,,,,,,,,,,,,,,,,,,,,,,,,,,,,,,,,,"29.98","40","62","0.00",,,,"44","29.94","CLR:00","28.28","10.00","51","190",,"5",,,,,,,,,,,,,,,,,,,,,,,,,,,,,,,,,,,,,"MET09501/29/14 19:51:02 METAR KAVX 300351Z 19004KT 10SM CLR 17/04 A2998 RMK AO2 SLP138 T01670044 TSNO","FM-15","7",,,,,,,,,,,,,,,,,,,,,,,,,,,,
"72292023191","2014-01-29T20:51:00","FM-15","7",,,,,,,,,,,,,,,,,,,,,,,,,,,,,,,,,,,,,,"29.98","43","60","0.00",,,,"53","29.94","CLR:00","28.28","10.00","51","240",,"6",,,,,,,,,,,,,,,,,,,,,,,,,,,,,,,,,,,,,"MET09501/29/14 20:51:02 METAR KAVX 300451Z 24005KT 10SM CLR 16/06 A2998 RMK AO2 SLP138 T01560061 TSNO","FM-15","7",,,,,,,,,,,,,,,,,,,,,,,,,,,,
"72292023191","2014-01-29T21:51:00","FM-15","7",,,,,,,,,,,,,,,,,,,,,,,,,,,,,,,,,,,,,,"29.97","43","57","0.00",,"+0.01","8","60","29.92","CLR:00","28.27","10.00","50","200",,"6",,,,,,,,,,,,,,,,,,,,,,,,,,,,,,,,,,,,,"MET11301/29/14 21:51:02 METAR KAVX 300551Z 20005KT 10SM CLR 14/06 A2997 RMK AO2 SLP133 T01390061 10200 20139 58002 TSNO","FM-15","7",,,,,,,,,,,,,,,,,,,,,,,,,,,,
"72292023191","2014-01-29T22:51:00","FM-15","7",,,,,,,,,,,,,,,,,,,,,,,,,,,,,,,,,,,,,,"29.98","48","58","0.00",,,,"70","29.93","CLR:00","28.28","10.00","53","250",,"3",,,,,,,,,,,,,,,,,,,,,,,,,,,,,,,,,,,,,"MET09501/29/14 22:51:02 METAR KAVX 300651Z 25003KT 10SM CLR 14/09 A2998 RMK AO2 SLP137 T01440089 TSNO","FM-15","7",,,,,,,,,,,,,,,,,,,,,,,,,,,,
"72292023191","2014-01-29T23:51:00","FM-15","6",,,,,,,,,,,,,,,,,,,,,,,,,,,,,,,,,,,,,,"29.97","47","57","0.00",,,,"69","29.92","CLR:00","28.27","10.00","52","170",,"3",,,,,,,,,,,,,,,,,,,,,,,,,,,,,,,,,,,,,"MET10501/29/14 23:51:02 METAR KAVX 300751Z 17003KT 10SM CLR 14/08 A2997 RMK AO2 SLP133 T01390083 402220139 TSNO","FM-15","6",,,,,,,,,,,,,,,,,,,,,,,,,,,,
"72292023191","2014-01-29T23:59:00","SOD  ","6",,,,,,,,,,,,,,,,"65",,,"28.33",,"4.5","0","10.6","0","72","57","250","11","0.00",,,"220","9",,,,,,,,,,,,,,,,,,,,,,,,,,,,,,,,,,,,,,,,,,,,,,,,,,,,,,,,,"SOD73024 HR PRECIPITATION (IN):0.00  24 HR MAX TEMP (F):72 24 HR MAX TEMP TIME (LST):1423 24 HR MIN TEMP (F):57 24 HR MIN TEMP TIME (LST):2359 AVERAGE STATION PRESSURE:28.335 MINIMUM SEA LEVEL PRESSURE:29.91 TIME OF OCCURRENCE:2359 PEAK WIND SPEED (MPH):11  PEAK WIND DIR (DEG):250 PEAK WIND TIME (LST):1511  FASTEST 2MIN SPEED (MPH):9  FASTEST 2MIN DIR (DEG):220 FASTEST 2MIN TIME (LST):1905 AVERAGE WIND SPEED (MPH):4.5  24 HR AVG TEMP (F):65 HEATING DEGREE DAYS:0   COOLING DEGREE DAYS:0   LATEST DAY MAX TEMP (0700-1900 LST):72  LATEST NIGHT MIN TEMP(1900-0800 LST):58 HOURLY INCREMENTAL PRECIPITATION VALUES (IN):.00 0.00 0.00 0.00 0.00 0.00 0.00 0.00 0.00 0.00 0.00 0.00 0.00 0.00 0.00 0.00 0.00 0.00 0.00 0.00 0.00 0.00 0.00 0.00","SOD  ","6",,,,,,,,,,,,,,,,,,,,,,,,,"0652","1722",,
"72292023191","2014-01-30T00:51:00","FM-15","7",,,,,,,,,,,,,,,,,,,,,,,,,,,,,,,,,,,,,,"29.96","46","56","0.00",,"+0.01","8","70","29.91","CLR:00","28.27","10.00","51","020",,"3",,,,,,,,,,,,,,,,,,,,,,,,,,,,,,,,,,,,,"MET10101/30/14 00:51:02 METAR KAVX 300851Z 02003KT 10SM CLR 13/08 A2996 RMK AO2 SLP130 T01330078 58005 TSNO","FM-15","7",,,,,,,,,,,,,,,,,,,,,,,,,,,,
"72292023191","2014-01-30T01:51:00","FM-15","7",,,,,,,,,,,,,,,,,,,,,,,,,,,,,,,,,,,,,,"29.95","46","58","0.00",,,,"65","29.90","CLR:00","28.26","10.00","52","000",,"0",,,,,,,,,,,,,,,,,,,,,,,,,,,,,,,,,,,,,"MET09501/30/14 01:51:02 METAR KAVX 300951Z 00000KT 10SM CLR 14/08 A2995 RMK AO2 SLP125 T01440078 TSNO","FM-15","7",,,,,,,,,,,,,,,,,,,,,,,,,,,,
"72292023191","2014-01-30T02:51:00","FM-15","7",,,,,,,,,,,,,,,,,,,,,,,,,,,,,,,,,,,,,,"29.93","45","56","0.00",,,,"67","29.89","CLR:00","28.24","10.00","50","000",,"0",,,,,,,,,,,,,,,,,,,,,,,,,,,,,,,,,,,,,"MET09501/30/14 02:51:02 METAR KAVX 301051Z 00000KT 10SM CLR 13/07 A2993 RMK AO2 SLP121 T01330072 TSNO","FM-15","7",,,,,,,,,,,,,,,,,,,,,,,,,,,,
"72292023191","2014-01-30T03:29:00","FM-16","7",,,,,,,,,,,,,,,,,,,,,,,,,,,,,,,,,,,,,,"29.93","46","50",,"BR:1 ||",,,"86",,"FEW:02 2","28.24","1.25","48","220",,"6",,,,,,,,,,,,,,,,,,,,,,,,,,,,,,,,,,,,,"MET09701/30/14 03:29:02 SPECI KAVX 301129Z 22005KT 1 1/4SM BR FEW002 10/08 A2993 RMK AO2 T01000078 TSNO","FM-16","7",,,,,,,,,,,,,,,,,,,,,,,,,,,,
"72292023191","2014-01-30T03:33:00","FM-16","7",,,,,,,,,,,,,,,,,,,,,,,,,,,,,,,,,,,,,,"29.93","46","50",,"BR:1 ||",,,"86",,"VV:09 2","28.24","0.75V","48","200",,"5",,,,,,,,,,,,,,,,,,,,,,,,,,,,,,,,,,,,,"MET10401/30/14 03:33:02 SPECI KAVX 301133Z 20004KT 3/4SM BR VV002 10/08 A2993 RMK AO2 VIS 1/4V5 T01000078 TSNO","FM-16","7",,,,,,,,,,,,,,,,,,,,,,,,,,,,
"72292023191","2014-01-30T03:51:00","FM-15","7",,,,,,,,,,,,,,,,,,,,,,,,,,,,,,,,,,,,,,"29.93","47","50","0.00","FG:2 |FG |","+0.03","8","89","29.89","VV:09 2","28.24","0.25","48","160",,"6",,,,,,,,,,,,,,,,,,,,,,,,,,,,,,,,,,,,,"MET11901/30/14 03:51:02 METAR KAVX 301151Z 16005KT 1/4SM FG VV002 10/08 A2993 RMK AO2 SLP122 T01000083 10150 20100 58010 TSNO","FM-15","7",,,,,,,,,,,,,,,,,,,,,,,,,,,,
"72292023191","2014-01-30T03:59:00","FM-16","7",,,,,,,,,,,,,,,,,,,,,,,,,,,,,,,,,,,,,,"29.92","47","49",,"BR:1 ||",,,"93",,"BKN:07 2","28.23","1.25","48","160",,"3",,,,,,,,,,,,,,,,,,,,,,,,,,,,,,,,,,,,,"MET09701/30/14 03:59:02 SPECI KAVX 301159Z 16003KT 1 1/4SM BR BKN002 09/08 A2992 RMK AO2 T00940083 TSNO","FM-16","7",,,,,,,,,,,,,,,,,,,,,,,,,,,,
"72292023191","2014-01-30T04:03:00","FM-16","7",,,,,,,,,,,,,,,,,,,,,,,,,,,,,,,,,,,,,,"29.93","47","49",,"BR:1 ||",,,"93",,"BKN:07 2","28.24","3.00","48","150",,"3",,,,,,,,,,,,,,,,,,,,,,,,,,,,,,,,,,,,,"MET09301/30/14 04:03:02 SPECI KAVX 301203Z 15003KT 3SM BR BKN002 09/08 A2993 RMK AO2 T00940083 TSNO","FM-16","7",,,,,,,,,,,,,,,,,,,,,,,,,,,,
"72292023191","2014-01-30T04:15:00","FM-16","7",,,,,,,,,,,,,,,,,,,,,,,,,,,,,,,,,,,,,,"29.93","48","50",,"BR:1 ||",,,"93",,"OVC:08 2","28.24","1.75V","49","160",,"6",,,,,,,,,,,,,,,,,,,,,,,,,,,,,,,,,,,,,"MET10901/30/14 04:15:02 SPECI KAVX 301215Z 16005KT 1 3/4SM BR OVC002 10/09 A2993 RMK AO2 VIS 1V2 1/2 T01000089 TSNO","FM-16","7",,,,,,,,,,,,,,,,,,,,,,,,,,,,
"72292023191","2014-01-30T04:22:00","FM-16","7",,,,,,,,,,,,,,,,,,,,,,,,,,,,,,,,,,,,,,"29.92","48","50",,"BR:1 ||",,,"93",,"VV:09 2","28.23","0.75","49","160",,"7",,,,,,,,,,,,,,,,,,,,,,,,,,,,,,,,,,,,,"MET09401/30/14 04:22:02 SPECI KAVX 301222Z 16006KT 3/4SM BR VV002 10/09 A2992 RMK AO2 T01000089 TSNO","FM-16","7",,,,,,,,,,,,,,,,,,,,,,,,,,,,
"72292023191","2014-01-30T04:51:00","FM-15","7",,,,,,,,,,,,,,,,,,,,,,,,,,,,,,,,,,,,,,"29.92","49","51","0.00","FG:2 |FG |",,,"92","29.88","VV:09 2","28.23","0.25","50","140",,"8",,,,,,,,,,,,,,,,,,,,,,,,,,,,,,,,,,,,,"MET10101/30/14 04:51:02 METAR KAVX 301251Z 14007KT 1/4SM FG VV002 11/09 A2992 RMK AO2 SLP120 T01060094 TSNO","FM-15","7",,,,,,,,,,,,,,,,,,,,,,,,,,,,
"72292023191","2014-01-30T05:51:00","FM-15","7",,,,,,,,,,,,,,,,,,,,,,,,,,,,,,,,,,,,,,"29.93","50","51","0.00","BR:1 ||",,,"96","29.91","VV:09 2","28.24","1.00","50","170",,"6",,,,,,,,,,,,,,,,,,,,,,,,,,,,,,,,,,,,,"MET09901/30/14 05:51:02 METAR KAVX 301351Z 17005KT 1SM BR VV002 11/10 A2993 RMK AO2 SLP127 T01060100 TSNO","FM-15","7",,,,,,,,,,,,,,,,,,,,,,,,,,,,
"72292023191","2014-01-30T06:01:00","FM-16","7",,,,,,,,,,,,,,,,,,,,,,,,,,,,,,,,,,,,,,"29.94","50","51",,"BR:1 ||",,,"96",,"OVC:08 2","28.25","2.00","50","140",,"5",,,,,,,,,,,,,,,,,,,,,,,,,,,,,,,,,,,,,"MET09301/30/14 06:01:02 SPECI KAVX 301401Z 14004KT 2SM BR OVC002 11/10 A2994 RMK AO2 T01060100 TSNO","FM-16","7",,,,,,,,,,,,,,,,,,,,,,,,,,,,
"72292023191","2014-01-30T06:08:00","FM-16","7",,,,,,,,,,,,,,,,,,,,,,,,,,,,,,,,,,,,,,"29.93","50","52",,"BR:1 ||",,,"93",,"OVC:08 2","28.24","1.25","51","130",,"7",,,,,,,,,,,,,,,,,,,,,,,,,,,,,,,,,,,,,"MET09701/30/14 06:08:02 SPECI KAVX 301408Z 13006KT 1 1/4SM BR OVC002 11/10 A2993 RMK AO2 T01110100 TSNO","FM-16","7",,,,,,,,,,,,,,,,,,,,,,,,,,,,
"72292023191","2014-01-30T06:13:00","FM-16","7",,,,,,,,,,,,,,,,,,,,,,,,,,,,,,,,,,,,,,"29.93","50","52",,"BR:1 ||",,,"93",,"VV:09 2","28.24","0.75","51","140",,"7",,,,,,,,,,,,,,,,,,,,,,,,,,,,,,,,,,,,,"MET09401/30/14 06:13:02 SPECI KAVX 301413Z 14006KT 3/4SM BR VV002 11/10 A2993 RMK AO2 T01110100 TSNO","FM-16","7",,,,,,,,,,,,,,,,,,,,,,,,,,,,
"72292023191","2014-01-30T06:29:00","FM-16","7",,,,,,,,,,,,,,,,,,,,,,,,,,,,,,,,,,,,,,"29.92","50","52",,"BR:1 ||",,,"93",,"OVC:08 2","28.23","1.25","51","130",,"8",,,,,,,,,,,,,,,,,,,,,,,,,,,,,,,,,,,,,"MET09701/30/14 06:29:02 SPECI KAVX 301429Z 13007KT 1 1/4SM BR OVC002 11/10 A2992 RMK AO2 T01110100 TSNO","FM-16","7",,,,,,,,,,,,,,,,,,,,,,,,,,,,
"72292023191","2014-01-30T06:42:00","FM-16","7",,,,,,,,,,,,,,,,,,,,,,,,,,,,,,,,,,,,,,"29.92","50","52",,"BR:1 ||",,,"93",,"OVC:08 2","28.23","3.00","51","140",,"8",,,,,,,,,,,,,,,,,,,,,,,,,,,,,,,,,,,,,"MET09301/30/14 06:42:02 SPECI KAVX 301442Z 14007KT 3SM BR OVC002 11/10 A2992 RMK AO2 T01110100 TSNO","FM-16","7",,,,,,,,,,,,,,,,,,,,,,,,,,,,
"72292023191","2014-01-30T06:49:00","FM-16","6",,,,,,,,,,,,,,,,,,,,,,,,,,,,,,,,,,,,,,"29.92","50","52",,"BR:1 ||",,,"94",,"OVC:08 2","28.23","2.50","51","130",,"9",,,,,,,,,,,,,,,,,,,,,,,,,,,,,,,,,,,,,"MET09201/30/14 06:49:02 SPECI KAVX 301449Z 13008KT 2 1/2SM BR OVC002 11/10 A2992 RMK AO2 TSNO FIBI","FM-16","6",,,,,,,,,,,,,,,,,,,,,,,,,,,,
"72292023191","2014-01-30T06:51:00","FM-15","7",,,,,,,,,,,,,,,,,,,,,,,,,,,,,,,,,,,,,,"29.92","50","52","0.00","BR:1 ||","+0.00","8","93","29.89","OVC:08 2","28.23","1.75","51","140",,"9",,,,,,,,,,,,,,,,,,,,,,,,,,,,,,,,,,,,,"MET11001/30/14 06:51:02 METAR KAVX 301451Z 14008KT 1 3/4SM BR OVC002 11/10 A2992 RMK AO2 SLP123 T01110100 58001 TSNO","FM-15","7",,,,,,,,,,,,,,,,,,,,,,,,,,,,
"72292023191","2014-01-30T06:58:00","FM-16","7",,,,,,,,,,,,,,,,,,,,,,,,,,,,,,,,,,,,,,"29.92","50","52",,"BR:1 ||",,,"93",,"VV:09 2","28.23","0.75","51","130",,"8",,,,,,,,,,,,,,,,,,,,,,,,,,,,,,,,,,,,,"MET09401/30/14 06:58:02 SPECI KAVX 301458Z 13007KT 3/4SM BR VV002 11/10 A2992 RMK AO2 T01110100 TSNO","FM-16","7",,,,,,,,,,,,,,,,,,,,,,,,,,,,
"72292023191","2014-01-30T07:51:00","FM-15","7",,,,,,,,,,,,,,,,,,,,,,,,,,,,,,,,,,,,,,"29.92","51","52","0.00","FG:2 |FG |",,,"97","29.90","VV:09 2","28.23","0.00","51","160",,"10",,,,,,,,,,,,,,,,,,,,,,,,,,,,,,,,,,,,,"MET10201/30/14 07:51:02 METAR KAVX 301551Z 16009KT M1/4SM FG VV002 11/11 A2992 RMK AO2 SLP124 T01110106 TSNO","FM-15","7",,,,,,,,,,,,,,,,,,,,,,,,,,,,
"72292023191","2014-01-30T08:19:00","FM-16","7",,,,,,,,,,,,,,,,,,,,,,,,,,,,,,,,,,,,,,"29.95","51","52",,"BR:1 ||",,,"97",,"OVC:08 2","28.26","1.25","51","260",,"6",,,,,,,,,,,,,,,,,,,,,,,,,,,,,,,,,,,,,"MET09701/30/14 08:19:02 SPECI KAVX 301619Z 26005KT 1 1/4SM BR OVC002 11/11 A2995 RMK AO2 T01110106 TSNO","FM-16","7",,,,,,,,,,,,,,,,,,,,,,,,,,,,
"72292023191","2014-01-30T08:23:00","FM-16","7",,,,,,,,,,,,,,,,,,,,,,,,,,,,,,,,,,,,,,"29.96","51","52",,"BR:1 ||",,,"97",,"OVC:08 2","28.27","3.00","51","260",,"6",,,,,,,,,,,,,,,,,,,,,,,,,,,,,,,,,,,,,"MET09301/30/14 08:23:02 SPECI KAVX 301623Z 26005KT 3SM BR OVC002 11/11 A2996 RMK AO2 T01110106 TSNO","FM-16","7",,,,,,,,,,,,,,,,,,,,,,,,,,,,
"72292023191","2014-01-30T08:36:00","FM-16","7",,,,,,,,,,,,,,,,,,,,,,,,,,,,,,,,,,,,,,"29.96","51","52",,"BR:1 ||",,,"97",,"OVC:08 2","28.27","1.75","51","260",,"8",,,,,,,,,,,,,,,,,,,,,,,,,,,,,,,,,,,,,"MET09701/30/14 08:36:02 SPECI KAVX 301636Z 26007KT 1 3/4SM BR OVC002 11/11 A2996 RMK AO2 T01110106 TSNO","FM-16","7",,,,,,,,,,,,,,,,,,,,,,,,,,,,
"72292023191","2014-01-30T08:41:00","FM-16","7",,,,,,,,,,,,,,,,,,,,,,,,,,,,,,,,,,,,,,"29.96","50","52",,"BR:1 ||",,,"93",,"OVC:08 2","28.27","0.75","51","260",,"7",,,,,,,,,,,,,,,,,,,,,,,,,,,,,,,,,,,,,"MET09501/30/14 08:41:02 SPECI KAVX 301641Z 26006KT 3/4SM BR OVC002 11/10 A2996 RMK AO2 T01110100 TSNO","FM-16","7",,,,,,,,,,,,,,,,,,,,,,,,,,,,
"72292023191","2014-01-30T08:51:00","FM-15","7",,,,,,,,,,,,,,,,,,,,,,,,,,,,,,,,,,,,,,"29.97","51","52","0.00","FG:2 |FG |",,,"97","29.95","VV:09 2","28.27","0.25","51","260",,"7",,,,,,,,,,,,,,,,,,,,,,,,,,,,,,,,,,,,,"MET10101/30/14 08:51:02 METAR KAVX 301651Z 26006KT 1/4SM FG VV002 11/11 A2997 RMK AO2 SLP141 T01110106 TSNO","FM-15","7",,,,,,,,,,,,,,,,,,,,,,,,,,,,
"72292023191","2014-01-30T09:51:00","FM-15","7",,,,,,,,,,,,,,,,,,,,,,,,,,,,,,,,,,,,,,"29.98","51","53","0.00","FG:2 |FG |","-0.05","3","93","29.96","VV:09 2","28.28","0.00","52","270",,"7",,,,,,,,,,,,,,,,,,,,,,,,,,,,,,,,,,,,,"MET12001/30/14 09:51:02 METAR KAVX 301751Z 27006KT M1/4SM FG VV002 12/11 A2998 RMK AO2 SLP146 T01170106 10117 20094 53018 TSNO","FM-15","7",,,,,,,,,,,,,,,,,,,,,,,,,,,,
"72292023191","2014-01-30T10:48:00","FM-16","7",,,,,,,,,,,,,,,,,,,,,,,,,,,,,,,,,,,,,,"29.98","54","54",,"BR:1 ||",,,"100",,"OVC:08 2","28.28","2.00V","54","000",,"0",,,,,,,,,,,,,,,,,,,,,,,,,,,,,,,,,,,,,"MET09301/30/14 10:48:02 SPECI KAVX 301848Z 00000KT 2SM BR OVC002 12/12 A2998 RMK AO2 VIS 3/4V5 TSNO","FM-16","7",,,,,,,,,,,,,,,,,,,,,,,,,,,,
"72292023191","2014-01-30T10:51:00","FM-15","7",,,,,,,,,,,,,,,,,,,,,,,,,,,,,,,,,,,,,,"29.97","52","53","0.00","BR:1 ||",,,"96","29.96","OVC:08 2","28.27","3.00","52","330",,"3",,,,,,,,,,,,,,,,,,,,,,,,,,,,,,,,,,,,,"MET10001/30/14 10:51:02 METAR KAVX 301851Z 33003KT 3SM BR OVC002 12/11 A2997 RMK AO2 SLP144 T01170111 TSNO","FM-15","7",,,,,,,,,,,,,,,,,,,,,,,,,,,,
"72292023191","2014-01-30T11:26:00","FM-16","7",,,,,,,,,,,,,,,,,,,,,,,,,,,,,,,,,,,,,,"29.96","51","54",,,,,"90",,"OVC:08 6","28.27","9.00","52","VRB",,"5",,,,,,,,,,,,,,,,,,,,,,,,,,,,,,,,,,,,,"MET10201/30/14 11:26:02 SPECI KAVX 301926Z VRB04KT 9SM OVC006 12/11 A2996 RMK AO2 CIG 002V009 T01220106 TSNO","FM-16","7",,,,,,,,,,,,,,,,,,,,,,,,,,,,
"72292023191","2014-01-30T11:51:00","FM-15","7",,,,,,,,,,,,,,,,,,,,,,,,,,,,,,,,,,,,,,"29.95","50","54","0.00",,,,"87","29.93","OVC:08 6","28.26","9.00","52","290",,"5",,,,,,,,,,,,,,,,,,,,,,,,,,,,,,,,,,,,,"MET10901/30/14 11:51:02 METAR KAVX 301951Z 29004KT 9SM OVC006 12/10 A2995 RMK AO2 CIG 002V008 SLP136 T01220100 TSNO","FM-15","7",,,,,,,,,,,,,,,,,,,,,,,,,,,,
"72292023191","2014-01-30T12:07:00","FM-16","7",,,,,,,,,,,,,,,,,,,,,,,,,,,,,,,,,,,,,,"29.95","50","54",,"BR:1 ||",,,"87",,"OVC:08 5","28.26","1.00","52","330",,"9",,,,,,,,,,,,,,,,,,,,,,,,,,,,,,,,,,,,,"MET09301/30/14 12:07:02 SPECI KAVX 302007Z 33008KT 1SM BR OVC005 12/10 A2995 RMK AO2 T01220100 TSNO","FM-16","7",,,,,,,,,,,,,,,,,,,,,,,,,,,,
"72292023191","2014-01-30T12:10:00","FM-16","7",,,,,,,,,,,,,,,,,,,,,,,,,,,,,,,,,,,,,,"29.95","50","53",,"FG:2 |FG |",,,"89",,"OVC:08 3","28.26","0.25","51","340",,"9",,,,,,,,,,,,,,,,,,,,,,,,,,,,,,,,,,,,,"MET09501/30/14 12:10:02 SPECI KAVX 302010Z 34008KT 1/4SM FG OVC003 12/10 A2995 RMK AO2 T01170100 TSNO","FM-16","7",,,,,,,,,,,,,,,,,,,,,,,,,,,,
"72292023191","2014-01-30T12:30:00","FM-16","7",,,,,,,,,,,,,,,,,,,,,,,,,,,,,,,,,,,,,,"29.95","51","54",,"BR:1 ||",,,"90",,"OVC:08 2","28.26","1.25","52","320",,"8",,,,,,,,,,,,,,,,,,,,,,,,,,,,,,,,,,,,,"MET09701/30/14 12:30:02 SPECI KAVX 302030Z 32007KT 1 1/4SM BR OVC002 12/11 A2995 RMK AO2 T01220106 TSNO","FM-16","7",,,,,,,,,,,,,,,,,,,,,,,,,,,,
"72292023191","2014-01-30T12:33:00","FM-16","7",,,,,,,,,,,,,,,,,,,,,,,,,,,,,,,,,,,,,,"29.94","51","53",,"BR:1 ||",,,"93",,"OVC:08 2","28.25","3.00","52","310",,"6",,,,,,,,,,,,,,,,,,,,,,,,,,,,,,,,,,,,,"MET09301/30/14 12:33:02 SPECI KAVX 302033Z 31005KT 3SM BR OVC002 12/11 A2994 RMK AO2 T01170106 TSNO","FM-16","7",,,,,,,,,,,,,,,,,,,,,,,,,,,,
"72292023191","2014-01-30T12:51:00","FM-15","7",,,,,,,,,,,,,,,,,,,,,,,,,,,,,,,,,,,,,,"29.93","51","54","0.00",,"+0.04","8","90","29.91","SCT:04 3 OVC:08 80","28.24","7.00","52","300",,"7",,,,,,,,,,,,,,,,,,,,,,,,,,,,,,,,,,,,,"MET11001/30/14 12:51:02 METAR KAVX 302051Z 30006KT 7SM SCT003 OVC080 12/11 A2993 RMK AO2 SLP130 T01220106 58015 TSNO","FM-15","7",,,,,,,,,,,,,,,,,,,,,,,,,,,,
"72292023191","2014-01-30T13:07:00","FM-16","7",,,,,,,,,,,,,,,,,,,,,,,,,,,,,,,,,,,,,,"29.92","51","55",,"BR:1 ||",,,"87",,"SCT:04 3 BKN:07 13 OVC:08 85","28.23","6.00","53","280",,"5",,,,,,,,,,,,,,,,,,,,,,,,,,,,,,,,,,,,,"MET10701/30/14 13:07:02 SPECI KAVX 302107Z 28004KT 6SM BR SCT003 BKN013 OVC085 13/11 A2992 RMK AO2 T01280106 TSNO","FM-16","7",,,,,,,,,,,,,,,,,,,,,,,,,,,,
"72292023191","2014-01-30T13:14:00","FM-16","7",,,,,,,,,,,,,,,,,,,,,,,,,,,,,,,,,,,,,,"29.92","51","55",,"BR:1 ||",,,"87",,"BKN:07 5 BKN:07 13 OVC:08 85","28.23","6.00","53","270",,"6",,,,,,,,,,,,,,,,,,,,,,,,,,,,,,,,,,,,,"MET11901/30/14 13:14:02 SPECI KAVX 302114Z 27005KT 6SM BR BKN005 BKN013 OVC085 13/11 A2992 RMK AO2 CIG 003V008 T01280106 TSNO","FM-16","7",,,,,,,,,,,,,,,,,,,,,,,,,,,,
"72292023191","2014-01-30T13:49:00","FM-16","6",,,,,,,,,,,,,,,,,,,,,,,,,,,,,,,,,,,,,,"29.91","50","55",,,,,"82",,"SCT:04 5 BKN:07 9 OVC:08 15","28.22","9.00","52","350",,"7",,,,,,,,,,,,,,,,,,,,,,,,,,,,,,,,,,,,,"MET09901/30/14 13:49:02 SPECI KAVX 302149Z 35006KT 9SM SCT005 BKN009 OVC015 13/10 A2991 RMK AO2 TSNO FIBI","FM-16","6",,,,,,,,,,,,,,,,,,,,,,,,,,,,
"72292023191","2014-01-30T13:51:00","FM-15","7",,,,,,,,,,,,,,,,,,,,,,,,,,,,,,,,,,,,,,"29.91","50","57","0.00",,,,"78","29.88","FEW:02 5 BKN:07 9 OVC:08 15","28.22","10.00","53","340",,"6",,,,,,,,,,,,,,,,,,,,,,,,,,,,,,,,,,,,,"MET11201/30/14 13:51:02 METAR KAVX 302151Z 34005KT 10SM FEW005 BKN009 OVC015 14/10 A2991 RMK AO2 SLP119 T01390100 TSNO","FM-15","7",,,,,,,,,,,,,,,,,,,,,,,,,,,,
"72292023191","2014-01-30T13:59:00","FM-16","7",,,,,,,,,,,,,,,,,,,,,,,,,,,,,,,,,,,,,,"29.92","49","56",,,,,"77",,"SCT:04 7 OVC:08 15","28.23","10.00","52","340",,"7",,,,,,,,,,,,,,,,,,,,,,,,,,,,,,,,,,,,,"MET09801/30/14 13:59:02 SPECI KAVX 302159Z 34006KT 10SM SCT007 OVC015 13/09 A2992 RMK AO2 T01330094 TSNO","FM-16","7",,,,,,,,,,,,,,,,,,,,,,,,,,,,
"72292023191","2014-01-30T14:11:00","FM-16","7",,,,,,,,,,,,,,,,,,,,,,,,,,,,,,,,,,,,,,"29.92","50","56",,,,,"81",,"FEW:02 9 OVC:08 14","28.23","7.00","53","310",,"8",,,,,,,,,,,,,,,,,,,,,,,,,,,,,,,,,,,,,"MET09701/30/14 14:11:02 SPECI KAVX 302211Z 31007KT 7SM FEW009 OVC014 13/10 A2992 RMK AO2 T01330100 TSNO","FM-16","7",,,,,,,,,,,,,,,,,,,,,,,,,,,,
"72292023191","2014-01-30T14:49:00","FM-16","6",,,,,,,,,,,,,,,,,,,,,,,,,,,,,,,,,,,,,,"29.91","52","55",,"BR:1 ||",,,"88",,"BKN:07 4 OVC:08 11","28.22","4.00","53","VRB",,"8",,,,,,,,,,,,,,,,,,,,,,,,,,,,,,,,,,,,,"MET10701/30/14 14:49:02 SPECI KAVX 302249Z 28007KT 4SM BR BKN004 OVC011 13/11 A2991 RMK AO2 CIG 002V008 TSNO FIBI","FM-16","6",,,,,,,,,,,,,,,,,,,,,,,,,,,,
"72292023191","2014-01-30T14:51:00","FM-15","7",,,,,,,,,,,,,,,,,,,,,,,,,,,,,,,,,,,,,,"29.91","51","54","0.00","BR:1 ||",,,"90","29.89","BKN:07 4 OVC:08 11","28.22","4.00","52","280",,"5",,,,,,,,,,,,,,,,,,,,,,,,,,,,,,,,,,,,,"MET11901/30/14 14:51:02 METAR KAVX 302251Z 28004KT 4SM BR BKN004 OVC011 12/11 A2991 RMK AO2 CIG 002V007 SLP123 T01220106 TSNO","FM-15","7",,,,,,,,,,,,,,,,,,,,,,,,,,,,
"72292023191","2014-01-30T14:54:00","FM-16","7",,,,,,,,,,,,,,,,,,,,,,,,,,,,,,,,,,,,,,"29.91","51","54",,"BR:1 ||",,,"90",,"BKN:07 4 BKN:07 7 OVC:08 11","28.22","1.75V","52","260",,"9",,,,,,,,,,,,,,,,,,,,,,,,,,,,,,,,,,,,,"MET12101/30/14 14:54:02 SPECI KAVX 302254Z 26008KT 1 3/4SM BR BKN004 BKN007 OVC011 12/11 A2991 RMK AO2 VIS 1/2V5 T01220106 TSNO","FM-16","7",,,,,,,,,,,,,,,,,,,,,,,,,,,,
"72292023191","2014-01-30T15:03:00","FM-16","7",,,,,,,,,,,,,,,,,,,,,,,,,,,,,,,,,,,,,,"29.91","51","54",,"FG:2 |FG |",,,"90",,"BKN:07 2 BKN:07 7 OVC:08 11","28.22","0.50","52","260",,"9",,,,,,,,,,,,,,,,,,,,,,,,,,,,,,,,,,,,,"MET10901/30/14 15:03:02 SPECI KAVX 302303Z 26008KT 1/2SM FG BKN002 BKN007 OVC011 12/11 A2991 RMK AO2 T01220106 TSNO","FM-16","7",,,,,,,,,,,,,,,,,,,,,,,,,,,,
"72292023191","2014-01-30T15:18:00","FM-16","7",,,,,,,,,,,,,,,,,,,,,,,,,,,,,,,,,,,,,,"29.91","51","54",,"BR:1 ||",,,"90",,"BKN:07 2 OVC:08 7","28.22","1.50","52","270",,"9",,,,,,,,,,,,,,,,,,,,,,,,,,,,,,,,,,,,,"MET10401/30/14 15:18:02 SPECI KAVX 302318Z 27008KT 1 1/2SM BR BKN002 OVC007 12/11 A2991 RMK AO2 T01220106 TSNO","FM-16","7",,,,,,,,,,,,,,,,,,,,,,,,,,,,
"72292023191","2014-01-30T15:20:00","FM-16","7",,,,,,,,,,,,,,,,,,,,,,,,,,,,,,,,,,,,,,"29.92","51","54",,"BR:1 ||",,,"90",,"BKN:07 2 OVC:08 7","28.23","3.00","52","260",,"9",,,,,,,,,,,,,,,,,,,,,,,,,,,,,,,,,,,,,"MET10001/30/14 15:20:02 SPECI KAVX 302320Z 26008KT 3SM BR BKN002 OVC007 12/11 A2992 RMK AO2 T01220106 TSNO","FM-16","7",,,,,,,,,,,,,,,,,,,,,,,,,,,,
"72292023191","2014-01-30T15:28:00","FM-16","7",,,,,,,,,,,,,,,,,,,,,,,,,,,,,,,,,,,,,,"29.91","51","54",,"BR:1 ||",,,"90",,"SCT:04 2 OVC:08 10","28.22","4.00","52","250",,"6",,,,,,,,,,,,,,,,,,,,,,,,,,,,,,,,,,,,,"MET10001/30/14 15:28:02 SPECI KAVX 302328Z 25005KT 4SM BR SCT002 OVC010 12/11 A2991 RMK AO2 T01220106 TSNO","FM-16","7",,,,,,,,,,,,,,,,,,,,,,,,,,,,
"72292023191","2014-01-30T15:51:00","FM-15","7",,,,,,,,,,,,,,,,,,,,,,,,,,,,,,,,,,,,,,"29.91","51","55","0.00",,"+0.00","8","87","29.90","FEW:02 7 OVC:08 13","28.22","8.00","53","260",,"6",,,,,,,,,,,,,,,,,,,,,,,,,,,,,,,,,,,,,"MET12201/30/14 15:51:02 METAR KAVX 302351Z 26005KT 8SM FEW007 OVC013 13/11 A2991 RMK AO2 SLP125 T01280106 10139 20117 58000 TSNO","FM-15","7",,,,,,,,,,,,,,,,,,,,,,,,,,,,
"72292023191","2014-01-30T16:13:00","FM-16","7",,,,,,,,,,,,,,,,,,,,,,,,,,,,,,,,,,,,,,"29.91","51","54",,"BR:1 ||",,,"90",,"OVC:08 15","28.22","6.00","52","250",,"6",,,,,,,,,,,,,,,,,,,,,,,,,,,,,,,,,,,,,"MET09301/30/14 16:13:01 SPECI KAVX 310013Z 25005KT 6SM BR OVC015 12/11 A2991 RMK AO2 T01220106 TSNO","FM-16","7",,,,,,,,,,,,,,,,,,,,,,,,,,,,
"72292023191","2014-01-30T16:29:00","FM-16","7",,,,,,,,,,,,,,,,,,,,,,,,,,,,,,,,,,,,,,"29.91","50","54",,"BR:1 ||",,,"87",,"FEW:02 3 OVC:08 15","28.22","6.00","52","250",,"8",,,,,,,,,,,,,,,,,,,,,,,,,,,,,,,,,,,,,"MET10001/30/14 16:29:01 SPECI KAVX 310029Z 25007KT 6SM BR FEW003 OVC015 12/10 A2991 RMK AO2 T01220100 TSNO","FM-16","7",,,,,,,,,,,,,,,,,,,,,,,,,,,,
"72292023191","2014-01-30T16:36:00","FM-16","7",,,,,,,,,,,,,,,,,,,,,,,,,,,,,,,,,,,,,,"29.91","50","54",,"BR:1 ||",,,"87",,"FEW:02 3 BKN:07 8 OVC:08 13","28.22","6.00","52","260",,"9",,,,,,,,,,,,,,,,,,,,,,,,,,,,,,,,,,,,,"MET11901/30/14 16:36:01 SPECI KAVX 310036Z 26008KT 6SM BR FEW003 BKN008 OVC013 12/10 A2991 RMK AO2 CIG 006V012 T01220100 TSNO","FM-16","7",,,,,,,,,,,,,,,,,,,,,,,,,,,,
"72292023191","2014-01-30T16:49:00","FM-16","7",,,,,,,,,,,,,,,,,,,,,,,,,,,,,,,,,,,,,,"29.91","52","54",,"BR:1 ||",,,"94",,"BKN:07 2 BKN:07 7 OVC:08 14","28.22","2.00","53","250",,"7",,,,,,,,,,,,,,,,,,,,,,,,,,,,,,,,,,,,,"MET09701/30/14 16:49:01 SPECI KAVX 310049Z 25006KT 2SM BR BKN002 BKN007 OVC014 12/11 A2991 RMK AO2 TSNO","FM-16","7",,,,,,,,,,,,,,,,,,,,,,,,,,,,
"72292023191","2014-01-30T16:51:00","FM-15","7",,,,,,,,,,,,,,,,,,,,,,,,,,,,,,,,,,,,,,"29.91","51","54","0.00","BR:1 ||",,,"90","29.90","BKN:07 2 BKN:07 7 OVC:08 12","28.22","1.50","52","240",,"6",,,,,,,,,,,,,,,,,,,,,,,,,,,,,,,,,,,,,"MET11801/30/14 16:51:01 METAR KAVX 310051Z 24005KT 1 1/2SM BR BKN002 BKN007 OVC012 12/11 A2991 RMK AO2 SLP124 T01220106 TSNO","FM-15","7",,,,,,,,,,,,,,,,,,,,,,,,,,,,
"72292023191","2014-01-30T16:58:00","FM-16","7",,,,,,,,,,,,,,,,,,,,,,,,,,,,,,,,,,,,,,"29.91","51","53",,"FG:2 |FG |",,,"93",,"BKN:07 2 OVC:08 7","28.22","0.25","52","250",,"6",,,,,,,,,,,,,,,,,,,,,,,,,,,,,,,,,,,,,"MET10201/30/14 16:58:01 SPECI KAVX 310058Z 25005KT 1/4SM FG BKN002 OVC007 12/11 A2991 RMK AO2 T01170106 TSNO","FM-16","7",,,,,,,,,,,,,,,,,,,,,,,,,,,,
"72292023191","2014-01-30T17:51:00","FM-15","7",,,,,,,,,,,,,,,,,,,,,,,,,,,,,,,,,,,,,,"29.91","51","53","0.01","-RA:02 FG:2 |FG RA |",,,"93","29.90","VV:09 2","28.22","0.00","52","270",,"14",,,,,,,,,,,,,,,,,,,,,,,,,,,,,,,,,,,,,"MET11801/30/14 17:51:01 METAR KAVX 310151Z 27012KT M1/4SM -RA FG VV002 12/11 A2991 RMK AO2 RAB15 SLP125 P0001 T01170106 TSNO","FM-15","7",,,,,,,,,,,,,,,,,,,,,,,,,,,,
"72292023191","2014-01-30T18:51:00","FM-15","7",,,,,,,,,,,,,,,,,,,,,,,,,,,,,,,,,,,,,,"29.91","50","51","T","FG:2 |FG |","-0.01","3","96","29.91","VV:09 2","28.22","0.25","50","260",,"15",,,,,,,,,,,,,,,,,,,,,,,,,,,,,,,,,,,,,"MET12501/30/14 18:51:02 METAR KAVX 310251Z 26013KT 1/4SM FG VV002 11/10 A2991 RMK AO2 RAE16 SLP128 P0000 60001 T01060100 53002 TSNO","FM-15","7",,,,,,,,,,,,,,,,,,,,,,,,,,,,
"72292023191","2014-01-30T19:51:00","FM-15","7",,,,,,,,,,,,,,,,,,,,,,,,,,,,,,,,,,,,,,"29.91","50","50","0.00","BR:1 ||",,,"100","29.91","VV:09 2","28.22","0.75","50","240",,"13",,,,,,,,,,,,,,,,,,,,,,,,,,,,,,,,,,,,,"MET10101/30/14 19:51:02 METAR KAVX 310351Z 24011KT 3/4SM BR VV002 10/10 A2991 RMK AO2 SLP127 T01000100 TSNO","FM-15","7",,,,,,,,,,,,,,,,,,,,,,,,,,,,
"72292023191","2014-01-30T19:58:00","FM-16","7",,,,,,,,,,,,,,,,,,,,,,,,,,,,,,,,,,,,,,"29.91","50","50",,"BR:1 ||",,,"100",,"VV:09 2","28.22","1.00","50","230",,"11",,,,,,,,,,,,,,,,,,,,,,,,,,,,,,,,,,,,,"MET09201/30/14 19:58:02 SPECI KAVX 310358Z 23010KT 1SM BR VV002 10/10 A2991 RMK AO2 T01000100 TSNO","FM-16","7",,,,,,,,,,,,,,,,,,,,,,,,,,,,
"72292023191","2014-01-30T20:04:00","FM-16","7",,,,,,,,,,,,,,,,,,,,,,,,,,,,,,,,,,,,,,"29.91","49","50",,"BR:1 ||",,,"96",,"BKN:07 2 OVC:08 6","28.22","2.00","49","240",,"11",,,,,,,,,,,,,,,,,,,,,,,,,,,,,,,,,,,,,"MET10001/30/14 20:04:02 SPECI KAVX 310404Z 24010KT 2SM BR BKN002 OVC006 10/09 A2991 RMK AO2 T01000094 TSNO","FM-16","7",,,,,,,,,,,,,,,,,,,,,,,,,,,,
"72292023191","2014-01-30T20:13:00","FM-16","7",,,,,,,,,,,,,,,,,,,,,,,,,,,,,,,,,,,,,,"29.91","49","50",,"BR:1 ||",,,"96",,"OVC:08 4","28.22","1.00V","49","230",,"15",,,,,,,,,,,,,,,,,,,,,,,,,,,,,,,,,,,,,"MET10301/30/14 20:13:02 SPECI KAVX 310413Z 23013KT 1SM BR OVC004 10/09 A2991 RMK AO2 VIS 1/2V5 T01000094 TSNO","FM-16","7",,,,,,,,,,,,,,,,,,,,,,,,,,,,
"72292023191","2014-01-30T20:21:00","FM-16","7",,,,,,,,,,,,,,,,,,,,,,,,,,,,,,,,,,,,,,"29.91","49","50",,"FG:2 |FG |",,,"96",,"VV:09 2","28.22","0.25","49","240",,"14",,,,,,,,,,,,,,,,,,,,,,,,,,,,,,,,,,,,,"MET09401/30/14 20:21:02 SPECI KAVX 310421Z 24012KT 1/4SM FG VV002 10/09 A2991 RMK AO2 T01000094 TSNO","FM-16","7",,,,,,,,,,,,,,,,,,,,,,,,,,,,
"72292023191","2014-01-30T20:51:00","FM-15","7",,,,,,,,,,,,,,,,,,,,,,,,,,,,,,,,,,,,,,"29.91","49","51","0.00","FG:2 |FG |",,,"92","29.91","VV:09 2","28.22","0.25","50","240",,"13",,,,,,,,,,,,,,,,,,,,,,,,,,,,,,,,,,,,,"MET10101/30/14 20:51:02 METAR KAVX 310451Z 24011KT 1/4SM FG VV002 11/09 A2991 RMK AO2 SLP127 T01060094 TSNO","FM-15","7",,,,,,,,,,,,,,,,,,,,,,,,,,,,
"72292023191","2014-01-30T21:51:00","FM-15","7",,,,,,,,,,,,,,,,,,,,,,,,,,,,,,,,,,,,,,"29.92","49","50","0.00","FG:2 |FG |","-0.01","3","96","29.91","VV:09 2","28.23","0.25","49","240",,"13",,,,,,,,,,,,,,,,,,,,,,,,,,,,,,,,,,,,,"MET12501/30/14 21:51:02 METAR KAVX 310551Z 24011KT 1/4SM FG VV002 10/09 A2992 RMK AO2 SLP129 60001 T01000094 10128 20100 53002 TSNO","FM-15","7",,,,,,,,,,,,,,,,,,,,,,,,,,,,
"72292023191","2014-01-30T22:51:00","FM-15","7",,,,,,,,,,,,,,,,,,,,,,,,,,,,,,,,,,,,,,"29.92","49","50","0.00","FG:2 |FG |",,,"96","29.92","VV:09 2","28.23","0.50","49","250",,"14",,,,,,,,,,,,,,,,,,,,,,,,,,,,,,,,,,,,,"MET10101/30/14 22:51:02 METAR KAVX 310651Z 25012KT 1/2SM FG VV002 10/09 A2992 RMK AO2 SLP132 T01000094 TSNO","FM-15","7",,,,,,,,,,,,,,,,,,,,,,,,,,,,
"72292023191","2014-01-30T23:08:00","FM-16","7",,,,,,,,,,,,,,,,,,,,,,,,,,,,,,,,,,,,,,"29.93","49","50",,"BR:1 ||",,,"96",,"OVC:08 2","28.24","1.25","49","250",,"14",,,,,,,,,,,,,,,,,,,,,,,,,,,,,,,,,,,,,"MET09701/30/14 23:08:02 SPECI KAVX 310708Z 25012KT 1 1/4SM BR OVC002 10/09 A2993 RMK AO2 T01000094 TSNO","FM-16","7",,,,,,,,,,,,,,,,,,,,,,,,,,,,
"72292023191","2014-01-30T23:11:00","FM-16","7",,,,,,,,,,,,,,,,,,,,,,,,,,,,,,,,,,,,,,"29.93","49","50",,"BR:1 ||",,,"96",,"OVC:08 2","28.24","3.00","49","250","22","13",,,,,,,,,,,,,,,,,,,,,,,,,,,,,,,,,,,,,"MET09601/30/14 23:11:02 SPECI KAVX 310711Z 25011G19KT 3SM BR OVC002 10/09 A2993 RMK AO2 T01000094 TSNO","FM-16","7",,,,,,,,,,,,,,,,,,,,,,,,,,,,
"72292023191","2014-01-30T23:49:00","FM-16","6",,,,,,,,,,,,,,,,,,,,,,,,,,,,,,,,,,,,,,"29.93","48","50",,,,,"94",,"SCT:04 4 OVC:08 11","28.24","10.00","49","240",,"11",,,,,,,,,,,,,,,,,,,,,,,,,,,,,,,,,,,,,"MET09301/30/14 23:49:03 SPECI KAVX 310749Z 24010KT 10SM SCT004 OVC011 10/09 A2993 RMK AO2 TSNO FIBI","FM-16","6",,,,,,,,,,,,,,,,,,,,,,,,,,,,
"72292023191","2014-01-30T23:51:00","FM-15","7",,,,,,,,,,,,,,,,,,,,,,,,,,,,,,,,,,,,,,"29.93","48","50","0.00",,,,"93","29.92","SCT:04 4 OVC:08 11","28.24","10.00","49","250",,"13",,,,,,,,,,,,,,,,,,,,,,,,,,,,,,,,,,,,,"MET12701/30/14 23:51:02 METAR KAVX 310751Z 25011KT 10SM SCT004 OVC011 10/09 A2993 RMK AO2 CIG 005V012 SLP132 T01000089 401440094 TSNO","FM-15","7",,,,,,,,,,,,,,,,,,,,,,,,,,,,
"72292023191","2014-01-30T23:58:00","FM-16","7",,,,,,,,,,,,,,,,,,,,,,,,,,,,,,,,,,,,,,"29.92","48","49",,,,,"97",,"BKN:07 4 OVC:08 11","28.23","10.00","48","250",,"14",,,,,,,,,,,,,,,,,,,,,,,,,,,,,,,,,,,,,"MET11001/30/14 23:58:02 SPECI KAVX 310758Z 25012KT 10SM BKN004 OVC011 09/09 A2992 RMK AO2 CIG 002V008 T00940089 TSNO","FM-16","7",,,,,,,,,,,,,,,,,,,,,,,,,,,,
"72292023191","2014-01-30T23:59:00","SOD  ","6",,,,,,,,,,,,,,,,"54",,,"28.23",,"7.8","0","-0.4","11","58","49","260","23","0.01",,,"260","17","RA FG BR",,,,,,,,,,,,,,,,,,,,,,,,,,,,,,,,,,,,,,,,,,,,,,,,,,,,,,,,"SOD73024 HR PRECIPITATION (IN):0.01  24 HR MAX TEMP (F):58 24 HR MAX TEMP TIME (LST):0154 24 HR MIN TEMP (F):49 24 HR MIN TEMP TIME (LST):2359 AVERAGE STATION PRESSURE:28.235 MINIMUM SEA LEVEL PRESSURE:29.88 TIME OF OCCURRENCE:1357 PEAK WIND SPEED (MPH):23  PEAK WIND DIR (DEG):260 PEAK WIND TIME (LST):2317  FASTEST 2MIN SPEED (MPH):17 FASTEST 2MIN DIR (DEG):260 FASTEST 2MIN TIME (LST):2318 AVERAGE WIND SPEED (MPH):7.8  24 HR AVG TEMP (F):54 HEATING DEGREE DAYS:11  COOLING DEGREE DAYS:0   LATEST DAY MAX TEMP (0700-1900 LST):57  LATEST NIGHT MIN TEMP(1900-0800 LST):49 HOURLY INCREMENTAL PRECIPITATION VALUES (IN):.00 0.00 0.00 0.00 0.00 0.00 0.00 0.00 0.00 0.00 0.00 0.00 0.00 0.00 0.00 0.00 0.00 0.01 T    0.00 0.00 0.00 0.00 0.00","SOD  ","6",,,,,,,,,,,,,,,,,,,,,,,,,"0651","1723",,
"72292023191","2014-01-31T00:08:00","FM-16","7",,,,,,,,,,,,,,,,,,,,,,,,,,,,,,,,,,,,,,"29.92","48","50","T","-RA:02 BR:1 |RA |",,,"93",,"BKN:07 4 OVC:08 7","28.23","1.75","49","260",,"17",,,,,,,,,,,,,,,,,,,,,,,,,,,,,,,,,,,,,"MET12001/31/14 00:08:02 SPECI KAVX 310808Z 26015KT 1 3/4SM -RA BR BKN004 OVC007 10/09 A2992 RMK AO2 RAB03 P0000 T01000089 TSNO","FM-16","7",,,,,,,,,,,,,,,,,,,,,,,,,,,,
"72292023191","2014-01-31T00:17:00","FM-16","7",,,,,,,,,,,,,,,,,,,,,,,,,,,,,,,,,,,,,,"29.92","48","50","T","-RA:02 BR:1 |RA |",,,"93",,"OVC:08 2","28.23","4.00","49","260",,"15",,,,,,,,,,,,,,,,,,,,,,,,,,,,,,,,,,,,,"MET10901/31/14 00:17:02 SPECI KAVX 310817Z 26013KT 4SM -RA BR OVC002 10/09 A2992 RMK AO2 RAB03 P0000 T01000089 TSNO","FM-16","7",,,,,,,,,,,,,,,,,,,,,,,,,,,,
"72292023191","2014-01-31T00:43:00","FM-16","7",,,,,,,,,,,,,,,,,,,,,,,,,,,,,,,,,,,,,,"29.91","48","49","T",,,,"97",,"BKN:07 5 OVC:08 11","28.22","10.00","48","260",,"17",,,,,,,,,,,,,,,,,,,,,,,,,,,,,,,,,,,,,"MET12501/31/14 00:43:02 SPECI KAVX 310843Z 26015KT 10SM BKN005 OVC011 09/09 A2991 RMK AO2 RAB03E19 CIG 003V008 P0000 T00940089 TSNO","FM-16","7",,,,,,,,,,,,,,,,,,,,,,,,,,,,
"72292023191","2014-01-31T00:51:00","FM-15","7",,,,,,,,,,,,,,,,,,,,,,,,,,,,,,,,,,,,,,"29.91","48","49","T","-RA:02 |RA |","+0.01","8","97","29.91","BKN:07 5 OVC:08 11","28.22","7.00","48","250",,"18",,,,,,,,,,,,,,,,,,,,,,,,,,,,,,,,,,,,,"MET15001/31/14 00:51:02 METAR KAVX 310851Z 25016KT 7SM -RA BKN005 OVC011 09/09 A2991 RMK AO2 RAB03E19B47 CIG 003V009 SLP127 P0000 60000 T00940089 58002 TSNO","FM-15","7",,,,,,,,,,,,,,,,,,,,,,,,,,,,
"72292023191","2014-01-31T01:32:00","FM-16","7",,,,,,,,,,,,,,,,,,,,,,,,,,,,,,,,,,,,,,"29.91","48","50","T","-RA:02 BR:1 |RA |",,,"93",,"OVC:08 6","28.22","1.75","49","270",,"17",,,,,,,,,,,,,,,,,,,,,,,,,,,,,,,,,,,,,"MET11801/31/14 01:32:02 SPECI KAVX 310932Z 27015KT 1 3/4SM -RA BR OVC006 10/09 A2991 RMK AO2 RAE0856B28 P0000 T01000089 TSNO","FM-16","7",,,,,,,,,,,,,,,,,,,,,,,,,,,,
"72292023191","2014-01-31T01:42:00","FM-16","7",,,,,,,,,,,,,,,,,,,,,,,,,,,,,,,,,,,,,,"29.91","48","50","T","-RA:02 BR:1 |RA |",,,"93",,"OVC:08 3","28.22","1.00","49","270",,"15",,,,,,,,,,,,,,,,,,,,,,,,,,,,,,,,,,,,,"MET11401/31/14 01:42:02 SPECI KAVX 310942Z 27013KT 1SM -RA BR OVC003 10/09 A2991 RMK AO2 RAE0856B28 P0000 T01000089 TSNO","FM-16","7",,,,,,,,,,,,,,,,,,,,,,,,,,,,
"72292023191","2014-01-31T01:49:00","FM-16","6",,,,,,,,,,,,,,,,,,,,,,,,,,,,,,,,,,,,,,"29.91","48","48",,"-RA:02 BR:1 |RA |",,,"100",,"BKN:07 3 OVC:08 9","28.22","1.25","48","270",,"17",,,,,,,,,,,,,,,,,,,,,,,,,,,,,,,,,,,,,"MET12001/31/14 01:49:02 SPECI KAVX 310949Z 27015KT 1 1/4SM -RA BR BKN003 OVC009 09/09 A2991 RMK AO2 RAE0856B28 P0000 TSNO FIBI","FM-16","6",,,,,,,,,,,,,,,,,,,,,,,,,,,,
"72292023191","2014-01-31T01:51:00","FM-15","7",,,,,,,,,,,,,,,,,,,,,,,,,,,,,,,,,,,,,,"29.91","48","49","T","-RA:02 BR:1 |RA |",,,"97","29.90","BKN:07 3 OVC:08 9","28.22","2.00","48","270",,"16",,,,,,,,,,,,,,,,,,,,,,,,,,,,,,,,,,,,,"MET12801/31/14 01:51:02 METAR KAVX 310951Z 27014KT 2SM -RA BR BKN003 OVC009 09/09 A2991 RMK AO2 RAE0856B28 SLP125 P0000 T00940089 TSNO","FM-15","7",,,,,,,,,,,,,,,,,,,,,,,,,,,,
"72292023191","2014-01-31T01:56:00","FM-16","7",,,,,,,,,,,,,,,,,,,,,,,,,,,,,,,,,,,,,,"29.91","48","49","T",,,,"97",,"SCT:04 3 OVC:08 9","28.22","10.00","48","260",,"15",,,,,,,,,,,,,,,,,,,,,,,,,,,,,,,,,,,,,"MET11001/31/14 01:56:02 SPECI KAVX 310956Z 26013KT 10SM SCT003 OVC009 09/09 A2991 RMK AO2 RAE52 P0000 T00940089 TSNO","FM-16","7",,,,,,,,,,,,,,,,,,,,,,,,,,,,
"72292023191","2014-01-31T02:03:00","FM-16","7",,,,,,,,,,,,,,,,,,,,,,,,,,,,,,,,,,,,,,"29.91","48","49","T",,,,"97",,"BKN:07 4 OVC:08 9","28.22","10.00","48","260",,"14",,,,,,,,,,,,,,,,,,,,,,,,,,,,,,,,,,,,,"MET11201/31/14 02:03:02 SPECI KAVX 311003Z 26012KT 10SM BKN004 OVC009 09/09 A2991 RMK AO2 RAE0952 P0000 T00940089 TSNO","FM-16","7",,,,,,,,,,,,,,,,,,,,,,,,,,,,
"72292023191","2014-01-31T02:25:00","FM-16","7",,,,,,,,,,,,,,,,,,,,,,,,,,,,,,,,,,,,,,"29.90","47","49","T",,,,"93",,"BKN:07 5 OVC:08 9","28.21","10.00","48","260",,"17",,,,,,,,,,,,,,,,,,,,,,,,,,,,,,,,,,,,,"MET13001/31/14 02:25:02 SPECI KAVX 311025Z 26015KT 10SM BKN005 OVC009 09/08 A2990 RMK AO2 RAE0952B07E16 CIG 003V007 P0000 T00940083 TSNO","FM-16","7",,,,,,,,,,,,,,,,,,,,,,,,,,,,
"72292023191","2014-01-31T02:51:00","FM-15","7",,,,,,,,,,,,,,,,,,,,,,,,,,,,,,,,,,,,,,"29.90","46","49","T",,,,"90","29.90","OVC:08 7","28.21","10.00","47","250",,"14",,,,,,,,,,,,,,,,,,,,,,,,,,,,,,,,,,,,,"MET13001/31/14 02:51:02 METAR KAVX 311051Z 25012KT 10SM OVC007 09/08 A2990 RMK AO2 RAE0952B07E16 CIG 006V012 SLP125 P0000 T00940078 TSNO","FM-15","7",,,,,,,,,,,,,,,,,,,,,,,,,,,,
"72292023191","2014-01-31T03:51:00","FM-15","7",,,,,,,,,,,,,,,,,,,,,,,,,,,,,,,,,,,,,,"29.90","46","49","0.00",,"+0.01","8","90","29.89","BKN:07 6 BKN:07 12","28.21","10.00","47","270",,"18",,,,,,,,,,,,,,,,,,,,,,,,,,,,,,,,,,,,,"MET14701/31/14 03:51:02 METAR KAVX 311151Z 27016KT 10SM BKN006 BKN012 09/08 A2990 RMK AO2 CIG 006V010 SLP122 60000 70001 T00940078 10100 20094 58005 TSNO","FM-15","7",,,,,,,,,,,,,,,,,,,,,,,,,,,,
"72292023191","2014-01-31T04:19:00","FM-16","7",,,,,,,,,,,,,,,,,,,,,,,,,,,,,,,,,,,,,,"29.90","45","49",,,,,"86",,"BKN:07 9 BKN:07 14","28.21","10.00","47","270","29","18",,,,,,,,,,,,,,,,,,,,,,,,,,,,,,,,,,,,,"MET11301/31/14 04:19:02 SPECI KAVX 311219Z 27016G25KT 10SM BKN009 BKN014 09/07 A2990 RMK AO2 CIG 006V011 T00940072 TSNO","FM-16","7",,,,,,,,,,,,,,,,,,,,,,,,,,,,
"72292023191","2014-01-31T04:51:00","FM-15","7",,,,,,,,,,,,,,,,,,,,,,,,,,,,,,,,,,,,,,"29.91","45","49","0.00",,,,"86","29.90","BKN:07 9 BKN:07 15","28.22","10.00","47","270",,"17",,,,,,,,,,,,,,,,,,,,,,,,,,,,,,,,,,,,,"MET11701/31/14 04:51:02 METAR KAVX 311251Z 27015KT 10SM BKN009 BKN015 09/07 A2991 RMK AO2 CIG 006V010 SLP126 T00940072 TSNO","FM-15","7",,,,,,,,,,,,,,,,,,,,,,,,,,,,
"72292023191","2014-01-31T05:02:00","FM-16","7",,,,,,,,,,,,,,,,,,,,,,,,,,,,,,,,,,,,,,"29.91","45","49",,,,,"86",,"BKN:07 8 BKN:07 13","28.22","10.00","47","270",,"20",,,,,,,,,,,,,,,,,,,,,,,,,,,,,,,,,,,,,"MET11001/31/14 05:02:02 SPECI KAVX 311302Z 27017KT 10SM BKN008 BKN013 09/07 A2991 RMK AO2 CIG 006V012 T00940072 TSNO","FM-16","7",,,,,,,,,,,,,,,,,,,,,,,,,,,,
"72292023191","2014-01-31T05:11:00","FM-16","7",,,,,,,,,,,,,,,,,,,,,,,,,,,,,,,,,,,,,,"29.91","45","49",,,,,"86",,"SCT:04 7 BKN:07 12","28.22","10.00","47","270","30","22",,,,,,,,,,,,,,,,,,,,,,,,,,,,,,,,,,,,,"MET11901/31/14 05:11:02 SPECI KAVX 311311Z 27019G26KT 10SM SCT007 BKN012 09/07 A2991 RMK AO2 PK WND 27026/1311 T00940072 TSNO","FM-16","7",,,,,,,,,,,,,,,,,,,,,,,,,,,,
"72292023191","2014-01-31T05:18:00","FM-16","7",,,,,,,,,,,,,,,,,,,,,,,,,,,,,,,,,,,,,,"29.92","45","49",,,,,"86",,"BKN:07 9 BKN:07 14","28.23","10.00","47","280","30","21",,,,,,,,,,,,,,,,,,,,,,,,,,,,,,,,,,,,,"MET13101/31/14 05:18:02 SPECI KAVX 311318Z 28018G26KT 10SM BKN009 BKN014 09/07 A2992 RMK AO2 PK WND 27026/1316 CIG 006V011 T00940072 TSNO","FM-16","7",,,,,,,,,,,,,,,,,,,,,,,,,,,,
"72292023191","2014-01-31T05:28:00","FM-16","7",,,,,,,,,,,,,,,,,,,,,,,,,,,,,,,,,,,,,,"29.92","45","49",,,,,"86",,"BKN:07 11","28.23","10.00","47","270","28","22",,,,,,,,,,,,,,,,,,,,,,,,,,,,,,,,,,,,,"MET11201/31/14 05:28:02 SPECI KAVX 311328Z 27019G24KT 10SM BKN011 09/07 A2992 RMK AO2 PK WND 27026/1316 T00940072 TSNO","FM-16","7",,,,,,,,,,,,,,,,,,,,,,,,,,,,
"72292023191","2014-01-31T05:51:00","FM-15","7",,,,,,,,,,,,,,,,,,,,,,,,,,,,,,,,,,,,,,"29.92","44","49","0.00",,,,"83","29.92","BKN:07 10","28.23","10.00","47","270",,"21",,,,,,,,,,,,,,,,,,,,,,,,,,,,,,,,,,,,,"MET12801/31/14 05:51:02 METAR KAVX 311351Z 27018KT 10SM BKN010 09/07 A2992 RMK AO2 PK WND 27026/1316 CIG 007V011 SLP132 T00940067 TSNO","FM-15","7",,,,,,,,,,,,,,,,,,,,,,,,,,,,
"72292023191","2014-01-31T06:02:00","FM-16","7",,,,,,,,,,,,,,,,,,,,,,,,,,,,,,,,,,,,,,"29.93","45","49",,,,,"86",,"BKN:07 8 BKN:07 14","28.24","10.00","47","270","29","21",,,,,,,,,,,,,,,,,,,,,,,,,,,,,,,,,,,,,"MET11301/31/14 06:02:02 SPECI KAVX 311402Z 27018G25KT 10SM BKN008 BKN014 09/07 A2993 RMK AO2 CIG 007V013 T00940072 TSNO","FM-16","7",,,,,,,,,,,,,,,,,,,,,,,,,,,,
"72292023191","2014-01-31T06:14:00","FM-16","7",,,,,,,,,,,,,,,,,,,,,,,,,,,,,,,,,,,,,,"29.92","45","49",,,,,"86",,"BKN:07 10 BKN:07 13","28.23","10.00","47","270","33","22",,,,,,,,,,,,,,,,,,,,,,,,,,,,,,,,,,,,,"MET13101/31/14 06:14:02 SPECI KAVX 311414Z 27019G29KT 10SM BKN010 BKN013 09/07 A2992 RMK AO2 PK WND 27029/1408 CIG 007V012 T00940072 TSNO","FM-16","7",,,,,,,,,,,,,,,,,,,,,,,,,,,,
"72292023191","2014-01-31T06:51:00","FM-15","7",,,,,,,,,,,,,,,,,,,,,,,,,,,,,,,,,,,,,,"29.94","44","49","0.00",,"-0.04","3","83","29.94","BKN:07 10 OVC:08 16","28.25","10.00","47","270","30","24",,,,,,,,,,,,,,,,,,,,,,,,,,,,,,,,,,,,,"MET14401/31/14 06:51:02 METAR KAVX 311451Z 27021G26KT 10SM BKN010 OVC016 09/07 A2994 RMK AO2 PK WND 27029/1408 CIG 007V012 SLP139 T00940067 53014 TSNO","FM-15","7",,,,,,,,,,,,,,,,,,,,,,,,,,,,
"72292023191","2014-01-31T07:32:00","FM-16","7",,,,,,,,,,,,,,,,,,,,,,,,,,,,,,,,,,,,,,"29.95","45","49",,,,,"86",,"BKN:07 9 BKN:07 14","28.26","10.00","47","260","28","22",,,,,,,,,,,,,,,,,,,,,,,,,,,,,,,,,,,,,"MET13101/31/14 07:32:02 SPECI KAVX 311532Z 26019G24KT 10SM BKN009 BKN014 09/07 A2995 RMK AO2 PK WND 27027/1510 CIG 007V012 T00940072 TSNO","FM-16","7",,,,,,,,,,,,,,,,,,,,,,,,,,,,
"72292023191","2014-01-31T07:46:00","FM-16","7",,,,,,,,,,,,,,,,,,,,,,,,,,,,,,,,,,,,,,"29.95","45","48",,,,,"87",,"SCT:04 9 SCT:04 14","28.26","10.00","47","270","32","23",,,,,,,,,,,,,,,,,,,,,,,,,,,,,,,,,,,,,"MET10901/31/14 07:46:02 SPECI KAVX 311546Z 27020G28KT 10SM SCT009 SCT014 09/07 A2995 RMK AO2 PK WND 27028/1544 TSNO","FM-16","7",,,,,,,,,,,,,,,,,,,,,,,,,,,,
"72292023191","2014-01-31T07:51:00","FM-15","7",,,,,,,,,,,,,,,,,,,,,,,,,,,,,,,,,,,,,,"29.96","44","49","0.00",,,,"83","29.96","FEW:02 9 SCT:04 14","28.27","10.00","47","270","32","20",,,,,,,,,,,,,,,,,,,,,,,,,,,,,,,,,,,,,"MET12601/31/14 07:51:02 METAR KAVX 311551Z 27017G28KT 10SM FEW009 SCT014 09/07 A2996 RMK AO2 PK WND 27028/1544 SLP145 T00940067 TSNO","FM-15","7",,,,,,,,,,,,,,,,,,,,,,,,,,,,
"72292023191","2014-01-31T08:51:00","FM-15","7",,,,,,,,,,,,,,,,,,,,,,,,,,,,,,,,,,,,,,"29.98","42","50","0.00",,,,"74","29.98","FEW:02 16","28.28","10.00","46","290",,"15",,,,,,,,,,,,,,,,,,,,,,,,,,,,,,,,,,,,,"MET11601/31/14 08:51:02 METAR KAVX 311651Z 29013KT 10SM FEW016 10/06 A2998 RMK AO2 PK WND 27027/1607 SLP151 T01000056 TSNO","FM-15","7",,,,,,,,,,,,,,,,,,,,,,,,,,,,
"72292023191","2014-01-31T09:51:00","FM-15","7",,,,,,,,,,,,,,,,,,,,,,,,,,,,,,,,,,,,,,"29.99","44","51","0.00",,"-0.04","3","77","29.99","SCT:04 17","28.30","10.00","47","290",,"16",,,,,,,,,,,,,,,,,,,,,,,,,,,,,,,,,,,,,"MET11601/31/14 09:51:02 METAR KAVX 311751Z 29014KT 10SM SCT017 11/07 A2999 RMK AO2 SLP155 T01060067 10106 20094 53012 TSNO","FM-15","7",,,,,,,,,,,,,,,,,,,,,,,,,,,,
"72292023191","2014-01-31T10:31:00","FM-16","7",,,,,,,,,,,,,,,,,,,,,,,,,,,,,,,,,,,,,,"29.99","43","52",,,,,"72",,"BKN:07 18","28.30","10.00","48","290","22","17",,,,,,,,,,,,,,,,,,,,,,,,,,,,,,,,,,,,,"MET09401/31/14 10:31:02 SPECI KAVX 311831Z 29015G19KT 10SM BKN018 11/06 A2999 RMK AO2 T01110061 TSNO","FM-16","7",,,,,,,,,,,,,,,,,,,,,,,,,,,,
"72292023191","2014-01-31T10:51:00","FM-15","7",,,,,,,,,,,,,,,,,,,,,,,,,,,,,,,,,,,,,,"29.99","43","53","0.00",,,,"69","29.99","BKN:07 20 BKN:07 26","28.30","10.00","48","300",,"10",,,,,,,,,,,,,,,,,,,,,,,,,,,,,,,,,,,,,"MET10501/31/14 10:51:02 METAR KAVX 311851Z 30009KT 10SM BKN020 BKN026 12/06 A2999 RMK AO2 SLP155 T01170061 TSNO","FM-15","7",,,,,,,,,,,,,,,,,,,,,,,,,,,,
"72292023191","2014-01-31T11:51:00","FM-15","7",,,,,,,,,,,,,,,,,,,,,,,,,,,,,,,,,,,,,,"29.96","43","55","0.00",,,,"64","29.95","BKN:07 22 OVC:08 29","28.27","10.00","49","260",,"22",,,,,,,,,,,,,,,,,,,,,,,,,,,,,,,,,,,,,"MET10501/31/14 11:51:02 METAR KAVX 311951Z 26019KT 10SM BKN022 OVC029 13/06 A2996 RMK AO2 SLP142 T01280061 TSNO","FM-15","7",,,,,,,,,,,,,,,,,,,,,,,,,,,,
"72292023191","2014-01-31T12:49:00","FM-16","6",,,,,,,,,,,,,,,,,,,,,,,,,,,,,,,,,,,,,,"29.94","43","55",,,,,"63",,"SCT:04 15 SCT:04 22","28.25","10.00","49","270","30","21",,,,,,,,,,,,,,,,,,,,,,,,,,,,,,,,,,,,,"MET11401/31/14 12:49:02 SPECI KAVX 312049Z 27018G26KT 10SM SCT015 SCT022 13/06 A2994 RMK AO2 PK WND 27027/2029 TSNO FIBI","FM-16","6",,,,,,,,,,,,,,,,,,,,,,,,,,,,
"72292023191","2014-01-31T12:51:00","FM-15","7",,,,,,,,,,,,,,,,,,,,,,,,,,,,,,,,,,,,,,"29.94","43","55","0.00",,"+0.05","8","64","29.93","SCT:04 15 BKN:07 22","28.25","10.00","49","270","30","20",,,,,,,,,,,,,,,,,,,,,,,,,,,,,,,,,,,,,"MET13201/31/14 12:51:02 METAR KAVX 312051Z 27017G26KT 10SM SCT015 BKN022 13/06 A2994 RMK AO2 PK WND 27027/2029 SLP135 T01280061 58018 TSNO","FM-15","7",,,,,,,,,,,,,,,,,,,,,,,,,,,,
"72292023191","2014-01-31T13:51:00","FM-15","7",,,,,,,,,,,,,,,,,,,,,,,,,,,,,,,,,,,,,,"29.92","43","55","0.00",,,,"64","29.91","BKN:07 20","28.23","10.00","49","270","30","21",,,,,,,,,,,,,,,,,,,,,,,,,,,,,,,,,,,,,"MET11901/31/14 13:51:02 METAR KAVX 312151Z 27018G26KT 10SM BKN020 13/06 A2992 RMK AO2 PK WND 28026/2148 SLP130 T01280061 TSNO","FM-15","7",,,,,,,,,,,,,,,,,,,,,,,,,,,,
"72292023191","2014-01-31T14:13:00","FM-16","7",,,,,,,,,,,,,,,,,,,,,,,,,,,,,,,,,,,,,,"29.92","43","54",,,,,"67",,"SCT:04 19","28.23","10.00","48","260",,"23",,,,,,,,,,,,,,,,,,,,,,,,,,,,,,,,,,,,,"MET10901/31/14 14:13:02 SPECI KAVX 312213Z 26020KT 10SM SCT019 12/06 A2992 RMK AO2 PK WND 25026/2200 T01220061 TSNO","FM-16","7",,,,,,,,,,,,,,,,,,,,,,,,,,,,
"72292023191","2014-01-31T14:51:00","FM-15","7",,,,,,,,,,,,,,,,,,,,,,,,,,,,,,,,,,,,,,"29.92","42","53","0.00",,,,"66","29.92","CLR:00","28.23","10.00","48","260",,"21",,,,,,,,,,,,,,,,,,,,,,,,,,,,,,,,,,,,,"MET11301/31/14 14:51:02 METAR KAVX 312251Z 26018KT 10SM CLR 12/06 A2992 RMK AO2 PK WND 25026/2200 SLP131 T01170056 TSNO","FM-15","7",,,,,,,,,,,,,,,,,,,,,,,,,,,,
"72292023191","2014-01-31T15:51:00","FM-15","7",,,,,,,,,,,,,,,,,,,,,,,,,,,,,,,,,,,,,,"29.93","42","53","0.00",,"+0.01","5","66","29.92","CLR:00","28.24","10.00","48","260",,"17",,,,,,,,,,,,,,,,,,,,,,,,,,,,,,,,,,,,,"MET11301/31/14 15:51:02 METAR KAVX 312351Z 26015KT 10SM CLR 12/06 A2993 RMK AO2 SLP133 T01170056 10133 20106 55003 TSNO","FM-15","7",,,,,,,,,,,,,,,,,,,,,,,,,,,,
"72292023191","2014-01-31T16:51:00","FM-15","7",,,,,,,,,,,,,,,,,,,,,,,,,,,,,,,,,,,,,,"29.93","42","52","0.00",,,,"69","29.93","CLR:00","28.24","10.00","47","290",,"10",,,,,,,,,,,,,,,,,,,,,,,,,,,,,,,,,,,,,"MET09501/31/14 16:51:01 METAR KAVX 010051Z 29009KT 10SM CLR 11/06 A2993 RMK AO2 SLP134 T01110056 TSNO","FM-15","7",,,,,,,,,,,,,,,,,,,,,,,,,,,,
"72292023191","2014-01-31T17:51:00","FM-15","7",,,,,,,,,,,,,,,,,,,,,,,,,,,,,,,,,,,,,,"29.94","41","50","0.00",,,,"71","29.94","CLR:00","28.25","10.00","46","300",,"11",,,,,,,,,,,,,,,,,,,,,,,,,,,,,,,,,,,,,"MET09501/31/14 17:51:01 METAR KAVX 010151Z 30010KT 10SM CLR 10/05 A2994 RMK AO2 SLP140 T01000050 TSNO","FM-15","7",,,,,,,,,,,,,,,,,,,,,,,,,,,,
"72292023191","2014-01-31T18:49:00","FM-16","6",,,,,,,,,,,,,,,,,,,,,,,,,,,,,,,,,,,,,,"29.95","46","50",,,,,"88",,"FEW:02 6","28.26","9.00","48","310",,"13",,,,,,,,,,,,,,,,,,,,,,,,,,,,,,,,,,,,,"MET08501/31/14 18:49:03 SPECI KAVX 010249Z 31011KT 9SM FEW006 10/08 A2995 RMK AO2 TSNO FIBI","FM-16","6",,,,,,,,,,,,,,,,,,,,,,,,,,,,
"72292023191","2014-01-31T18:51:00","FM-15","7",,,,,,,,,,,,,,,,,,,,,,,,,,,,,,,,,,,,,,"29.95","46","50","0.00",,"-0.03","3","86","29.95","FEW:02 6","28.26","9.00","48","320",,"16",,,,,,,,,,,,,,,,,,,,,,,,,,,,,,,,,,,,,"MET10301/31/14 18:51:01 METAR KAVX 010251Z 32014KT 9SM FEW006 10/08 A2995 RMK AO2 SLP143 T01000078 53009 TSNO","FM-15","7",,,,,,,,,,,,,,,,,,,,,,,,,,,,
"72292023191","2014-01-31T19:19:00","FM-16","7",,,,,,,,,,,,,,,,,,,,,,,,,,,,,,,,,,,,,,"29.96","47","50",,,,,"89",,"BKN:07 6","28.27","9.00","48","310","22","15",,,,,,,,,,,,,,,,,,,,,,,,,,,,,,,,,,,,,"MET09301/31/14 19:19:01 SPECI KAVX 010319Z 31013G19KT 9SM BKN006 10/08 A2996 RMK AO2 T01000083 TSNO","FM-16","7",,,,,,,,,,,,,,,,,,,,,,,,,,,,
"72292023191","2014-01-31T19:28:00","FM-16","7",,,,,,,,,,,,,,,,,,,,,,,,,,,,,,,,,,,,,,"29.96","47","51",,,,,"86",,"SCT:04 6","28.27","10.00","49","320",,"16",,,,,,,,,,,,,,,,,,,,,,,,,,,,,,,,,,,,,"MET09101/31/14 19:28:01 SPECI KAVX 010328Z 32014KT 10SM SCT006 11/08 A2996 RMK AO2 T01060083 TSNO","FM-16","7",,,,,,,,,,,,,,,,,,,,,,,,,,,,
"72292023191","2014-01-31T19:51:00","FM-15","7",,,,,,,,,,,,,,,,,,,,,,,,,,,,,,,,,,,,,,"29.96","46","51","0.00",,,,"83","29.96","FEW:02 10","28.27","10.00","48","320",,"16",,,,,,,,,,,,,,,,,,,,,,,,,,,,,,,,,,,,,"MET09801/31/14 19:51:01 METAR KAVX 010351Z 32014KT 10SM FEW010 11/08 A2996 RMK AO2 SLP145 T01060078 TSNO","FM-15","7",,,,,,,,,,,,,,,,,,,,,,,,,,,,
"72292023191","2014-01-31T20:18:00","FM-16","7",,,,,,,,,,,,,,,,,,,,,,,,,,,,,,,,,,,,,,"29.96","46","51",,,,,"83",,"BKN:07 10 BKN:07 14","28.27","10.00","48","320",,"15",,,,,,,,,,,,,,,,,,,,,,,,,,,,,,,,,,,,,"MET11001/31/14 20:18:01 SPECI KAVX 010418Z 32013KT 10SM BKN010 BKN014 11/08 A2996 RMK AO2 CIG 007V012 T01060078 TSNO","FM-16","7",,,,,,,,,,,,,,,,,,,,,,,,,,,,
"72292023191","2014-01-31T20:46:00","FM-16","7",,,,,,,,,,,,,,,,,,,,,,,,,,,,,,,,,,,,,,"29.97","46","52",,,,,"82",,"BKN:07 8","28.27","10.00","49","320",,"15",,,,,,,,,,,,,,,,,,,,,,,,,,,,,,,,,,,,,"MET09301/31/14 20:46:01 SPECI KAVX 010446Z 32013KT 10SM BKN008 11/08 A2997 RMK AO2 CIG 006V012 TSNO","FM-16","7",,,,,,,,,,,,,,,,,,,,,,,,,,,,
"72292023191","2014-01-31T20:51:00","FM-15","7",,,,,,,,,,,,,,,,,,,,,,,,,,,,,,,,,,,,,,"29.97","47","51","0.00",,,,"86","29.97","BKN:07 8","28.27","10.00","49","320",,"14",,,,,,,,,,,,,,,,,,,,,,,,,,,,,,,,,,,,,"MET11001/31/14 20:51:01 METAR KAVX 010451Z 32012KT 10SM BKN008 11/08 A2997 RMK AO2 CIG 006V012 SLP148 T01060083 TSNO","FM-15","7",,,,,,,,,,,,,,,,,,,,,,,,,,,,
"72292023191","2014-01-31T21:11:00","FM-16","7",,,,,,,,,,,,,,,,,,,,,,,,,,,,,,,,,,,,,,"29.97","47","51",,,,,"86",,"BKN:07 9 OVC:08 14","28.27","10.00","49","330",,"13",,,,,,,,,,,,,,,,,,,,,,,,,,,,,,,,,,,,,"MET11001/31/14 21:11:01 SPECI KAVX 010511Z 33011KT 10SM BKN009 OVC014 11/08 A2997 RMK AO2 CIG 007V012 T01060083 TSNO","FM-16","7",,,,,,,,,,,,,,,,,,,,,,,,,,,,
"72292023191","2014-01-31T21:19:00","FM-16","7",,,,,,,,,,,,,,,,,,,,,,,,,,,,,,,,,,,,,,"29.96","47","51",,,,,"86",,"BKN:07 11 BKN:07 16","28.27","10.00","49","330",,"14",,,,,,,,,,,,,,,,,,,,,,,,,,,,,,,,,,,,,"MET09801/31/14 21:19:01 SPECI KAVX 010519Z 33012KT 10SM BKN011 BKN016 11/08 A2996 RMK AO2 T01060083 TSNO","FM-16","7",,,,,,,,,,,,,,,,,,,,,,,,,,,,
"72292023191","2014-01-31T21:41:00","FM-16","7",,,,,,,,,,,,,,,,,,,,,,,,,,,,,,,,,,,,,,"29.97","45","51",,,,,"80",,"SCT:04 11","28.27","10.00","48","340",,"10",,,,,,,,,,,,,,,,,,,,,,,,,,,,,,,,,,,,,"MET09101/31/14 21:41:01 SPECI KAVX 010541Z 34009KT 10SM SCT011 11/07 A2997 RMK AO2 T01060072 TSNO","FM-16","7",,,,,,,,,,,,,,,,,,,,,,,,,,,,
"72292023191","2014-01-31T21:51:00","FM-15","7",,,,,,,,,,,,,,,,,,,,,,,,,,,,,,,,,,,,,,"29.97","45","51","0.00",,"-0.01","1","80","29.97","FEW:02 12","28.27","10.00","48","320",,"10",,,,,,,,,,,,,,,,,,,,,,,,,,,,,,,,,,,,,"MET11601/31/14 21:51:01 METAR KAVX 010551Z 32009KT 10SM FEW012 11/07 A2997 RMK AO2 SLP148 T01060072 10122 20100 51004 TSNO","FM-15","7",,,,,,,,,,,,,,,,,,,,,,,,,,,,
"72292023191","2014-01-31T22:51:00","FM-15","7",,,,,,,,,,,,,,,,,,,,,,,,,,,,,,,,,,,,,,"29.98","32","50","0.00",,,,"50","29.97","CLR:00","28.28","10.00","42","360",,"10",,,,,,,,,,,,,,,,,,,,,,,,,,,,,,,,,,,,,"MET09501/31/14 22:51:01 METAR KAVX 010651Z 36009KT 10SM CLR 10/00 A2998 RMK AO2 SLP150 T01000000 TSNO","FM-15","7",,,,,,,,,,,,,,,,,,,,,,,,,,,,
"72292023191","2014-01-31T23:51:00","FM-15","7",,,,,,,,,,,,,,,,,,,,,,,,,,,,,,,,,,,,,,"29.98","29","50","0.00",,,,"44","29.97","CLR:00","28.28","10.00","41","350",,"14",,,,,,,,,,,,,,,,,,,,,,,,,,,,,,,,,,,,,"MET10601/31/14 23:51:01 METAR KAVX 010751Z 35012KT 10SM CLR 10/M02 A2998 RMK AO2 SLP149 T01001017 401330094 TSNO","FM-15","7",,,,,,,,,,,,,,,,,,,,,,,,,,,,
"72292023191","2014-01-31T23:59:00","SOD  ","6",,,,,,,,,,,,,,,,"53",,,"28.25",,"16.3","0","-1.3","12","56","49","270","34","T",,,"270","26","RA BR",,,,,,,,,,,,,,,,,,,,,,,,,,,,,,,,,,,,,,,,,,,,,,,,,,,,,,,,"SOD75124 HR PRECIPITATION (IN):T     WEATHER(CODE):1  24 HR MAX TEMP (F):56 24 HR MAX TEMP TIME (LST):1348 24 HR MIN TEMP (F):49 24 HR MIN TEMP TIME (LST):0811 AVERAGE STATION PRESSURE(D):28.246 MINIMUM SEA LEVEL PRESSURE:29.89 TIME OF OCCURRENCE:0431 PEAK WIND SPEED (MPH):34  PEAK WIND DIR (DEG):270 PEAK WIND TIME (LST):0608  FASTEST 2MIN SPEED (MPH):26 FASTEST 2MIN DIR (DEG):270 FASTEST 2MIN TIME (LST):0622 AVERAGE WIND SPEED (MPH):16.3 24 HR AVG TEMP (F):53 HEATING DEGREE DAYS: 12 COOLING DEGREE DAYS:  0 LATEST DAY MAX TEMP (0700-1900 LST): 56 LATEST NIGHT MIN TEMP(1900-0800 LST):49 HOURLY INCREMENTAL PRECIPITATION VALUES (IN):    T    T     0.00 0.00 0.00 0.00 0.00 0.00 0.00 0.00 0.00 0.00 0.00 0.00 0.00 0.00 0.00 0.00 0.00 0.00 0.00 0.00 0.00","SOD  ","6",,,,,,,,,,,,,,,,,,,,,,,,,"0651","1724",,
"72292023191","2014-01-31T23:59:00","SOM  ","6","6.3",,,,,,,,,,,"45","45",,,,,,,,,,,,,,,,,,,,,,"728","116",,,,,,,,,,,,,,,,,,,"2","0","0","0","0","0","4.1","35","-206","4.8","3.4","-2.80s",,"0.02","26-27",,,,,"30.21","24","1147","65.2","59.1","29.86","23","0432","52.9","30.03","28.36","0.03s",,,"10","322","SOM796PCP MTOT:0.03 PCP GT 24HRS:0.02 DATE(S):26-27 DAYS W/PCP >=.01:2  DAYS W/PCP >=.10:0  DAYS W/ PCP >=.50:0 DAYS W/PCP >=1.00:0 MSDP AMTS W/DATE-TIME TAGS:MIN:5 0.01  30/1746 MIN:10 0.01  30/1746 MIN:15 0.02  26/2340 MIN:20 0.02  26/2340 MIN:30 0.02  26/2340 MIN:45 0.02  26/2340 MIN:60 0.02  26/2340 MIN:80 0.02  26/2340 MIN:100 0.02  26/2340 MIN:120 0.02  26/2340 MIN:150 0.02  26/2340 MIN:180 0.02  26/2340 AVG DLY MIN:52.9  AVG DLY MAX:65.2  AVG MLY TMP:59.1  MIN TMP:49 DATE(S):31 30 MAX TMP:72  DATE(S):29 22 DAYS MAX <=32:0 DAYS MAX >=90:0  DAYS MIN <=32:0  DAYS MIN  <=0:0  AVG STP:28.360 LWST SLP:29.86 DATE/TIME:230432 HGST SLP:30.21 DATE/TIME:241147 HDD MTH TOT:57 DEP NORM:-2553 SEASON(JUL 1-JUN 30):57 DEP NORM:-25536 CDD MTH TOT:0 DEP NORM:-2553 SEASON(JAN 1-DEC 31):0 DEP NORM:-25536","SOM  ","6","2014-01-30 17:46","2014-01-30 17:46","2014-01-26 23:40","2014-01-26 23:40","2014-01-26 23:40","2014-01-26 23:40","2014-01-26 23:40","2014-01-26 23:40","2014-01-26 23:40","2014-01-26 23:40","2014-01-26 23:40","2014-01-26 23:40","0.01","0.01","0.02","0.02","0.02","0.02","0.02","0.02","0.02","0.02","0.02","0.02",,,,
